{"type":"FeatureCollection","features":[{"type":"Feature","geometry":{"type":"Point","coordinates":[-86.80826607524794,39.38868490243259]},"properties":{"depth":3,"acres":2.43}},{"type":"Feature","geometry":{"type":"Point","coordinates":[-86.7827134413499,39.387818275102795]},"properties":{"depth":2.8,"acres":0.7}},{"type":"Feature","geometry":{"type":"Point","coordinates":[-86.81275000000001,39.38623408512829]},"properties":{"depth":1.8,"acres":0.52}},{"type":"Feature","geometry":{"type":"Point","coordinates":[-86.81169058932959,39.38463437156545]},"properties":{"depth":1.8,"acres":0.7}},{"type":"Feature","geometry":{"type":"Point","coordinates":[-86.8159624197659,39.38358827494062]},"properties":{"depth":2.6,"acres":0.52}},{"type":"Feature","geometry":{"type":"Point","coordinates":[-86.81297122008482,39.38350241055343]},"properties":{"depth":3.7,"acres":1.74}},{"type":"Feature","geometry":{"type":"Point","coordinates":[-86.80785535632823,39.37783222458067]},"properties":{"depth":3.8,"acres":3.65}},{"type":"Feature","geometry":{"type":"Point","coordinates":[-86.71484735269149,39.41535387011868]},"properties":{"depth":3.2,"acres":1.22}},{"type":"Feature","geometry":{"type":"Point","coordinates":[-86.7095922474325,39.39279889796604]},"properties":{"depth":3.3,"acres":1.04}},{"type":"Feature","geometry":{"type":"Point","coordinates":[-86.71159050927132,39.38188262656152]},"properties":{"depth":2.5,"acres":2.43}},{"type":"Feature","geometry":{"type":"Point","coordinates":[-86.71125000000002,39.37718752264882]},"properties":{"depth":2.2,"acres":1.22}},{"type":"Feature","geometry":{"type":"Point","coordinates":[-86.65543644250171,39.4189112108599]},"properties":{"depth":3.6,"acres":1.74}},{"type":"Feature","geometry":{"type":"Point","coordinates":[-86.60159374999998,39.416819837307436]},"properties":{"depth":2.9,"acres":0.52}},{"type":"Feature","geometry":{"type":"Point","coordinates":[-86.60563901700105,39.41529023613734]},"properties":{"depth":3.2,"acres":0.52}},{"type":"Feature","geometry":{"type":"Point","coordinates":[-86.6451957349129,39.40393241770867]},"properties":{"depth":1.9,"acres":0.52}},{"type":"Feature","geometry":{"type":"Point","coordinates":[-86.60661041634052,39.38061209466504]},"properties":{"depth":2.5,"acres":1.91}},{"type":"Feature","geometry":{"type":"Point","coordinates":[-86.43693116705995,39.418442145695856]},"properties":{"depth":2.3,"acres":1.91}},{"type":"Feature","geometry":{"type":"Point","coordinates":[-86.4583724574068,39.408005059369586]},"properties":{"depth":2.8,"acres":34.75}},{"type":"Feature","geometry":{"type":"Point","coordinates":[-86.44865142962865,39.40735837555723]},"properties":{"depth":2.8,"acres":16.16}},{"type":"Feature","geometry":{"type":"Point","coordinates":[-86.44333480204085,39.402392547933815]},"properties":{"depth":1.7,"acres":3.48}},{"type":"Feature","geometry":{"type":"Point","coordinates":[-86.46865218974855,39.397972692669114]},"properties":{"depth":2,"acres":0.52}},{"type":"Feature","geometry":{"type":"Point","coordinates":[-86.43293028131595,39.386635967910514]},"properties":{"depth":2,"acres":0.52}},{"type":"Feature","geometry":{"type":"Point","coordinates":[-86.43369295019572,39.37961705679919]},"properties":{"depth":2.7,"acres":0.87}},{"type":"Feature","geometry":{"type":"Point","coordinates":[-86.31755681341747,39.41837029869472]},"properties":{"depth":2.7,"acres":0.52}},{"type":"Feature","geometry":{"type":"Point","coordinates":[-86.31750088118132,39.39925488998922]},"properties":{"depth":2.9,"acres":0.52}},{"type":"Feature","geometry":{"type":"Point","coordinates":[-86.3100770311286,39.3962578022562]},"properties":{"depth":3,"acres":0.87}},{"type":"Feature","geometry":{"type":"Point","coordinates":[-86.26706312411594,39.418472451027874]},"properties":{"depth":2.6,"acres":0.52}},{"type":"Feature","geometry":{"type":"Point","coordinates":[-86.2923391403354,39.405110123073854]},"properties":{"depth":2.6,"acres":1.22}},{"type":"Feature","geometry":{"type":"Point","coordinates":[-86.28944255392682,39.40270577305226]},"properties":{"depth":1.8,"acres":0.52}},{"type":"Feature","geometry":{"type":"Point","coordinates":[-86.26212961736212,39.39913156431892]},"properties":{"depth":1.9,"acres":0.7}},{"type":"Feature","geometry":{"type":"Point","coordinates":[-86.77991294905782,39.359452545523375]},"properties":{"depth":2,"acres":0.52}},{"type":"Feature","geometry":{"type":"Point","coordinates":[-86.81386201217556,39.35695145540108]},"properties":{"depth":2.5,"acres":1.22}},{"type":"Feature","geometry":{"type":"Point","coordinates":[-86.81226200364048,39.356504175547805]},"properties":{"depth":2.3,"acres":0.87}},{"type":"Feature","geometry":{"type":"Point","coordinates":[-86.81103980070054,39.35580156069132]},"properties":{"depth":2.8,"acres":0.52}},{"type":"Feature","geometry":{"type":"Point","coordinates":[-86.7725949047724,39.35356711765022]},"properties":{"depth":2.8,"acres":1.56}},{"type":"Feature","geometry":{"type":"Point","coordinates":[-86.77762856170762,39.35297615066228]},"properties":{"depth":5.4,"acres":1.91}},{"type":"Feature","geometry":{"type":"Point","coordinates":[-86.80539904719859,39.348928063914755]},"properties":{"depth":2.3,"acres":0.52}},{"type":"Feature","geometry":{"type":"Point","coordinates":[-86.79368169104728,39.338955762071144]},"properties":{"depth":4.3,"acres":4.35}},{"type":"Feature","geometry":{"type":"Point","coordinates":[-86.77242246256279,39.33970543105163]},"properties":{"depth":1.9,"acres":0.7}},{"type":"Feature","geometry":{"type":"Point","coordinates":[-86.79599697635841,39.33363664077979]},"properties":{"depth":6.7,"acres":15.3}},{"type":"Feature","geometry":{"type":"Point","coordinates":[-86.79046870866576,39.332847706962944]},"properties":{"depth":7.6,"acres":30.43}},{"type":"Feature","geometry":{"type":"Point","coordinates":[-86.74830665672981,39.368995746972345]},"properties":{"depth":1.8,"acres":0.52}},{"type":"Feature","geometry":{"type":"Point","coordinates":[-86.74870833333334,39.365157592408956]},"properties":{"depth":2.2,"acres":0.52}},{"type":"Feature","geometry":{"type":"Point","coordinates":[-86.71719977979994,39.353524420886046]},"properties":{"depth":6.1,"acres":2.43}},{"type":"Feature","geometry":{"type":"Point","coordinates":[-86.75227808546695,39.34513607477198]},"properties":{"depth":2.1,"acres":15.48}},{"type":"Feature","geometry":{"type":"Point","coordinates":[-86.71900616236883,39.345618413207085]},"properties":{"depth":2.4,"acres":1.74}},{"type":"Feature","geometry":{"type":"Point","coordinates":[-86.74085804031233,39.34250904851831]},"properties":{"depth":2.5,"acres":0.7}},{"type":"Feature","geometry":{"type":"Point","coordinates":[-86.74976426647126,39.34155760552416]},"properties":{"depth":2.1,"acres":0.7}},{"type":"Feature","geometry":{"type":"Point","coordinates":[-86.74357250748332,39.34073875976131]},"properties":{"depth":2,"acres":0.87}},{"type":"Feature","geometry":{"type":"Point","coordinates":[-86.74316633622861,39.33792413698162]},"properties":{"depth":1.8,"acres":0.52}},{"type":"Feature","geometry":{"type":"Point","coordinates":[-86.74822574696748,39.33251983972046]},"properties":{"depth":2.6,"acres":2.61}},{"type":"Feature","geometry":{"type":"Point","coordinates":[-86.74364093049785,39.32994707817011]},"properties":{"depth":1.8,"acres":1.56}},{"type":"Feature","geometry":{"type":"Point","coordinates":[-86.74236900807045,39.3293089774553]},"properties":{"depth":1.6,"acres":0.7}},{"type":"Feature","geometry":{"type":"Point","coordinates":[-86.6612828178792,39.36475145744274]},"properties":{"depth":2.3,"acres":2.78}},{"type":"Feature","geometry":{"type":"Point","coordinates":[-86.66009037319087,39.35104395925816]},"properties":{"depth":1.8,"acres":0.52}},{"type":"Feature","geometry":{"type":"Point","coordinates":[-86.68912831642668,39.334634297915095]},"properties":{"depth":1.8,"acres":1.39}},{"type":"Feature","geometry":{"type":"Point","coordinates":[-86.66941393272376,39.32776417795028]},"properties":{"depth":3,"acres":1.74}},{"type":"Feature","geometry":{"type":"Point","coordinates":[-86.63339756275369,39.34888750004506]},"properties":{"depth":3.7,"acres":4.69}},{"type":"Feature","geometry":{"type":"Point","coordinates":[-86.59917708333332,39.34535939232646]},"properties":{"depth":3.3,"acres":0.87}},{"type":"Feature","geometry":{"type":"Point","coordinates":[-86.59289873298343,39.344551652242366]},"properties":{"depth":2.6,"acres":0.87}},{"type":"Feature","geometry":{"type":"Point","coordinates":[-86.63163659338538,39.34230257554519]},"properties":{"depth":3.1,"acres":0.87}},{"type":"Feature","geometry":{"type":"Point","coordinates":[-86.63093421382793,39.34136414190637]},"properties":{"depth":2.7,"acres":0.87}},{"type":"Feature","geometry":{"type":"Point","coordinates":[-86.58920833333332,39.33851584746685]},"properties":{"depth":2.7,"acres":0.52}},{"type":"Feature","geometry":{"type":"Point","coordinates":[-86.57742290706135,39.34894333240059]},"properties":{"depth":3,"acres":0.7}},{"type":"Feature","geometry":{"type":"Point","coordinates":[-86.58342993910553,39.34762312522556]},"properties":{"depth":2.5,"acres":1.22}},{"type":"Feature","geometry":{"type":"Point","coordinates":[-86.45521064116359,39.368714651576326]},"properties":{"depth":2.3,"acres":0.7}},{"type":"Feature","geometry":{"type":"Point","coordinates":[-86.43142550823667,39.36874674014877]},"properties":{"depth":2.3,"acres":0.52}},{"type":"Feature","geometry":{"type":"Point","coordinates":[-86.46312794055808,39.35863414079489]},"properties":{"depth":3.7,"acres":0.52}},{"type":"Feature","geometry":{"type":"Point","coordinates":[-86.46435620645707,39.35528931194809]},"properties":{"depth":2.5,"acres":0.52}},{"type":"Feature","geometry":{"type":"Point","coordinates":[-86.44328184964263,39.350845497545954]},"properties":{"depth":2.1,"acres":0.7}},{"type":"Feature","geometry":{"type":"Point","coordinates":[-86.44083514466872,39.34381758861609]},"properties":{"depth":2.8,"acres":0.7}},{"type":"Feature","geometry":{"type":"Point","coordinates":[-86.43800034653167,39.342582809913]},"properties":{"depth":2.6,"acres":0.52}},{"type":"Feature","geometry":{"type":"Point","coordinates":[-86.4318189637265,39.33971159873602]},"properties":{"depth":2.4,"acres":0.52}},{"type":"Feature","geometry":{"type":"Point","coordinates":[-86.44885290328207,39.32999502944376]},"properties":{"depth":2.1,"acres":0.52}},{"type":"Feature","geometry":{"type":"Point","coordinates":[-86.44542294254603,39.329917874014924]},"properties":{"depth":2.1,"acres":0.52}},{"type":"Feature","geometry":{"type":"Point","coordinates":[-86.43550642795788,39.329917874014924]},"properties":{"depth":2.8,"acres":0.52}},{"type":"Feature","geometry":{"type":"Point","coordinates":[-86.41046550003932,39.34234393819676]},"properties":{"depth":3.3,"acres":0.52}},{"type":"Feature","geometry":{"type":"Point","coordinates":[-86.25080321784287,39.34788048946174]},"properties":{"depth":6.2,"acres":6.61}},{"type":"Feature","geometry":{"type":"Point","coordinates":[-86.79090968418858,39.32275258878883]},"properties":{"depth":4.8,"acres":11.66}},{"type":"Feature","geometry":{"type":"Point","coordinates":[-86.79027315595481,39.318727935366915]},"properties":{"depth":2.3,"acres":0.52}},{"type":"Feature","geometry":{"type":"Point","coordinates":[-86.80779096603595,39.31650619376649]},"properties":{"depth":2.6,"acres":2.09}},{"type":"Feature","geometry":{"type":"Point","coordinates":[-86.79015993147773,39.31248761174049]},"properties":{"depth":3,"acres":0.87}},{"type":"Feature","geometry":{"type":"Point","coordinates":[-86.79753789592668,39.311119033734194]},"properties":{"depth":7.8,"acres":10.79}},{"type":"Feature","geometry":{"type":"Point","coordinates":[-86.78723930438528,39.31027512623372]},"properties":{"depth":9.8,"acres":16.18}},{"type":"Feature","geometry":{"type":"Point","coordinates":[-86.79796137104803,39.30764438117094]},"properties":{"depth":2.8,"acres":0.52}},{"type":"Feature","geometry":{"type":"Point","coordinates":[-86.79982624708232,39.30639641522479]},"properties":{"depth":3.7,"acres":1.74}},{"type":"Feature","geometry":{"type":"Point","coordinates":[-86.80263948409443,39.305318747903435]},"properties":{"depth":2.6,"acres":0.7}},{"type":"Feature","geometry":{"type":"Point","coordinates":[-86.786450879825,39.305095586887845]},"properties":{"depth":3.2,"acres":1.57}},{"type":"Feature","geometry":{"type":"Point","coordinates":[-86.79773292319591,39.304378195647196]},"properties":{"depth":2,"acres":0.52}},{"type":"Feature","geometry":{"type":"Point","coordinates":[-86.80769946087615,39.303529259564606]},"properties":{"depth":3.8,"acres":1.91}},{"type":"Feature","geometry":{"type":"Point","coordinates":[-86.80415899363636,39.30341421567417]},"properties":{"depth":2.4,"acres":1.04}},{"type":"Feature","geometry":{"type":"Point","coordinates":[-86.78857030108857,39.300790382238254]},"properties":{"depth":1.9,"acres":0.52}},{"type":"Feature","geometry":{"type":"Point","coordinates":[-86.78888454114619,39.29918713150936]},"properties":{"depth":3.1,"acres":1.74}},{"type":"Feature","geometry":{"type":"Point","coordinates":[-86.77524741804078,39.299235270930446]},"properties":{"depth":2,"acres":1.39}},{"type":"Feature","geometry":{"type":"Point","coordinates":[-86.79432291666667,39.298835155873206]},"properties":{"depth":2.5,"acres":0.52}},{"type":"Feature","geometry":{"type":"Point","coordinates":[-86.78529497212776,39.29571007153512]},"properties":{"depth":6.9,"acres":2.26}},{"type":"Feature","geometry":{"type":"Point","coordinates":[-86.79266759994672,39.29165708187513]},"properties":{"depth":5.3,"acres":2.09}},{"type":"Feature","geometry":{"type":"Point","coordinates":[-86.78965428732428,39.28577785659196]},"properties":{"depth":4.1,"acres":1.57}},{"type":"Feature","geometry":{"type":"Point","coordinates":[-86.78989276666172,39.28282746665039]},"properties":{"depth":3.3,"acres":2.61}},{"type":"Feature","geometry":{"type":"Point","coordinates":[-86.78954731509754,39.281139633032765]},"properties":{"depth":2.7,"acres":0.7}},{"type":"Feature","geometry":{"type":"Point","coordinates":[-86.7793024726739,39.28007482668078]},"properties":{"depth":2.3,"acres":0.52}},{"type":"Feature","geometry":{"type":"Point","coordinates":[-86.71343281299063,39.31879579018975]},"properties":{"depth":5.6,"acres":10.79}},{"type":"Feature","geometry":{"type":"Point","coordinates":[-86.70887611314382,39.31938616760206]},"properties":{"depth":2.5,"acres":2.44}},{"type":"Feature","geometry":{"type":"Point","coordinates":[-86.7346930373984,39.31701694465939]},"properties":{"depth":3.9,"acres":5.74}},{"type":"Feature","geometry":{"type":"Point","coordinates":[-86.71053810165243,39.317355515795505]},"properties":{"depth":4.1,"acres":3.83}},{"type":"Feature","geometry":{"type":"Point","coordinates":[-86.73733501061668,39.313950499076384]},"properties":{"depth":4.3,"acres":1.22}},{"type":"Feature","geometry":{"type":"Point","coordinates":[-86.75978110106635,39.312690457812856]},"properties":{"depth":2.6,"acres":1.22}},{"type":"Feature","geometry":{"type":"Point","coordinates":[-86.74843442624575,39.31036192280011]},"properties":{"depth":2.8,"acres":1.39}},{"type":"Feature","geometry":{"type":"Point","coordinates":[-86.74582554942307,39.3093166011637]},"properties":{"depth":3.1,"acres":0.87}},{"type":"Feature","geometry":{"type":"Point","coordinates":[-86.71987237174967,39.3086511381573]},"properties":{"depth":2.7,"acres":0.7}},{"type":"Feature","geometry":{"type":"Point","coordinates":[-86.75118045961673,39.30779356659357]},"properties":{"depth":3.1,"acres":5.05}},{"type":"Feature","geometry":{"type":"Point","coordinates":[-86.718088406294,39.3050326250811]},"properties":{"depth":1.8,"acres":0.52}},{"type":"Feature","geometry":{"type":"Point","coordinates":[-86.75002097297083,39.30184989860639]},"properties":{"depth":2,"acres":0.52}},{"type":"Feature","geometry":{"type":"Point","coordinates":[-86.71799289364527,39.29743451893073]},"properties":{"depth":2.2,"acres":0.52}},{"type":"Feature","geometry":{"type":"Point","coordinates":[-86.70749938898753,39.29706884404034]},"properties":{"depth":1.9,"acres":0.87}},{"type":"Feature","geometry":{"type":"Point","coordinates":[-86.71455555159041,39.295323473350365]},"properties":{"depth":5.6,"acres":6.44}},{"type":"Feature","geometry":{"type":"Point","coordinates":[-86.70935007745956,39.29577912152364]},"properties":{"depth":3.3,"acres":1.22}},{"type":"Feature","geometry":{"type":"Point","coordinates":[-86.72308386917364,39.291626191600976]},"properties":{"depth":4.6,"acres":1.39}},{"type":"Feature","geometry":{"type":"Point","coordinates":[-86.7173145627661,39.29043405867091]},"properties":{"depth":2.3,"acres":1.04}},{"type":"Feature","geometry":{"type":"Point","coordinates":[-86.71610240702657,39.290263291357896]},"properties":{"depth":2.4,"acres":0.52}},{"type":"Feature","geometry":{"type":"Point","coordinates":[-86.72674257192594,39.28945399977275]},"properties":{"depth":2.5,"acres":0.52}},{"type":"Feature","geometry":{"type":"Point","coordinates":[-86.70707645093223,39.28849952777628]},"properties":{"depth":2.9,"acres":1.04}},{"type":"Feature","geometry":{"type":"Point","coordinates":[-86.72520164342095,39.287874017977785]},"properties":{"depth":7,"acres":6.44}},{"type":"Feature","geometry":{"type":"Point","coordinates":[-86.72292993661202,39.28631249463337]},"properties":{"depth":5.3,"acres":5.05}},{"type":"Feature","geometry":{"type":"Point","coordinates":[-86.71927531702411,39.28627314037332]},"properties":{"depth":7.3,"acres":8.35}},{"type":"Feature","geometry":{"type":"Point","coordinates":[-86.73290360467175,39.283268581810376]},"properties":{"depth":2.7,"acres":0.87}},{"type":"Feature","geometry":{"type":"Point","coordinates":[-86.72674386387123,39.2816468662569]},"properties":{"depth":10.2,"acres":10.79}},{"type":"Feature","geometry":{"type":"Point","coordinates":[-86.72334049712043,39.280756288673174]},"properties":{"depth":9.5,"acres":8.87}},{"type":"Feature","geometry":{"type":"Point","coordinates":[-86.75656076998288,39.280837421452205]},"properties":{"depth":1.9,"acres":0.7}},{"type":"Feature","geometry":{"type":"Point","coordinates":[-86.69956729962624,39.31735129093795]},"properties":{"depth":1.7,"acres":0.52}},{"type":"Feature","geometry":{"type":"Point","coordinates":[-86.69821487217175,39.31628697343023]},"properties":{"depth":5.6,"acres":2.61}},{"type":"Feature","geometry":{"type":"Point","coordinates":[-86.64891742442529,39.316041714647724]},"properties":{"depth":1.8,"acres":0.52}},{"type":"Feature","geometry":{"type":"Point","coordinates":[-86.67448667884604,39.314523544402945]},"properties":{"depth":2.2,"acres":1.39}},{"type":"Feature","geometry":{"type":"Point","coordinates":[-86.65853340810284,39.31424937447125]},"properties":{"depth":2.2,"acres":1.04}},{"type":"Feature","geometry":{"type":"Point","coordinates":[-86.6674524723853,39.31216966514624]},"properties":{"depth":1.7,"acres":0.7}},{"type":"Feature","geometry":{"type":"Point","coordinates":[-86.66960132102224,39.3085505257044]},"properties":{"depth":3.1,"acres":1.74}},{"type":"Feature","geometry":{"type":"Point","coordinates":[-86.66274519504417,39.30549589128661]},"properties":{"depth":3.2,"acres":2.78}},{"type":"Feature","geometry":{"type":"Point","coordinates":[-86.66672698114496,39.30258444018234]},"properties":{"depth":2.8,"acres":1.22}},{"type":"Feature","geometry":{"type":"Point","coordinates":[-86.65972352477941,39.301756800535216]},"properties":{"depth":6.4,"acres":5.57}},{"type":"Feature","geometry":{"type":"Point","coordinates":[-86.65709538618215,39.300483789061204]},"properties":{"depth":3.8,"acres":2.09}},{"type":"Feature","geometry":{"type":"Point","coordinates":[-86.66860645318692,39.29932178723564]},"properties":{"depth":3.9,"acres":6.61}},{"type":"Feature","geometry":{"type":"Point","coordinates":[-86.65947861578769,39.29868177972904]},"properties":{"depth":7.9,"acres":2.44}},{"type":"Feature","geometry":{"type":"Point","coordinates":[-86.66442708333332,39.296615489357215]},"properties":{"depth":2.2,"acres":0.52}},{"type":"Feature","geometry":{"type":"Point","coordinates":[-86.66462793716553,39.2950647438151]},"properties":{"depth":4.9,"acres":2.26}},{"type":"Feature","geometry":{"type":"Point","coordinates":[-86.65686993150017,39.29205290118416]},"properties":{"depth":4.5,"acres":0.87}},{"type":"Feature","geometry":{"type":"Point","coordinates":[-86.65996799220449,39.291360255013245]},"properties":{"depth":13.5,"acres":9.92}},{"type":"Feature","geometry":{"type":"Point","coordinates":[-86.64878922371335,39.28812282789591]},"properties":{"depth":2.7,"acres":5.05}},{"type":"Feature","geometry":{"type":"Point","coordinates":[-86.65761621847444,39.28770507464525]},"properties":{"depth":3.3,"acres":0.7}},{"type":"Feature","geometry":{"type":"Point","coordinates":[-86.65420908864006,39.2869881529566]},"properties":{"depth":2.4,"acres":0.87}},{"type":"Feature","geometry":{"type":"Point","coordinates":[-86.64922491367139,39.286670248332804]},"properties":{"depth":1.6,"acres":0.52}},{"type":"Feature","geometry":{"type":"Point","coordinates":[-86.70199956111136,39.28452341545402]},"properties":{"depth":2.3,"acres":1.57}},{"type":"Feature","geometry":{"type":"Point","coordinates":[-86.65504234248277,39.282894080492085]},"properties":{"depth":2.9,"acres":2.26}},{"type":"Feature","geometry":{"type":"Point","coordinates":[-86.64259491729221,39.29658752320423]},"properties":{"depth":4.4,"acres":4.35}},{"type":"Feature","geometry":{"type":"Point","coordinates":[-86.64072206169928,39.288416225016604]},"properties":{"depth":2,"acres":0.7}},{"type":"Feature","geometry":{"type":"Point","coordinates":[-86.63881223577424,39.287139162433625]},"properties":{"depth":6.7,"acres":5.39}},{"type":"Feature","geometry":{"type":"Point","coordinates":[-86.640822945825,39.28632977685071]},"properties":{"depth":3.1,"acres":2.09}},{"type":"Feature","geometry":{"type":"Point","coordinates":[-86.64135514829749,39.28121236881175]},"properties":{"depth":3.7,"acres":2.96}},{"type":"Feature","geometry":{"type":"Point","coordinates":[-86.50990438598043,39.31911601314641]},"properties":{"depth":4.8,"acres":1.04}},{"type":"Feature","geometry":{"type":"Point","coordinates":[-86.51106217501768,39.313928892281105]},"properties":{"depth":3.7,"acres":1.91}},{"type":"Feature","geometry":{"type":"Point","coordinates":[-86.51300469360096,39.31039341656907]},"properties":{"depth":8.4,"acres":5.22}},{"type":"Feature","geometry":{"type":"Point","coordinates":[-86.49092734480816,39.30499519244079]},"properties":{"depth":3.2,"acres":0.87}},{"type":"Feature","geometry":{"type":"Point","coordinates":[-86.51898287903867,39.29992940901284]},"properties":{"depth":2.2,"acres":0.7}},{"type":"Feature","geometry":{"type":"Point","coordinates":[-86.49839743595759,39.29573132988771]},"properties":{"depth":2.3,"acres":0.52}},{"type":"Feature","geometry":{"type":"Point","coordinates":[-86.49314583333333,39.28915245923275]},"properties":{"depth":2.7,"acres":0.7}},{"type":"Feature","geometry":{"type":"Point","coordinates":[-86.44550729804216,39.3210047686059]},"properties":{"depth":2.5,"acres":0.52}},{"type":"Feature","geometry":{"type":"Point","coordinates":[-86.42125,39.30200586005525]},"properties":{"depth":2.2,"acres":0.52}},{"type":"Feature","geometry":{"type":"Point","coordinates":[-86.4391900966387,39.29590303347095]},"properties":{"depth":2.4,"acres":1.22}},{"type":"Feature","geometry":{"type":"Point","coordinates":[-86.34259965124957,39.31140220162362]},"properties":{"depth":2.2,"acres":0.52}},{"type":"Feature","geometry":{"type":"Point","coordinates":[-86.78507037211399,39.27794443026424]},"properties":{"depth":6.4,"acres":3.66}},{"type":"Feature","geometry":{"type":"Point","coordinates":[-86.78216728992089,39.27293245756614]},"properties":{"depth":3,"acres":1.39}},{"type":"Feature","geometry":{"type":"Point","coordinates":[-86.8069919084408,39.26440108256524]},"properties":{"depth":1.8,"acres":12.54}},{"type":"Feature","geometry":{"type":"Point","coordinates":[-86.80991871219858,39.26499493470932]},"properties":{"depth":1.9,"acres":0.87}},{"type":"Feature","geometry":{"type":"Point","coordinates":[-86.80620566311354,39.262765529525446]},"properties":{"depth":1.5,"acres":0.52}},{"type":"Feature","geometry":{"type":"Point","coordinates":[-86.78895879926637,39.26271514429116]},"properties":{"depth":1.9,"acres":1.57}},{"type":"Feature","geometry":{"type":"Point","coordinates":[-86.80428694957465,39.26164843097165]},"properties":{"depth":1.9,"acres":6.09}},{"type":"Feature","geometry":{"type":"Point","coordinates":[-86.79620162489785,39.26173105526626]},"properties":{"depth":2.4,"acres":4.53}},{"type":"Feature","geometry":{"type":"Point","coordinates":[-86.79282204384678,39.26088881226419]},"properties":{"depth":1.9,"acres":1.57}},{"type":"Feature","geometry":{"type":"Point","coordinates":[-86.80263078717564,39.259433702933784]},"properties":{"depth":2,"acres":0.7}},{"type":"Feature","geometry":{"type":"Point","coordinates":[-86.8153833544183,39.25852870079693]},"properties":{"depth":3.4,"acres":0.52}},{"type":"Feature","geometry":{"type":"Point","coordinates":[-86.78664892624235,39.252965414581205]},"properties":{"depth":3.8,"acres":1.92}},{"type":"Feature","geometry":{"type":"Point","coordinates":[-86.7791225351017,39.25347221919802]},"properties":{"depth":2.2,"acres":0.52}},{"type":"Feature","geometry":{"type":"Point","coordinates":[-86.77749772849751,39.25154654164899]},"properties":{"depth":2.2,"acres":1.39}},{"type":"Feature","geometry":{"type":"Point","coordinates":[-86.79000542426903,39.248011292240406]},"properties":{"depth":2,"acres":0.52}},{"type":"Feature","geometry":{"type":"Point","coordinates":[-86.78970835572231,39.24634539390103]},"properties":{"depth":2.9,"acres":1.57}},{"type":"Feature","geometry":{"type":"Point","coordinates":[-86.7678893575231,39.23696058711243]},"properties":{"depth":3.3,"acres":1.39}},{"type":"Feature","geometry":{"type":"Point","coordinates":[-86.78421002785484,39.23462139755061]},"properties":{"depth":4.1,"acres":4.7}},{"type":"Feature","geometry":{"type":"Point","coordinates":[-86.74891022528287,39.27492154924093]},"properties":{"depth":1.7,"acres":0.52}},{"type":"Feature","geometry":{"type":"Point","coordinates":[-86.72780120798598,39.274299116860746]},"properties":{"depth":5,"acres":2.96}},{"type":"Feature","geometry":{"type":"Point","coordinates":[-86.73380659868756,39.269776617187944]},"properties":{"depth":1.8,"acres":0.52}},{"type":"Feature","geometry":{"type":"Point","coordinates":[-86.7363429217039,39.268339693389116]},"properties":{"depth":4.3,"acres":1.92}},{"type":"Feature","geometry":{"type":"Point","coordinates":[-86.7315820889414,39.26692642005293]},"properties":{"depth":1.9,"acres":0.52}},{"type":"Feature","geometry":{"type":"Point","coordinates":[-86.7424251844907,39.26552053710366]},"properties":{"depth":6.7,"acres":6.62}},{"type":"Feature","geometry":{"type":"Point","coordinates":[-86.75784487829905,39.263468785161635]},"properties":{"depth":2.8,"acres":2.26}},{"type":"Feature","geometry":{"type":"Point","coordinates":[-86.72620348918348,39.26309218196106]},"properties":{"depth":2.3,"acres":0.7}},{"type":"Feature","geometry":{"type":"Point","coordinates":[-86.7485994205626,39.26028553202322]},"properties":{"depth":3.8,"acres":1.74}},{"type":"Feature","geometry":{"type":"Point","coordinates":[-86.74256221272607,39.25865831925142]},"properties":{"depth":2.2,"acres":1.57}},{"type":"Feature","geometry":{"type":"Point","coordinates":[-86.75280460758943,39.25627230658759]},"properties":{"depth":6.7,"acres":6.09}},{"type":"Feature","geometry":{"type":"Point","coordinates":[-86.72996748389248,39.24119125819213]},"properties":{"depth":2.2,"acres":0.7}},{"type":"Feature","geometry":{"type":"Point","coordinates":[-86.7551235388547,39.238420294936326]},"properties":{"depth":6.5,"acres":7.66}},{"type":"Feature","geometry":{"type":"Point","coordinates":[-86.70974049386724,39.233714095033875]},"properties":{"depth":1.8,"acres":0.52}},{"type":"Feature","geometry":{"type":"Point","coordinates":[-86.66949795603043,39.27292852656028]},"properties":{"depth":6.4,"acres":19.67}},{"type":"Feature","geometry":{"type":"Point","coordinates":[-86.66727851022618,39.27135160587618]},"properties":{"depth":2.2,"acres":1.57}},{"type":"Feature","geometry":{"type":"Point","coordinates":[-86.65973973728858,39.26921627152309]},"properties":{"depth":3.3,"acres":1.74}},{"type":"Feature","geometry":{"type":"Point","coordinates":[-86.65445855511435,39.262602537304]},"properties":{"depth":1.6,"acres":0.52}},{"type":"Feature","geometry":{"type":"Point","coordinates":[-86.65457081399578,39.2584745931489]},"properties":{"depth":2.2,"acres":0.87}},{"type":"Feature","geometry":{"type":"Point","coordinates":[-86.65332285912469,39.256687217013145]},"properties":{"depth":4.3,"acres":9.75}},{"type":"Feature","geometry":{"type":"Point","coordinates":[-86.68526931941821,39.235794036869876]},"properties":{"depth":3.3,"acres":1.04}},{"type":"Feature","geometry":{"type":"Point","coordinates":[-86.63695037043257,39.27697436321676]},"properties":{"depth":2.6,"acres":1.22}},{"type":"Feature","geometry":{"type":"Point","coordinates":[-86.63027806982998,39.26781246137109]},"properties":{"depth":2.5,"acres":2.96}},{"type":"Feature","geometry":{"type":"Point","coordinates":[-86.62507529590746,39.244789289777074]},"properties":{"depth":2.3,"acres":0.7}},{"type":"Feature","geometry":{"type":"Point","coordinates":[-86.61498571868843,39.23621766804272]},"properties":{"depth":2.3,"acres":0.87}},{"type":"Feature","geometry":{"type":"Point","coordinates":[-86.61762057157476,39.236045336913094]},"properties":{"depth":2.2,"acres":0.7}},{"type":"Feature","geometry":{"type":"Point","coordinates":[-86.61446146933588,39.23508190135732]},"properties":{"depth":5.2,"acres":8.18}},{"type":"Feature","geometry":{"type":"Point","coordinates":[-86.51995776204497,39.27615916639255]},"properties":{"depth":2.3,"acres":1.22}},{"type":"Feature","geometry":{"type":"Point","coordinates":[-86.52419813954394,39.27261087466795]},"properties":{"depth":4.2,"acres":2.44}},{"type":"Feature","geometry":{"type":"Point","coordinates":[-86.52214583333334,39.264306273990265]},"properties":{"depth":2.1,"acres":0.52}},{"type":"Feature","geometry":{"type":"Point","coordinates":[-86.4243486663461,39.27378234171691]},"properties":{"depth":2.7,"acres":0.52}},{"type":"Feature","geometry":{"type":"Point","coordinates":[-86.42850057589143,39.26186823280872]},"properties":{"depth":2.3,"acres":0.52}},{"type":"Feature","geometry":{"type":"Point","coordinates":[-86.42276041666665,39.25709671390031]},"properties":{"depth":2.9,"acres":0.7}},{"type":"Feature","geometry":{"type":"Point","coordinates":[-86.42261824927284,39.244961090017604]},"properties":{"depth":6.6,"acres":2.96}},{"type":"Feature","geometry":{"type":"Point","coordinates":[-86.42509250431297,39.24098130340424]},"properties":{"depth":7.2,"acres":4.53}},{"type":"Feature","geometry":{"type":"Point","coordinates":[-86.4256483680456,39.237073527571106]},"properties":{"depth":2.7,"acres":0.87}},{"type":"Feature","geometry":{"type":"Point","coordinates":[-86.42798930002002,39.235274858971685]},"properties":{"depth":2,"acres":0.52}},{"type":"Feature","geometry":{"type":"Point","coordinates":[-86.32585677752535,39.26176279939408]},"properties":{"depth":2.1,"acres":0.87}},{"type":"Feature","geometry":{"type":"Point","coordinates":[-86.81048163106806,39.2221329366312]},"properties":{"depth":1.9,"acres":3.14}},{"type":"Feature","geometry":{"type":"Point","coordinates":[-86.78253603755756,39.222945155069844]},"properties":{"depth":2.5,"acres":0.52}},{"type":"Feature","geometry":{"type":"Point","coordinates":[-86.78359414895024,39.22038803463552]},"properties":{"depth":2.7,"acres":1.05}},{"type":"Feature","geometry":{"type":"Point","coordinates":[-86.7818190616336,39.21788773576343]},"properties":{"depth":4.4,"acres":2.44}},{"type":"Feature","geometry":{"type":"Point","coordinates":[-86.8119233765408,39.208608108850314]},"properties":{"depth":2.9,"acres":1.05}},{"type":"Feature","geometry":{"type":"Point","coordinates":[-86.77001151915174,39.20600800568943]},"properties":{"depth":4.4,"acres":55.58}},{"type":"Feature","geometry":{"type":"Point","coordinates":[-86.7773061762476,39.20018052180343]},"properties":{"depth":2.8,"acres":0.7}},{"type":"Feature","geometry":{"type":"Point","coordinates":[-86.77000763792563,39.19406246599313]},"properties":{"depth":3.8,"acres":0.7}},{"type":"Feature","geometry":{"type":"Point","coordinates":[-86.73324545766795,39.230171221838695]},"properties":{"depth":5.4,"acres":4.88}},{"type":"Feature","geometry":{"type":"Point","coordinates":[-86.7282493774828,39.22840718948532]},"properties":{"depth":7.6,"acres":25.44}},{"type":"Feature","geometry":{"type":"Point","coordinates":[-86.7246115543938,39.23087773139272]},"properties":{"depth":2.1,"acres":0.87}},{"type":"Feature","geometry":{"type":"Point","coordinates":[-86.72489996399527,39.22917230442412]},"properties":{"depth":7.8,"acres":5.05}},{"type":"Feature","geometry":{"type":"Point","coordinates":[-86.73224163486385,39.22881872509527]},"properties":{"depth":2.5,"acres":0.7}},{"type":"Feature","geometry":{"type":"Point","coordinates":[-86.7186664626414,39.22802475764906]},"properties":{"depth":7.3,"acres":5.58}},{"type":"Feature","geometry":{"type":"Point","coordinates":[-86.73194076350507,39.2258929983364]},"properties":{"depth":3,"acres":1.39}},{"type":"Feature","geometry":{"type":"Point","coordinates":[-86.74446093941238,39.21521787540375]},"properties":{"depth":9,"acres":47.56}},{"type":"Feature","geometry":{"type":"Point","coordinates":[-86.75938521937731,39.212100255488025]},"properties":{"depth":1.8,"acres":0.52}},{"type":"Feature","geometry":{"type":"Point","coordinates":[-86.73971954741903,39.2094890783197]},"properties":{"depth":4.5,"acres":2.09}},{"type":"Feature","geometry":{"type":"Point","coordinates":[-86.7372209157453,39.20841698102753]},"properties":{"depth":2.9,"acres":6.1}},{"type":"Feature","geometry":{"type":"Point","coordinates":[-86.71922130080165,39.20598316095979]},"properties":{"depth":2.2,"acres":10.45}},{"type":"Feature","geometry":{"type":"Point","coordinates":[-86.75220083094426,39.20446374398166]},"properties":{"depth":3.3,"acres":11.32}},{"type":"Feature","geometry":{"type":"Point","coordinates":[-86.75641526088079,39.20497287144917]},"properties":{"depth":2.4,"acres":0.7}},{"type":"Feature","geometry":{"type":"Point","coordinates":[-86.75736305722437,39.20342366389322]},"properties":{"depth":2.7,"acres":0.7}},{"type":"Feature","geometry":{"type":"Point","coordinates":[-86.74736260006766,39.203241863163676]},"properties":{"depth":2.2,"acres":0.7}},{"type":"Feature","geometry":{"type":"Point","coordinates":[-86.73453583997298,39.20175208477103]},"properties":{"depth":4.4,"acres":3.83}},{"type":"Feature","geometry":{"type":"Point","coordinates":[-86.71621456625202,39.20173696353346]},"properties":{"depth":4.1,"acres":2.61}},{"type":"Feature","geometry":{"type":"Point","coordinates":[-86.71235598510576,39.20051523164082]},"properties":{"depth":7.4,"acres":10.45}},{"type":"Feature","geometry":{"type":"Point","coordinates":[-86.71478701142479,39.20104471934385]},"properties":{"depth":2.6,"acres":0.87}},{"type":"Feature","geometry":{"type":"Point","coordinates":[-86.720361359955,39.20078477354712]},"properties":{"depth":4.5,"acres":1.22}},{"type":"Feature","geometry":{"type":"Point","coordinates":[-86.71862456408394,39.20010914056614]},"properties":{"depth":3,"acres":0.87}},{"type":"Feature","geometry":{"type":"Point","coordinates":[-86.70597282981174,39.199698640070444]},"properties":{"depth":1.8,"acres":0.7}},{"type":"Feature","geometry":{"type":"Point","coordinates":[-86.71100187664314,39.19867608370556]},"properties":{"depth":2.9,"acres":1.05}},{"type":"Feature","geometry":{"type":"Point","coordinates":[-86.74121080743421,39.1977342809051]},"properties":{"depth":1.8,"acres":8.01}},{"type":"Feature","geometry":{"type":"Point","coordinates":[-86.72982765185684,39.19822212468141]},"properties":{"depth":1.7,"acres":0.7}},{"type":"Feature","geometry":{"type":"Point","coordinates":[-86.73118236068656,39.19711995275034]},"properties":{"depth":2.1,"acres":0.7}},{"type":"Feature","geometry":{"type":"Point","coordinates":[-86.72105493403517,39.19567563618262]},"properties":{"depth":6.2,"acres":4.53}},{"type":"Feature","geometry":{"type":"Point","coordinates":[-86.71670393441072,39.19474274624527]},"properties":{"depth":9.5,"acres":23}},{"type":"Feature","geometry":{"type":"Point","coordinates":[-86.73936869982681,39.19514590657727]},"properties":{"depth":1.8,"acres":2.96}},{"type":"Feature","geometry":{"type":"Point","coordinates":[-86.73961758485433,39.192652386375165]},"properties":{"depth":1.8,"acres":2.96}},{"type":"Feature","geometry":{"type":"Point","coordinates":[-86.73552448855506,39.1916205081604]},"properties":{"depth":1.6,"acres":3.48}},{"type":"Feature","geometry":{"type":"Point","coordinates":[-86.71201768301074,39.19270457125214]},"properties":{"depth":2.4,"acres":0.7}},{"type":"Feature","geometry":{"type":"Point","coordinates":[-86.72527011080847,39.191848504780644]},"properties":{"depth":2.9,"acres":1.92}},{"type":"Feature","geometry":{"type":"Point","coordinates":[-86.71942549673899,39.19200141655454]},"properties":{"depth":3.7,"acres":2.26}},{"type":"Feature","geometry":{"type":"Point","coordinates":[-86.65545152112122,39.22866677835625]},"properties":{"depth":5,"acres":35.54}},{"type":"Feature","geometry":{"type":"Point","coordinates":[-86.69085878993165,39.230292083061244]},"properties":{"depth":2,"acres":0.7}},{"type":"Feature","geometry":{"type":"Point","coordinates":[-86.69590448533842,39.20927624436569]},"properties":{"depth":6.6,"acres":18.99}},{"type":"Feature","geometry":{"type":"Point","coordinates":[-86.70206770986391,39.1955877606122]},"properties":{"depth":3.1,"acres":2.61}},{"type":"Feature","geometry":{"type":"Point","coordinates":[-86.60573460210833,39.22723562957854]},"properties":{"depth":3.1,"acres":2.61}},{"type":"Feature","geometry":{"type":"Point","coordinates":[-86.61136419361269,39.20960213252236]},"properties":{"depth":4.6,"acres":6.62}},{"type":"Feature","geometry":{"type":"Point","coordinates":[-86.63140181640486,39.206817512017146]},"properties":{"depth":4.5,"acres":9.23}},{"type":"Feature","geometry":{"type":"Point","coordinates":[-86.61569356011049,39.19316103872133]},"properties":{"depth":2.1,"acres":1.05}},{"type":"Feature","geometry":{"type":"Point","coordinates":[-86.60234976547488,39.193194308519125]},"properties":{"depth":2,"acres":0.7}},{"type":"Feature","geometry":{"type":"Point","coordinates":[-86.56120282084417,39.22156823238872]},"properties":{"depth":2,"acres":0.52}},{"type":"Feature","geometry":{"type":"Point","coordinates":[-86.55332125504574,39.20172962977661]},"properties":{"depth":2.2,"acres":1.39}},{"type":"Feature","geometry":{"type":"Point","coordinates":[-86.55114583333334,39.19699303321738]},"properties":{"depth":1.8,"acres":0.52}},{"type":"Feature","geometry":{"type":"Point","coordinates":[-86.54830990299708,39.19124135206974]},"properties":{"depth":7.1,"acres":5.23}},{"type":"Feature","geometry":{"type":"Point","coordinates":[-86.5540798362737,39.19072125409335]},"properties":{"depth":2,"acres":0.52}},{"type":"Feature","geometry":{"type":"Point","coordinates":[-86.53617417113858,39.18817109054037]},"properties":{"depth":2.9,"acres":5.4}},{"type":"Feature","geometry":{"type":"Point","coordinates":[-86.53285427140644,39.18870537718715]},"properties":{"depth":3.6,"acres":1.22}},{"type":"Feature","geometry":{"type":"Point","coordinates":[-86.55670611550123,39.18630089494177]},"properties":{"depth":4.8,"acres":1.74}},{"type":"Feature","geometry":{"type":"Point","coordinates":[-86.49598582112267,39.19706528450579]},"properties":{"depth":3.4,"acres":0.52}},{"type":"Feature","geometry":{"type":"Point","coordinates":[-86.4834867171226,39.19711828738086]},"properties":{"depth":3.7,"acres":0.7}},{"type":"Feature","geometry":{"type":"Point","coordinates":[-86.49133859547028,39.19075452349593]},"properties":{"depth":4.9,"acres":1.57}},{"type":"Feature","geometry":{"type":"Point","coordinates":[-86.49839699904102,39.18773494545526]},"properties":{"depth":3.7,"acres":0.7}},{"type":"Feature","geometry":{"type":"Point","coordinates":[-86.41803734321002,39.22448092318515]},"properties":{"depth":3.9,"acres":0.87}},{"type":"Feature","geometry":{"type":"Point","coordinates":[-86.44823764177025,39.20621134193668]},"properties":{"depth":2,"acres":0.52}},{"type":"Feature","geometry":{"type":"Point","coordinates":[-86.43209248736504,39.20614165343797]},"properties":{"depth":2.7,"acres":0.87}},{"type":"Feature","geometry":{"type":"Point","coordinates":[-86.44131717131974,39.20311830851092]},"properties":{"depth":1.8,"acres":0.7}},{"type":"Feature","geometry":{"type":"Point","coordinates":[-86.45582331876774,39.19700717153638]},"properties":{"depth":3,"acres":0.7}},{"type":"Feature","geometry":{"type":"Point","coordinates":[-86.45312023543651,39.19393603821889]},"properties":{"depth":3.3,"acres":0.7}},{"type":"Feature","geometry":{"type":"Point","coordinates":[-86.41293187081838,39.21753545092875]},"properties":{"depth":2.7,"acres":0.7}},{"type":"Feature","geometry":{"type":"Point","coordinates":[-86.41045928857491,39.19709840354449]},"properties":{"depth":4.5,"acres":0.87}},{"type":"Feature","geometry":{"type":"Point","coordinates":[-86.24523380619027,39.20009212108837]},"properties":{"depth":2,"acres":0.52}},{"type":"Feature","geometry":{"type":"Point","coordinates":[-86.775622666908,39.17068342429457]},"properties":{"depth":2.9,"acres":1.92}},{"type":"Feature","geometry":{"type":"Point","coordinates":[-86.76677438042043,39.1592547805683]},"properties":{"depth":1.7,"acres":0.87}},{"type":"Feature","geometry":{"type":"Point","coordinates":[-86.76774892396439,39.15717083711571]},"properties":{"depth":4.2,"acres":5.75}},{"type":"Feature","geometry":{"type":"Point","coordinates":[-86.62441757472155,39.18028087031367]},"properties":{"depth":34.2,"acres":9.24}},{"type":"Feature","geometry":{"type":"Point","coordinates":[-86.61704941342023,39.177162827827296]},"properties":{"depth":11.1,"acres":49.34}},{"type":"Feature","geometry":{"type":"Point","coordinates":[-86.61251788699789,39.17579101909371]},"properties":{"depth":4.8,"acres":8.89}},{"type":"Feature","geometry":{"type":"Point","coordinates":[-86.59600012046931,39.17487416927972]},"properties":{"depth":2.5,"acres":2.96}},{"type":"Feature","geometry":{"type":"Point","coordinates":[-86.615587869052,39.17280294630801]},"properties":{"depth":5.6,"acres":15.69}},{"type":"Feature","geometry":{"type":"Point","coordinates":[-86.62240164604044,39.17115864299425]},"properties":{"depth":9.4,"acres":9.59}},{"type":"Feature","geometry":{"type":"Point","coordinates":[-86.62930202665552,39.17009125896844]},"properties":{"depth":22.9,"acres":41.67}},{"type":"Feature","geometry":{"type":"Point","coordinates":[-86.61787449762673,39.16946138693118]},"properties":{"depth":8,"acres":41.15}},{"type":"Feature","geometry":{"type":"Point","coordinates":[-86.60227461510296,39.16994524113193]},"properties":{"depth":2.2,"acres":1.57}},{"type":"Feature","geometry":{"type":"Point","coordinates":[-86.62170563567506,39.16619472726709]},"properties":{"depth":5.7,"acres":9.24}},{"type":"Feature","geometry":{"type":"Point","coordinates":[-86.61178280414114,39.158390878528515]},"properties":{"depth":7.9,"acres":75.84}},{"type":"Feature","geometry":{"type":"Point","coordinates":[-86.62703739511694,39.15138634872127]},"properties":{"depth":13.5,"acres":368.04}},{"type":"Feature","geometry":{"type":"Point","coordinates":[-86.61737045183477,39.16028681598844]},"properties":{"depth":1.9,"acres":0.7}},{"type":"Feature","geometry":{"type":"Point","coordinates":[-86.59724366714053,39.15912801306304]},"properties":{"depth":2.3,"acres":1.22}},{"type":"Feature","geometry":{"type":"Point","coordinates":[-86.62206284139178,39.15807897813326]},"properties":{"depth":2.3,"acres":2.62}},{"type":"Feature","geometry":{"type":"Point","coordinates":[-86.63798709099038,39.144471609586795]},"properties":{"depth":2.9,"acres":3.14}},{"type":"Feature","geometry":{"type":"Point","coordinates":[-86.63128044911116,39.142408349824734]},"properties":{"depth":2.6,"acres":2.62}},{"type":"Feature","geometry":{"type":"Point","coordinates":[-86.63449560359093,39.141547328139694]},"properties":{"depth":5.2,"acres":4.36}},{"type":"Feature","geometry":{"type":"Point","coordinates":[-86.5600733627739,39.176345551673535]},"properties":{"depth":3.6,"acres":3.49}},{"type":"Feature","geometry":{"type":"Point","coordinates":[-86.56268749472233,39.17428856488574]},"properties":{"depth":6.5,"acres":18.65}},{"type":"Feature","geometry":{"type":"Point","coordinates":[-86.56199195553967,39.171412978899255]},"properties":{"depth":5.9,"acres":10.46}},{"type":"Feature","geometry":{"type":"Point","coordinates":[-86.57189269477152,39.16657026694224]},"properties":{"depth":2,"acres":0.52}},{"type":"Feature","geometry":{"type":"Point","coordinates":[-86.56297016997816,39.16617740258832]},"properties":{"depth":2.3,"acres":1.39}},{"type":"Feature","geometry":{"type":"Point","coordinates":[-86.56094204797866,39.16333120298572]},"properties":{"depth":4.7,"acres":5.75}},{"type":"Feature","geometry":{"type":"Point","coordinates":[-86.56570129727267,39.1632535873136]},"properties":{"depth":2.8,"acres":1.05}},{"type":"Feature","geometry":{"type":"Point","coordinates":[-86.56627420840461,39.16142682988421]},"properties":{"depth":3.2,"acres":2.09}},{"type":"Feature","geometry":{"type":"Point","coordinates":[-86.5639372001713,39.161121821983656]},"properties":{"depth":2.6,"acres":1.22}},{"type":"Feature","geometry":{"type":"Point","coordinates":[-86.57151308942424,39.159841055085124]},"properties":{"depth":3.3,"acres":6.28}},{"type":"Feature","geometry":{"type":"Point","coordinates":[-86.55920928221519,39.15881127095593]},"properties":{"depth":2.4,"acres":1.22}},{"type":"Feature","geometry":{"type":"Point","coordinates":[-86.5722899251702,39.157206313388976]},"properties":{"depth":3.3,"acres":1.74}},{"type":"Feature","geometry":{"type":"Point","coordinates":[-86.57189799627659,39.14934891554164]},"properties":{"depth":1.8,"acres":0.52}},{"type":"Feature","geometry":{"type":"Point","coordinates":[-86.57370417163744,39.14811727424839]},"properties":{"depth":1.8,"acres":0.52}},{"type":"Feature","geometry":{"type":"Point","coordinates":[-86.57068583996663,39.145920315600776]},"properties":{"depth":1.9,"acres":0.52}},{"type":"Feature","geometry":{"type":"Point","coordinates":[-86.57651777193783,39.142500509060625]},"properties":{"depth":2.6,"acres":1.92}},{"type":"Feature","geometry":{"type":"Point","coordinates":[-86.5739988837589,39.14184451546341]},"properties":{"depth":2.3,"acres":0.52}},{"type":"Feature","geometry":{"type":"Point","coordinates":[-86.5760787145252,39.14020382642741]},"properties":{"depth":2.2,"acres":0.7}},{"type":"Feature","geometry":{"type":"Point","coordinates":[-86.52585028753388,39.18103642291639]},"properties":{"depth":4.7,"acres":5.58}},{"type":"Feature","geometry":{"type":"Point","coordinates":[-86.49874076209734,39.17814312716486]},"properties":{"depth":2.2,"acres":0.7}},{"type":"Feature","geometry":{"type":"Point","coordinates":[-86.46495852987056,39.178724418636826]},"properties":{"depth":2.3,"acres":0.52}},{"type":"Feature","geometry":{"type":"Point","coordinates":[-86.43712624033307,39.151458468853164]},"properties":{"depth":2.4,"acres":0.7}},{"type":"Feature","geometry":{"type":"Point","coordinates":[-86.41792458965251,39.14522348102709]},"properties":{"depth":1.8,"acres":0.7}},{"type":"Feature","geometry":{"type":"Point","coordinates":[-86.4408535511559,39.14128673222874]},"properties":{"depth":2.5,"acres":0.7}},{"type":"Feature","geometry":{"type":"Point","coordinates":[-86.26054166666668,39.18281139331681]},"properties":{"depth":2.2,"acres":0.52}},{"type":"Feature","geometry":{"type":"Point","coordinates":[-86.2921946686946,39.1389813004908]},"properties":{"depth":2.8,"acres":0.7}},{"type":"Feature","geometry":{"type":"Point","coordinates":[-86.81778166384846,39.112957662117125]},"properties":{"depth":2.8,"acres":1.57}},{"type":"Feature","geometry":{"type":"Point","coordinates":[-86.78495833333335,39.10838786810901]},"properties":{"depth":1.6,"acres":0.52}},{"type":"Feature","geometry":{"type":"Point","coordinates":[-86.789646523609,39.09341616204632]},"properties":{"depth":4.6,"acres":11.69}},{"type":"Feature","geometry":{"type":"Point","coordinates":[-86.71463435736247,39.11910028185159]},"properties":{"depth":1.9,"acres":0.87}},{"type":"Feature","geometry":{"type":"Point","coordinates":[-86.7130625,39.11793143335719]},"properties":{"depth":1.6,"acres":0.52}},{"type":"Feature","geometry":{"type":"Point","coordinates":[-86.71669000039599,39.10225654449992]},"properties":{"depth":2.5,"acres":2.44}},{"type":"Feature","geometry":{"type":"Point","coordinates":[-86.650717022344,39.12079218905379]},"properties":{"depth":2,"acres":0.52}},{"type":"Feature","geometry":{"type":"Point","coordinates":[-86.65143276426055,39.12037867369952]},"properties":{"depth":2,"acres":0.52}},{"type":"Feature","geometry":{"type":"Point","coordinates":[-86.652581952855,39.11667279349299]},"properties":{"depth":4.9,"acres":2.09}},{"type":"Feature","geometry":{"type":"Point","coordinates":[-86.65107959782641,39.11197651039031]},"properties":{"depth":4.6,"acres":8.2}},{"type":"Feature","geometry":{"type":"Point","coordinates":[-86.64703049162244,39.11260076530157]},"properties":{"depth":2.7,"acres":0.87}},{"type":"Feature","geometry":{"type":"Point","coordinates":[-86.65140507829916,39.10792495083867]},"properties":{"depth":3,"acres":2.27}},{"type":"Feature","geometry":{"type":"Point","coordinates":[-86.65065544083349,39.103777787816114]},"properties":{"depth":2.8,"acres":1.4}},{"type":"Feature","geometry":{"type":"Point","coordinates":[-86.60317610685628,39.136058982739925]},"properties":{"depth":2.6,"acres":2.62}},{"type":"Feature","geometry":{"type":"Point","coordinates":[-86.64237829658408,39.13526903505168]},"properties":{"depth":2.8,"acres":1.05}},{"type":"Feature","geometry":{"type":"Point","coordinates":[-86.60807375527035,39.13028985327203]},"properties":{"depth":6.5,"acres":111.83}},{"type":"Feature","geometry":{"type":"Point","coordinates":[-86.59414862203369,39.132907256266925]},"properties":{"depth":3,"acres":2.62}},{"type":"Feature","geometry":{"type":"Point","coordinates":[-86.59723683602064,39.13158904193548]},"properties":{"depth":3.4,"acres":8.37}},{"type":"Feature","geometry":{"type":"Point","coordinates":[-86.59457700007951,39.13163284337662]},"properties":{"depth":2.2,"acres":0.7}},{"type":"Feature","geometry":{"type":"Point","coordinates":[-86.60189959121989,39.13139251930186]},"properties":{"depth":2,"acres":0.52}},{"type":"Feature","geometry":{"type":"Point","coordinates":[-86.64511022206766,39.1307811488375]},"properties":{"depth":3.2,"acres":1.05}},{"type":"Feature","geometry":{"type":"Point","coordinates":[-86.59148885892655,39.12883106253496]},"properties":{"depth":3.4,"acres":4.88}},{"type":"Feature","geometry":{"type":"Point","coordinates":[-86.59566053985121,39.12895326330791]},"properties":{"depth":3.5,"acres":4.88}},{"type":"Feature","geometry":{"type":"Point","coordinates":[-86.59974604935634,39.12040278851683]},"properties":{"depth":13,"acres":167.31}},{"type":"Feature","geometry":{"type":"Point","coordinates":[-86.64508889384754,39.116089965508436]},"properties":{"depth":2.9,"acres":1.05}},{"type":"Feature","geometry":{"type":"Point","coordinates":[-86.61676139281339,39.112519172788744]},"properties":{"depth":3.1,"acres":1.74}},{"type":"Feature","geometry":{"type":"Point","coordinates":[-86.60951935279202,39.111890400510205]},"properties":{"depth":4.3,"acres":3.49}},{"type":"Feature","geometry":{"type":"Point","coordinates":[-86.61547736557897,39.11156132498488]},"properties":{"depth":2.7,"acres":1.22}},{"type":"Feature","geometry":{"type":"Point","coordinates":[-86.61035416666665,39.110310813827105]},"properties":{"depth":2.7,"acres":0.52}},{"type":"Feature","geometry":{"type":"Point","coordinates":[-86.60876611431897,39.1092813002473]},"properties":{"depth":3.2,"acres":1.92}},{"type":"Feature","geometry":{"type":"Point","coordinates":[-86.6116279797913,39.10751832506078]},"properties":{"depth":5.6,"acres":14.48}},{"type":"Feature","geometry":{"type":"Point","coordinates":[-86.6158729925139,39.105101961853485]},"properties":{"depth":8.2,"acres":40.3}},{"type":"Feature","geometry":{"type":"Point","coordinates":[-86.59455383053418,39.106013195125165]},"properties":{"depth":2.1,"acres":0.52}},{"type":"Feature","geometry":{"type":"Point","coordinates":[-86.59439479753571,39.10235132833751]},"properties":{"depth":2.4,"acres":0.87}},{"type":"Feature","geometry":{"type":"Point","coordinates":[-86.60173989895506,39.092702918546145]},"properties":{"depth":5.5,"acres":2.44}},{"type":"Feature","geometry":{"type":"Point","coordinates":[-86.57414780949593,39.13487958437697]},"properties":{"depth":3.3,"acres":1.74}},{"type":"Feature","geometry":{"type":"Point","coordinates":[-86.58228148184175,39.13295656592731]},"properties":{"depth":1.8,"acres":2.62}},{"type":"Feature","geometry":{"type":"Point","coordinates":[-86.58151931876142,39.13111356441569]},"properties":{"depth":3,"acres":1.74}},{"type":"Feature","geometry":{"type":"Point","coordinates":[-86.56590818666551,39.13110408475301]},"properties":{"depth":2.4,"acres":1.92}},{"type":"Feature","geometry":{"type":"Point","coordinates":[-86.56273217533742,39.12706685620992]},"properties":{"depth":12.8,"acres":7.68}},{"type":"Feature","geometry":{"type":"Point","coordinates":[-86.57944883578347,39.12706362234375]},"properties":{"depth":2.1,"acres":0.52}},{"type":"Feature","geometry":{"type":"Point","coordinates":[-86.58674439372336,39.126017089168705]},"properties":{"depth":2.9,"acres":1.4}},{"type":"Feature","geometry":{"type":"Point","coordinates":[-86.58061493640864,39.12498323938511]},"properties":{"depth":6.2,"acres":5.58}},{"type":"Feature","geometry":{"type":"Point","coordinates":[-86.57492075993427,39.12511000572289]},"properties":{"depth":2.2,"acres":0.52}},{"type":"Feature","geometry":{"type":"Point","coordinates":[-86.5661048280837,39.12515960991461]},"properties":{"depth":2.6,"acres":0.7}},{"type":"Feature","geometry":{"type":"Point","coordinates":[-86.587138555144,39.124005810642494]},"properties":{"depth":2.8,"acres":1.05}},{"type":"Feature","geometry":{"type":"Point","coordinates":[-86.57586308200615,39.12371065695997]},"properties":{"depth":2.1,"acres":0.87}},{"type":"Feature","geometry":{"type":"Point","coordinates":[-86.5658230638307,39.11729655513366]},"properties":{"depth":3.7,"acres":2.97}},{"type":"Feature","geometry":{"type":"Point","coordinates":[-86.57160181221819,39.115844970106686]},"properties":{"depth":5.9,"acres":4.71}},{"type":"Feature","geometry":{"type":"Point","coordinates":[-86.56969363750262,39.1143208395453]},"properties":{"depth":2.8,"acres":1.4}},{"type":"Feature","geometry":{"type":"Point","coordinates":[-86.57274100484834,39.114135530571865]},"properties":{"depth":3.2,"acres":0.7}},{"type":"Feature","geometry":{"type":"Point","coordinates":[-86.5705322105984,39.11135242790764]},"properties":{"depth":5.4,"acres":5.58}},{"type":"Feature","geometry":{"type":"Point","coordinates":[-86.58403225046683,39.09296913336145]},"properties":{"depth":6.8,"acres":2.62}},{"type":"Feature","geometry":{"type":"Point","coordinates":[-86.42376109737198,39.12732731982419]},"properties":{"depth":2.2,"acres":0.52}},{"type":"Feature","geometry":{"type":"Point","coordinates":[-86.43571405579354,39.12502315247366]},"properties":{"depth":8.4,"acres":3.66}},{"type":"Feature","geometry":{"type":"Point","coordinates":[-86.45827858688364,39.11643280427237]},"properties":{"depth":2.6,"acres":0.7}},{"type":"Feature","geometry":{"type":"Point","coordinates":[-86.43553954687053,39.105541367158615]},"properties":{"depth":2,"acres":0.52}},{"type":"Feature","geometry":{"type":"Point","coordinates":[-86.35245044050332,39.118069566228684]},"properties":{"depth":3,"acres":0.52}},{"type":"Feature","geometry":{"type":"Point","coordinates":[-86.3071955952355,39.09957004467131]},"properties":{"depth":2,"acres":0.7}},{"type":"Feature","geometry":{"type":"Point","coordinates":[-86.26012432684264,39.11785437517214]},"properties":{"depth":1.9,"acres":0.52}},{"type":"Feature","geometry":{"type":"Point","coordinates":[-86.2597342395854,39.10871272876425]},"properties":{"depth":1.7,"acres":0.52}},{"type":"Feature","geometry":{"type":"Point","coordinates":[-86.26690662965314,39.10862867359486]},"properties":{"depth":2.1,"acres":0.52}},{"type":"Feature","geometry":{"type":"Point","coordinates":[-86.81516604464967,39.08953416115809]},"properties":{"depth":3.1,"acres":1.22}},{"type":"Feature","geometry":{"type":"Point","coordinates":[-86.72724753654173,39.08683846019793]},"properties":{"depth":2.7,"acres":0.87}},{"type":"Feature","geometry":{"type":"Point","coordinates":[-86.60314210506748,39.09022695619418]},"properties":{"depth":2.8,"acres":1.4}},{"type":"Feature","geometry":{"type":"Point","coordinates":[-86.58980030298142,39.0861456799519]},"properties":{"depth":7.4,"acres":3.14}},{"type":"Feature","geometry":{"type":"Point","coordinates":[-86.60233439435976,39.07643138127924]},"properties":{"depth":2.4,"acres":0.7}},{"type":"Feature","geometry":{"type":"Point","coordinates":[-86.64448518437754,39.07447474603539]},"properties":{"depth":2.3,"acres":1.05}},{"type":"Feature","geometry":{"type":"Point","coordinates":[-86.63542708333331,39.07253242545386]},"properties":{"depth":2.1,"acres":0.7}},{"type":"Feature","geometry":{"type":"Point","coordinates":[-86.60257632430394,39.067582151788706]},"properties":{"depth":3.8,"acres":1.57}},{"type":"Feature","geometry":{"type":"Point","coordinates":[-86.59929833162315,39.06757128499793]},"properties":{"depth":4.3,"acres":3.49}},{"type":"Feature","geometry":{"type":"Point","coordinates":[-86.60146000951961,39.066264728146095]},"properties":{"depth":3.2,"acres":2.09}},{"type":"Feature","geometry":{"type":"Point","coordinates":[-86.62115504394959,39.062821739414765]},"properties":{"depth":14,"acres":17.81}},{"type":"Feature","geometry":{"type":"Point","coordinates":[-86.61618947873532,39.051326208094245]},"properties":{"depth":14.6,"acres":29.68}},{"type":"Feature","geometry":{"type":"Point","coordinates":[-86.63987360329601,39.052090653105296]},"properties":{"depth":2.1,"acres":2.09}},{"type":"Feature","geometry":{"type":"Point","coordinates":[-86.62147928904096,39.04685673357783]},"properties":{"depth":3.8,"acres":5.76}},{"type":"Feature","geometry":{"type":"Point","coordinates":[-86.58286458333332,39.08929546127266]},"properties":{"depth":2.5,"acres":0.52}},{"type":"Feature","geometry":{"type":"Point","coordinates":[-86.58463795170246,39.08765881158242]},"properties":{"depth":3.2,"acres":2.27}},{"type":"Feature","geometry":{"type":"Point","coordinates":[-86.5479225685317,39.08685828358299]},"properties":{"depth":2.9,"acres":0.87}},{"type":"Feature","geometry":{"type":"Point","coordinates":[-86.5501086625289,39.084237896170634]},"properties":{"depth":6,"acres":28.28}},{"type":"Feature","geometry":{"type":"Point","coordinates":[-86.53702430379391,39.08182154012609]},"properties":{"depth":4.1,"acres":4.71}},{"type":"Feature","geometry":{"type":"Point","coordinates":[-86.53419086647034,39.07608952063985]},"properties":{"depth":9,"acres":9.78}},{"type":"Feature","geometry":{"type":"Point","coordinates":[-86.58305293881625,39.07311368680793]},"properties":{"depth":3.3,"acres":2.62}},{"type":"Feature","geometry":{"type":"Point","coordinates":[-86.57945620668362,39.07199495954138]},"properties":{"depth":2.2,"acres":0.52}},{"type":"Feature","geometry":{"type":"Point","coordinates":[-86.53558405110186,39.06970013951233]},"properties":{"depth":2.5,"acres":1.05}},{"type":"Feature","geometry":{"type":"Point","coordinates":[-86.53496693483797,39.064680332149784]},"properties":{"depth":2.4,"acres":0.7}},{"type":"Feature","geometry":{"type":"Point","coordinates":[-86.53505435359163,39.06109136593635]},"properties":{"depth":5.2,"acres":8.38}},{"type":"Feature","geometry":{"type":"Point","coordinates":[-86.57901025621051,39.060965676240784]},"properties":{"depth":3.1,"acres":1.75}},{"type":"Feature","geometry":{"type":"Point","coordinates":[-86.58415523511118,39.06033613100734]},"properties":{"depth":5.8,"acres":4.19}},{"type":"Feature","geometry":{"type":"Point","coordinates":[-86.58351583310747,39.05694309900991]},"properties":{"depth":13.2,"acres":17.28}},{"type":"Feature","geometry":{"type":"Point","coordinates":[-86.58042692400777,39.0570088638592]},"properties":{"depth":4.6,"acres":1.4}},{"type":"Feature","geometry":{"type":"Point","coordinates":[-86.5380265153017,39.05175462635375]},"properties":{"depth":10.5,"acres":8.9}},{"type":"Feature","geometry":{"type":"Point","coordinates":[-86.57995006394506,39.05305559845691]},"properties":{"depth":10.6,"acres":5.94}},{"type":"Feature","geometry":{"type":"Point","coordinates":[-86.56283268557169,39.05004144220749]},"properties":{"depth":1.7,"acres":0.52}},{"type":"Feature","geometry":{"type":"Point","coordinates":[-86.58003684503184,39.04946281103162]},"properties":{"depth":2.1,"acres":0.52}},{"type":"Feature","geometry":{"type":"Point","coordinates":[-86.50777317277053,39.08842669377969]},"properties":{"depth":2.3,"acres":0.7}},{"type":"Feature","geometry":{"type":"Point","coordinates":[-86.5255787930742,39.08778034975563]},"properties":{"depth":3.8,"acres":2.09}},{"type":"Feature","geometry":{"type":"Point","coordinates":[-86.49088377917238,39.086819892967206]},"properties":{"depth":2.9,"acres":0.7}},{"type":"Feature","geometry":{"type":"Point","coordinates":[-86.52729737179446,39.08308547498545]},"properties":{"depth":4.1,"acres":4.19}},{"type":"Feature","geometry":{"type":"Point","coordinates":[-86.51352259860019,39.06077772681014]},"properties":{"depth":3.1,"acres":1.05}},{"type":"Feature","geometry":{"type":"Point","coordinates":[-86.80875855141308,39.02535701140868]},"properties":{"depth":5.2,"acres":108.48}},{"type":"Feature","geometry":{"type":"Point","coordinates":[-86.81767502226897,39.01949309272008]},"properties":{"depth":2.9,"acres":5.94}},{"type":"Feature","geometry":{"type":"Point","coordinates":[-86.8141300973263,39.01794026234667]},"properties":{"depth":2.7,"acres":2.8}},{"type":"Feature","geometry":{"type":"Point","coordinates":[-86.64153201054623,39.0308939790697]},"properties":{"depth":6.7,"acres":3.84}},{"type":"Feature","geometry":{"type":"Point","coordinates":[-86.53692852032886,39.039540166999565]},"properties":{"depth":3.7,"acres":2.8}},{"type":"Feature","geometry":{"type":"Point","coordinates":[-86.5535745624168,39.036875222419255]},"properties":{"depth":3.4,"acres":5.24}},{"type":"Feature","geometry":{"type":"Point","coordinates":[-86.57719644831843,39.03695555874291]},"properties":{"depth":2.3,"acres":0.7}},{"type":"Feature","geometry":{"type":"Point","coordinates":[-86.53940653203651,39.03539867481913]},"properties":{"depth":3,"acres":4.19}},{"type":"Feature","geometry":{"type":"Point","coordinates":[-86.53646359460873,39.0333412889475]},"properties":{"depth":8.2,"acres":6.81}},{"type":"Feature","geometry":{"type":"Point","coordinates":[-86.57667474066758,39.02038392035587]},"properties":{"depth":1.9,"acres":0.7}},{"type":"Feature","geometry":{"type":"Point","coordinates":[-86.56616808608022,39.01495595800489]},"properties":{"depth":2.3,"acres":0.52}},{"type":"Feature","geometry":{"type":"Point","coordinates":[-86.5386926837108,39.00587999875348]},"properties":{"depth":2.3,"acres":1.22}},{"type":"Feature","geometry":{"type":"Point","coordinates":[-86.53946796891455,39.00180675635813]},"properties":{"depth":3.6,"acres":25.16}},{"type":"Feature","geometry":{"type":"Point","coordinates":[-86.49828125,39.03458179669765]},"properties":{"depth":1.7,"acres":1.05}},{"type":"Feature","geometry":{"type":"Point","coordinates":[-86.50600683433738,39.000792444334806]},"properties":{"depth":2.4,"acres":1.75}},{"type":"Feature","geometry":{"type":"Point","coordinates":[-86.50844613274673,38.998132399154876]},"properties":{"depth":2.1,"acres":0.52}},{"type":"Feature","geometry":{"type":"Point","coordinates":[-86.44330208333332,39.02481161359785]},"properties":{"depth":2.9,"acres":0.7}},{"type":"Feature","geometry":{"type":"Point","coordinates":[-86.36124902734011,39.03097201642393]},"properties":{"depth":2.6,"acres":0.52}},{"type":"Feature","geometry":{"type":"Point","coordinates":[-86.36005855668728,39.030219490150664]},"properties":{"depth":3.4,"acres":0.52}},{"type":"Feature","geometry":{"type":"Point","coordinates":[-86.39779825356682,39.02523410521584]},"properties":{"depth":1.8,"acres":0.52}},{"type":"Feature","geometry":{"type":"Point","coordinates":[-86.31743275936276,39.01497761208761]},"properties":{"depth":3.1,"acres":0.52}},{"type":"Feature","geometry":{"type":"Point","coordinates":[-86.29971085195376,39.00710648470672]},"properties":{"depth":3.1,"acres":0.52}},{"type":"Feature","geometry":{"type":"Point","coordinates":[-86.28314541394529,39.022757416165696]},"properties":{"depth":2.3,"acres":0.7}},{"type":"Feature","geometry":{"type":"Point","coordinates":[-86.77921297511794,38.953583034960076]},"properties":{"depth":4.2,"acres":2.1}},{"type":"Feature","geometry":{"type":"Point","coordinates":[-86.75096663656863,38.95408948202476]},"properties":{"depth":3.1,"acres":0.87}},{"type":"Feature","geometry":{"type":"Point","coordinates":[-86.7500489330284,38.95168624506629]},"properties":{"depth":3.4,"acres":1.22}},{"type":"Feature","geometry":{"type":"Point","coordinates":[-86.60391715212677,38.99537031629507]},"properties":{"depth":1.8,"acres":0.52}},{"type":"Feature","geometry":{"type":"Point","coordinates":[-86.61312419982994,38.97576100765024]},"properties":{"depth":7.1,"acres":2.8}},{"type":"Feature","geometry":{"type":"Point","coordinates":[-86.59584146826944,38.96426704022393]},"properties":{"depth":18.8,"acres":62.93}},{"type":"Feature","geometry":{"type":"Point","coordinates":[-86.6357401111365,38.96293972203815]},"properties":{"depth":3.5,"acres":2.1}},{"type":"Feature","geometry":{"type":"Point","coordinates":[-86.59633594040821,38.9582396368022]},"properties":{"depth":17.6,"acres":11.54}},{"type":"Feature","geometry":{"type":"Point","coordinates":[-86.57397546317159,38.995211729990814]},"properties":{"depth":4.8,"acres":2.45}},{"type":"Feature","geometry":{"type":"Point","coordinates":[-86.55944598868109,38.99281736532177]},"properties":{"depth":3,"acres":3.15}},{"type":"Feature","geometry":{"type":"Point","coordinates":[-86.56535582068217,38.99263798163277]},"properties":{"depth":4.2,"acres":1.75}},{"type":"Feature","geometry":{"type":"Point","coordinates":[-86.56777187359585,38.99214207696935]},"properties":{"depth":5.3,"acres":2.45}},{"type":"Feature","geometry":{"type":"Point","coordinates":[-86.5569288493722,38.99141076724555]},"properties":{"depth":3.9,"acres":3.32}},{"type":"Feature","geometry":{"type":"Point","coordinates":[-86.57179326426241,38.98960135072432]},"properties":{"depth":5.2,"acres":18.53}},{"type":"Feature","geometry":{"type":"Point","coordinates":[-86.56673050379098,38.99064327302132]},"properties":{"depth":3.9,"acres":2.8}},{"type":"Feature","geometry":{"type":"Point","coordinates":[-86.56044169044122,38.989624101913925]},"properties":{"depth":4.2,"acres":2.27}},{"type":"Feature","geometry":{"type":"Point","coordinates":[-86.55461617675745,38.989780299510265]},"properties":{"depth":1.9,"acres":0.7}},{"type":"Feature","geometry":{"type":"Point","coordinates":[-86.56389686372799,38.98715486452055]},"properties":{"depth":6.3,"acres":34.44}},{"type":"Feature","geometry":{"type":"Point","coordinates":[-86.55839633031275,38.98953360629542]},"properties":{"depth":2,"acres":1.05}},{"type":"Feature","geometry":{"type":"Point","coordinates":[-86.55104856337073,38.98792951275137]},"properties":{"depth":4.4,"acres":3.85}},{"type":"Feature","geometry":{"type":"Point","coordinates":[-86.56870305926485,38.987579636007936]},"properties":{"depth":3.5,"acres":2.62}},{"type":"Feature","geometry":{"type":"Point","coordinates":[-86.55547760551201,38.987868541416915]},"properties":{"depth":1.8,"acres":0.52}},{"type":"Feature","geometry":{"type":"Point","coordinates":[-86.5793812127122,38.987086807419885]},"properties":{"depth":1.9,"acres":0.7}},{"type":"Feature","geometry":{"type":"Point","coordinates":[-86.57014868826225,38.98700018541655]},"properties":{"depth":2.8,"acres":1.05}},{"type":"Feature","geometry":{"type":"Point","coordinates":[-86.55508682108086,38.98648338547128]},"properties":{"depth":4.4,"acres":1.92}},{"type":"Feature","geometry":{"type":"Point","coordinates":[-86.57386288731115,38.986403767795466]},"properties":{"depth":4.3,"acres":1.92}},{"type":"Feature","geometry":{"type":"Point","coordinates":[-86.55851579270974,38.986436505243795]},"properties":{"depth":3.8,"acres":1.57}},{"type":"Feature","geometry":{"type":"Point","coordinates":[-86.56896843523127,38.984839829536185]},"properties":{"depth":3.9,"acres":6.47}},{"type":"Feature","geometry":{"type":"Point","coordinates":[-86.56635500619484,38.985316609941535]},"properties":{"depth":3.9,"acres":2.1}},{"type":"Feature","geometry":{"type":"Point","coordinates":[-86.5587884336848,38.98483896881958]},"properties":{"depth":2.2,"acres":0.52}},{"type":"Feature","geometry":{"type":"Point","coordinates":[-86.54247575453977,38.98416179999591]},"properties":{"depth":9.8,"acres":15.91}},{"type":"Feature","geometry":{"type":"Point","coordinates":[-86.57198584908694,38.98437287203822]},"properties":{"depth":3.9,"acres":2.1}},{"type":"Feature","geometry":{"type":"Point","coordinates":[-86.58253389633252,38.98388205952292]},"properties":{"depth":2.8,"acres":1.92}},{"type":"Feature","geometry":{"type":"Point","coordinates":[-86.55676956947107,38.983897340179226]},"properties":{"depth":4.4,"acres":4.02}},{"type":"Feature","geometry":{"type":"Point","coordinates":[-86.56219206924435,38.98250958111935]},"properties":{"depth":3.9,"acres":7.52}},{"type":"Feature","geometry":{"type":"Point","coordinates":[-86.55945687186315,38.98251523791525]},"properties":{"depth":2.6,"acres":2.45}},{"type":"Feature","geometry":{"type":"Point","coordinates":[-86.57661449993878,38.98247777821715]},"properties":{"depth":1.7,"acres":0.52}},{"type":"Feature","geometry":{"type":"Point","coordinates":[-86.57063579665142,38.981827073119064]},"properties":{"depth":4.4,"acres":2.97}},{"type":"Feature","geometry":{"type":"Point","coordinates":[-86.5683140655343,38.981863349420806]},"properties":{"depth":2.7,"acres":2.8}},{"type":"Feature","geometry":{"type":"Point","coordinates":[-86.56629788740089,38.98146774008557]},"properties":{"depth":3,"acres":2.1}},{"type":"Feature","geometry":{"type":"Point","coordinates":[-86.56853621830598,38.97990956382682]},"properties":{"depth":3.8,"acres":3.85}},{"type":"Feature","geometry":{"type":"Point","coordinates":[-86.55704059202648,38.980110496572664]},"properties":{"depth":2.2,"acres":1.05}},{"type":"Feature","geometry":{"type":"Point","coordinates":[-86.5621316353176,38.9794487272141]},"properties":{"depth":2.1,"acres":0.52}},{"type":"Feature","geometry":{"type":"Point","coordinates":[-86.56697729553119,38.977937813620585]},"properties":{"depth":4.3,"acres":5.59}},{"type":"Feature","geometry":{"type":"Point","coordinates":[-86.55965729781768,38.97819991210826]},"properties":{"depth":2.6,"acres":1.05}},{"type":"Feature","geometry":{"type":"Point","coordinates":[-86.5688215550364,38.97689908312098]},"properties":{"depth":3.2,"acres":1.05}},{"type":"Feature","geometry":{"type":"Point","coordinates":[-86.53263962516519,38.97482498589499]},"properties":{"depth":3.2,"acres":1.22}},{"type":"Feature","geometry":{"type":"Point","coordinates":[-86.55315988251493,38.972473588592635]},"properties":{"depth":2.2,"acres":1.22}},{"type":"Feature","geometry":{"type":"Point","coordinates":[-86.54017544144061,38.97268948203732]},"properties":{"depth":2,"acres":0.52}},{"type":"Feature","geometry":{"type":"Point","coordinates":[-86.5712349976979,38.96676669576156]},"properties":{"depth":2.3,"acres":1.05}},{"type":"Feature","geometry":{"type":"Point","coordinates":[-86.57450841764269,38.96362944135136]},"properties":{"depth":1.6,"acres":0.52}},{"type":"Feature","geometry":{"type":"Point","coordinates":[-86.55153002824133,38.95547902579773]},"properties":{"depth":2.1,"acres":0.52}},{"type":"Feature","geometry":{"type":"Point","coordinates":[-86.57012883904144,38.9540796290605]},"properties":{"depth":3.1,"acres":3.5}},{"type":"Feature","geometry":{"type":"Point","coordinates":[-86.57289688789895,38.95256242091247]},"properties":{"depth":2.8,"acres":1.05}},{"type":"Feature","geometry":{"type":"Point","coordinates":[-86.56884352776879,38.95217913326319]},"properties":{"depth":3.1,"acres":2.8}},{"type":"Feature","geometry":{"type":"Point","coordinates":[-86.57940804608016,38.95232950545532]},"properties":{"depth":2,"acres":1.4}},{"type":"Feature","geometry":{"type":"Point","coordinates":[-86.56506901438692,38.95176087975552]},"properties":{"depth":2.9,"acres":1.4}},{"type":"Feature","geometry":{"type":"Point","coordinates":[-86.51356384969118,38.995082742886]},"properties":{"depth":2.1,"acres":0.87}},{"type":"Feature","geometry":{"type":"Point","coordinates":[-86.52398201542738,38.993318253934106]},"properties":{"depth":2,"acres":5.77}},{"type":"Feature","geometry":{"type":"Point","coordinates":[-86.51218557056794,38.98341627011825]},"properties":{"depth":2.1,"acres":0.7}},{"type":"Feature","geometry":{"type":"Point","coordinates":[-86.51106614423223,38.9828085508687]},"properties":{"depth":2.9,"acres":1.22}},{"type":"Feature","geometry":{"type":"Point","coordinates":[-86.508406093896,38.98036978019607]},"properties":{"depth":2,"acres":0.7}},{"type":"Feature","geometry":{"type":"Point","coordinates":[-86.50611131382173,38.9770470654151]},"properties":{"depth":2.3,"acres":0.7}},{"type":"Feature","geometry":{"type":"Point","coordinates":[-86.49328615640285,38.971554208842456]},"properties":{"depth":1.9,"acres":0.7}},{"type":"Feature","geometry":{"type":"Point","coordinates":[-86.50114053608117,38.968369382694206]},"properties":{"depth":2.1,"acres":2.8}},{"type":"Feature","geometry":{"type":"Point","coordinates":[-86.49217855699419,38.96856074484082]},"properties":{"depth":1.9,"acres":0.87}},{"type":"Feature","geometry":{"type":"Point","coordinates":[-86.48866904561046,38.96598826981576]},"properties":{"depth":1.9,"acres":1.75}},{"type":"Feature","geometry":{"type":"Point","coordinates":[-86.4858428743398,38.96561006824124]},"properties":{"depth":2.9,"acres":2.45}},{"type":"Feature","geometry":{"type":"Point","coordinates":[-86.4857556535643,38.96283277340301]},"properties":{"depth":2.8,"acres":1.4}},{"type":"Feature","geometry":{"type":"Point","coordinates":[-86.48823619007796,38.9596860363495]},"properties":{"depth":2.7,"acres":0.52}},{"type":"Feature","geometry":{"type":"Point","coordinates":[-86.49072916666667,38.95660139196306]},"properties":{"depth":1.9,"acres":0.52}},{"type":"Feature","geometry":{"type":"Point","coordinates":[-86.49307901582794,38.95274733675963]},"properties":{"depth":2.2,"acres":0.7}},{"type":"Feature","geometry":{"type":"Point","coordinates":[-86.45596690268218,38.993710302971614]},"properties":{"depth":2.4,"acres":0.7}},{"type":"Feature","geometry":{"type":"Point","coordinates":[-86.37262107737986,38.985056130410484]},"properties":{"depth":2.8,"acres":1.22}},{"type":"Feature","geometry":{"type":"Point","coordinates":[-86.24111119188069,38.95986983202673]},"properties":{"depth":2.4,"acres":0.52}},{"type":"Feature","geometry":{"type":"Point","coordinates":[-86.26166126991652,38.956744908888794]},"properties":{"depth":3.5,"acres":0.52}}]}