{"type":"FeatureCollection","features":[{"type":"Feature","geometry":{"type":"MultiPolygon","coordinates":[[[[-87.2077,41.5393],[-87.203,41.595],[-87.1369,41.6417],[-87.2201,41.6248],[-87.2381,41.5391],[-87.3298,41.5322],[-87.3369,41.5964],[-87.4734,41.4964],[-87.4843,41.4419],[-87.3955,41.3296],[-87.1686,41.2216],[-87.5248,40.9061],[-87.525,40.8577],[-87.3083,40.9632],[-87.3682,40.8258],[-87.2341,40.8949],[-86.9715,40.8495],[-87.013,40.7486],[-86.9362,40.7579],[-86.7925,40.6744],[-86.8411,40.6409],[-86.8644,40.6582],[-86.854,40.601],[-86.8878,40.5267],[-86.9618,40.5269],[-86.8862,40.4991],[-86.9905,40.4403],[-86.8983,40.4819],[-86.8639,40.452],[-86.9687,40.3656],[-86.9192,40.3733],[-86.8321,40.4608],[-86.6575,40.3539],[-86.5572,40.3417],[-86.3911,40.2073],[-86.4291,40.162],[-86.3927,40.0961],[-86.2527,40.049],[-86.2581,39.9549],[-86.2058,39.9101],[-86.2289,39.8016],[-86.1955,39.7463],[-86.1509,39.7054],[-86.1132,39.771],[-86.0233,39.7138],[-86.1177,39.639],[-86.0465,39.6552],[-86.0401,39.5151],[-86.0055,39.4865],[-86.0101,39.5228],[-85.9657,39.505],[-86.0084,39.4335],[-85.9152,39.2219],[-85.929,39.1373],[-85.8708,39.1144],[-85.8515,39.0169],[-85.824,39.068],[-85.6838,39.0622],[-85.7843,38.8927],[-85.6714,38.8866],[-85.6678,38.912],[-85.7386,38.8948],[-85.6944,38.9487],[-85.618,38.9243],[-85.6138,38.9569],[-85.5829,38.958],[-85.6008,38.9794],[-85.5308,38.965],[-85.6138,38.9156],[-85.6614,38.8058],[-85.6844,38.8189],[-85.6509,38.8343],[-85.6528,38.8932],[-85.6784,38.8283],[-85.7315,38.8527],[-85.7707,38.8109],[-85.6839,38.8128],[-85.6385,38.7636],[-85.6258,38.8032],[-85.548,38.7501],[-85.5125,38.6809],[-85.5576,38.5969],[-85.5899,38.6081],[-85.5424,38.6483],[-85.5858,38.6315],[-85.6056,38.5368],[-85.6588,38.5182],[-85.6579,38.4454],[-85.7009,38.4433],[-85.7143,38.4004],[-85.743,38.4326],[-85.6799,38.4611],[-85.71,38.4662],[-85.6807,38.5198],[-85.7143,38.4765],[-85.7354,38.4941],[-85.7203,38.4591],[-85.7642,38.4562],[-85.7373,38.3621],[-85.7873,38.2885],[-85.7479,38.2673],[-85.6671,38.3359],[-85.6846,38.3481],[-85.6461,38.3497],[-85.6589,38.3986],[-85.6252,38.4234],[-85.6495,38.5016],[-85.6232,38.474],[-85.5782,38.4931],[-85.6123,38.4395],[-85.5061,38.4996],[-85.5135,38.5807],[-85.5801,38.5709],[-85.536,38.5526],[-85.5756,38.5343],[-85.6057,38.5446],[-85.5778,38.5538],[-85.5878,38.5817],[-85.5279,38.5813],[-85.4761,38.6211],[-85.4995,38.645],[-85.452,38.6645],[-85.4818,38.7023],[-85.4435,38.7428],[-85.4553,38.7979],[-85.5715,38.7791],[-85.529,38.7639],[-85.5392,38.7436],[-85.6308,38.8137],[-85.6621,38.8036],[-85.6182,38.8797],[-85.6471,38.8125],[-85.5635,38.7781],[-85.5337,38.7939],[-85.5278,38.8612],[-85.4587,38.9222],[-85.4923,38.9534],[-85.5507,38.9361],[-85.4997,38.949],[-85.4559,39.0289],[-85.6411,38.953],[-85.6162,38.9937],[-85.5385,38.9982],[-85.452,39.0565],[-85.5826,39.0369],[-85.4987,39.0913],[-85.5023,39.1661],[-85.5778,39.1261],[-85.6088,39.0702],[-85.675,39.0818],[-85.6077,39.0837],[-85.5496,39.1957],[-85.5765,39.2375],[-85.6704,39.2511],[-85.5542,39.3451],[-85.409,39.3111],[-85.399,39.3406],[-85.3863,39.3208],[-85.3363,39.3419],[-85.3618,39.344],[-85.3739,39.4266],[-85.4936,39.4245],[-85.5749,39.3752],[-85.4382,39.3813],[-85.4339,39.3541],[-85.5987,39.3643],[-85.7008,39.289],[-85.6968,39.238],[-85.7519,39.2369],[-85.6209,39.3589],[-85.7922,39.3115],[-85.6218,39.4008],[-85.5816,39.3775],[-85.4754,39.4249],[-85.4082,39.5039],[-85.4681,39.5011],[-85.5644,39.4135],[-85.7146,39.3956],[-85.7162,39.4171],[-85.8877,39.3412],[-85.8536,39.4469],[-85.7888,39.5036],[-85.8489,39.4247],[-85.8262,39.3855],[-85.7258,39.431],[-85.5728,39.4255],[-85.5314,39.5244],[-85.5648,39.5642],[-85.6473,39.5799],[-85.7549,39.514],[-85.7924,39.5434],[-85.8978,39.5421],[-85.7553,39.5781],[-85.5418,39.7007],[-85.5751,39.6663],[-85.5483,39.6485],[-85.6182,39.623],[-85.5133,39.6261],[-85.5001,39.7345],[-85.6325,39.7697],[-85.7942,39.7497],[-85.8405,39.7278],[-85.8417,39.6789],[-85.7685,39.7148],[-85.7859,39.685],[-85.7346,39.6978],[-85.7379,39.6752],[-85.6259,39.6966],[-85.8665,39.6557],[-85.9049,39.6077],[-85.9543,39.6026],[-85.8737,39.705],[-85.92,39.7315],[-85.929,39.7772],[-85.9894,39.8014],[-85.9541,39.8717],[-86.0694,39.8766],[-85.9765,39.9279],[-85.9522,39.9061],[-85.9784,39.9603],[-85.9551,39.9855],[-86.1168,40.0281],[-86.1955,39.9685],[-86.217,40.0274],[-86.1774,40.0763],[-86.2033,40.1077],[-86.3912,40.1499],[-86.374,40.2112],[-86.5853,40.3796],[-86.3975,40.3017],[-86.4134,40.2807],[-86.3871,40.2596],[-86.2988,40.258],[-86.2705,40.2864],[-86.2866,40.3606],[-86.5395,40.4747],[-86.5066,40.5526],[-86.429,40.581],[-86.3283,40.5613],[-86.2692,40.6055],[-86.2571,40.5762],[-86.156,40.5586],[-86.1081,40.6084],[-86.0862,40.586],[-86.0473,40.6136],[-86.1269,40.688],[-86.2088,40.6437],[-86.3117,40.7043],[-86.4124,40.7203],[-86.6128,40.6634],[-86.7138,40.571],[-86.8339,40.5619],[-86.8543,40.5051],[-86.8469,40.6312],[-86.7817,40.6871],[-86.8486,40.7115],[-86.8182,40.7242],[-86.8373,40.7747],[-86.942,40.7995],[-86.9525,40.907],[-86.8868,41.007],[-86.7264,41.0528],[-86.7214,41.0853],[-86.6298,41.0659],[-86.5805,41.1395],[-86.5413,41.0663],[-86.4833,41.0614],[-86.4032,41.1101],[-86.357,41.047],[-86.2421,41.0688],[-86.0832,41.1693],[-86.0561,41.1298],[-85.9878,41.1651],[-86.099,41.0975],[-86.106,41.0654],[-85.9053,41.0099],[-85.803,41.0252],[-85.7885,41.0995],[-85.7658,41.0333],[-85.6362,41.0884],[-85.5966,41.1881],[-85.5979,41.0951],[-85.5052,41.0962],[-85.4765,41.1319],[-85.495,41.1502],[-85.4434,41.1511],[-85.5131,41.0766],[-85.6165,41.0635],[-85.5951,40.9886],[-84.9099,40.953],[-84.8984,40.9854],[-84.8034,40.9694],[-84.8036,41.238],[-84.9317,41.1972],[-84.9656,41.2407],[-85.0568,41.2313],[-85.0827,41.2752],[-85.4783,41.1765],[-85.5461,41.1923],[-85.5483,41.2261],[-85.4407,41.2805],[-85.6294,41.2557],[-85.6394,41.1794],[-85.744,41.1645],[-85.7895,41.1942],[-85.7787,41.2595],[-85.8183,41.343],[-85.9245,41.3278],[-85.9027,41.2943],[-86.0694,41.2445],[-86.1223,41.1663],[-86.228,41.153],[-86.3181,41.1678],[-86.3158,41.2173],[-86.3493,41.2428],[-86.3845,41.21],[-86.4882,41.215],[-86.5639,41.3286],[-86.57,41.2547],[-86.6899,41.2245],[-86.6589,41.1793],[-86.7237,41.1822],[-86.7247,41.2254],[-86.7787,41.1746],[-86.8257,41.1832],[-86.8192,41.0927],[-86.9074,41.0375],[-86.9519,41.0728],[-87.0337,41.0706],[-87.0656,41.1124],[-87.0387,41.1798],[-87.0803,41.2357],[-87.3135,41.3111],[-87.3975,41.3887],[-87.3707,41.4756],[-87.2844,41.5282],[-87.2201,41.5018],[-87.2074,41.5379],[-87.2077,41.5393]]],[[[-85.7828,39.9116],[-85.9032,39.8796],[-85.9465,39.8349],[-85.9209,39.7917],[-85.8514,39.8038],[-85.9004,39.7669],[-85.8789,39.7354],[-85.5449,39.8338],[-85.6205,39.9025],[-85.7025,39.8529],[-85.7824,39.9116],[-85.7828,39.9116]]],[[[-85.7715,40.0309],[-85.8081,40.0495],[-85.833,39.9965],[-85.8916,39.9887],[-85.8747,39.9583],[-85.7266,39.9839],[-85.6942,40.0404],[-85.7712,40.0309],[-85.7715,40.0309]]],[[[-86.0999,40.3674],[-86.0671,40.41],[-86.1259,40.4469],[-86.1487,40.4079],[-86.1009,40.3674],[-86.0999,40.3674]]],[[[-85.6944,40.9897],[-85.6381,41.0078],[-85.6347,41.0415],[-85.672,41.0518],[-85.7279,41.0114],[-85.6978,40.9895],[-85.6944,40.9897]]],[[[-86.7897,40.5879],[-86.72,40.6455],[-86.7314,40.6719],[-86.8176,40.6125],[-86.7911,40.5879],[-86.7897,40.5879]]],[[[-85.6007,39.9861],[-85.692,39.9596],[-85.6782,39.9213],[-85.5996,39.9584],[-85.5983,39.9858],[-85.6007,39.9861]]],[[[-85.5008,39.4583],[-85.4561,39.5112],[-85.4787,39.544],[-85.5358,39.4469],[-85.5016,39.4566],[-85.5008,39.4583]]],[[[-85.4712,38.8429],[-85.5284,38.8252],[-85.5026,38.8104],[-85.5323,38.7893],[-85.4582,38.8029],[-85.4703,38.8402],[-85.4712,38.8429]]],[[[-85.5968,38.7153],[-85.6833,38.6786],[-85.6181,38.6392],[-85.5941,38.6642],[-85.6449,38.6717],[-85.569,38.668],[-85.5408,38.698],[-85.5813,38.6721],[-85.6058,38.6836],[-85.573,38.7061],[-85.6732,38.6825],[-85.5964,38.7149],[-85.5968,38.7153]]],[[[-85.5421,39.4334],[-85.5234,39.5121],[-85.5584,39.4902],[-85.5427,39.4334],[-85.5421,39.4334]]],[[[-86.7571,40.783],[-86.808,40.7565],[-86.7567,40.782],[-86.7571,40.783]]],[[[-85.4001,39.4514],[-85.4712,39.4287],[-85.4005,39.4502],[-85.4001,39.4514]]],[[[-87.1074,40.6287],[-87.16,40.658],[-87.131,40.5907],[-87.1067,40.6287],[-87.1074,40.6287]]],[[[-85.475,38.861],[-85.477,38.89],[-85.5231,38.8574],[-85.5224,38.8326],[-85.4752,38.8582],[-85.475,38.861]]],[[[-86.1876,40.7689],[-86.2137,40.7593],[-86.1909,40.7486],[-86.1653,40.7571],[-86.1866,40.7689],[-86.1876,40.7689]]],[[[-85.4768,39.0934],[-85.5211,39.057],[-85.4767,39.093],[-85.4768,39.0934]]],[[[-86.7632,40.6998],[-86.7637,40.7292],[-86.7642,40.6998],[-86.7632,40.6998]]],[[[-85.9159,39.8862],[-85.8854,39.9215],[-85.9173,39.8861],[-85.9159,39.8862]]],[[[-87.3216,41.1371],[-87.2876,41.165],[-87.3224,41.137],[-87.3216,41.1371]]],[[[-86.8781,40.8774],[-86.8805,40.8773],[-86.8781,40.8774]]],[[[-85.7259,38.7994],[-85.6875,38.7639],[-85.7243,38.7992],[-85.7259,38.7994]]],[[[-85.4666,38.9565],[-85.4665,38.955],[-85.4666,38.9565]]],[[[-87.0918,40.6753],[-87.0925,40.6753],[-87.0918,40.6753]]],[[[-86.185,40.7226],[-86.2162,40.7263],[-86.185,40.7224],[-86.185,40.7226]]],[[[-85.7232,39.0455],[-85.7575,39.0351],[-85.7233,39.0452],[-85.7232,39.0455]]],[[[-86.9861,41.5805],[-86.9864,41.5805],[-86.9861,41.5805]]],[[[-85.6157,38.9763],[-85.6164,38.9763],[-85.6157,38.9763]]]]},"properties":{"lithology":"Dolomite","name":"Muscatatuck","unit":"D","ages":"Devonian","formations":"Jeffersonville, North Vernon, Traverse, Detroit River"}},{"type":"Feature","geometry":{"type":"MultiPolygon","coordinates":[[[[-87.0181,39.9232],[-87.1421,39.8989],[-87.0098,39.8659],[-87.0319,39.8264],[-86.9579,39.8595],[-86.9322,39.8416],[-86.9733,39.7842],[-86.9044,39.7954],[-86.8339,39.7618],[-86.8316,39.692],[-86.8507,39.7037],[-86.91,39.6184],[-86.8309,39.6622],[-86.8029,39.6506],[-86.8043,39.6063],[-86.8488,39.5802],[-86.7198,39.5925],[-86.7191,39.5685],[-86.7476,39.5812],[-86.757,39.4677],[-86.7928,39.4559],[-86.7671,39.4296],[-86.7085,39.4415],[-86.681,39.4057],[-86.7241,39.4149],[-86.7032,39.3595],[-86.7325,39.3324],[-86.763,39.3714],[-86.7326,39.3248],[-86.7987,39.2592],[-86.6948,39.3276],[-86.6068,39.2049],[-86.622,39.2391],[-86.5912,39.2415],[-86.6345,39.2797],[-86.582,39.2637],[-86.572,39.1869],[-86.5362,39.1753],[-86.548,39.1339],[-86.5692,39.1545],[-86.5556,39.1068],[-86.5813,39.1229],[-86.5707,39.0902],[-86.6105,39.0844],[-86.5745,39.079],[-86.6044,39.0725],[-86.5818,39.0517],[-86.6018,39.0354],[-86.5173,38.9547],[-86.5684,38.9617],[-86.5249,38.9194],[-86.5593,38.92],[-86.5334,38.8947],[-86.558,38.8976],[-86.5403,38.8691],[-86.5742,38.8432],[-86.5495,38.8074],[-86.5815,38.8177],[-86.6018,38.7846],[-86.5341,38.8062],[-86.532,38.8357],[-86.4948,38.7841],[-86.4973,38.8042],[-86.4493,38.7936],[-86.4758,38.7689],[-86.4434,38.7792],[-86.456,38.7479],[-86.4197,38.7592],[-86.428,38.7351],[-86.3875,38.7405],[-86.3705,38.7086],[-86.3647,38.7451],[-86.2997,38.6825],[-86.3115,38.7253],[-86.2473,38.7062],[-86.2213,38.644],[-86.1954,38.6896],[-86.1495,38.6436],[-86.1568,38.6731],[-86.0697,38.663],[-86.1122,38.609],[-86.1024,38.6566],[-86.1344,38.6495],[-86.1178,38.5591],[-86.1494,38.5369],[-86.165,38.5807],[-86.1432,38.4834],[-86.2029,38.4286],[-86.0937,38.4333],[-86.1351,38.4421],[-86.1108,38.4752],[-86.0041,38.4096],[-86.0134,38.4663],[-85.9866,38.4559],[-85.9758,38.3946],[-86.022,38.401],[-86.0483,38.3546],[-86.0548,38.3783],[-86.0476,38.3249],[-86.1197,38.2541],[-86.0922,38.2927],[-86.0079,38.2703],[-86.0452,38.3031],[-85.969,38.2679],[-86.0707,38.1963],[-86.1199,38.2082],[-86.0701,38.191],[-85.929,38.2429],[-85.9311,38.0702],[-85.9653,38.0139],[-85.9639,38.0498],[-85.9959,38.0276],[-85.9537,38.0757],[-86.0148,38.0189],[-86.0399,38.0233],[-86.0078,38.0596],[-86.0442,38.0459],[-86.0405,37.9856],[-86.0617,38.0148],[-86.1758,38.023],[-86.087,38.1202],[-85.9805,38.088],[-85.9947,38.1061],[-85.9517,38.1323],[-86.0575,38.1017],[-86.0746,38.121],[-85.929,38.1648],[-86.0414,38.1442],[-85.9423,38.194],[-85.9712,38.1847],[-85.9506,38.2172],[-86.0613,38.1497],[-86.1641,38.0335],[-86.2403,38.0423],[-86.0351,37.9715],[-85.9947,38.0538],[-86.0088,38.0139],[-85.9762,38.0384],[-85.9742,38.0059],[-85.9216,38.0626],[-85.9276,38.1937],[-85.9019,38.2073],[-85.9319,38.2585],[-85.897,38.2978],[-85.9761,38.3331],[-86.0033,38.3223],[-85.9834,38.2987],[-85.9182,38.277],[-86.0144,38.3168],[-86.0234,38.2959],[-86.0509,38.3465],[-86.0356,38.3157],[-85.9943,38.3288],[-85.9642,38.36],[-85.9739,38.4126],[-85.9208,38.4219],[-85.9533,38.3767],[-85.8805,38.4167],[-85.9473,38.4276],[-85.944,38.4525],[-85.9795,38.4298],[-85.9698,38.4602],[-86.0179,38.4941],[-86.0656,38.4726],[-86.0266,38.5317],[-85.9824,38.5435],[-85.9864,38.5195],[-85.9258,38.5765],[-86.0902,38.5407],[-85.9746,38.5956],[-85.9925,38.6814],[-86.0846,38.667],[-86.1091,38.7504],[-86.1382,38.734],[-86.0955,38.7219],[-86.1204,38.7076],[-86.2117,38.7465],[-86.2198,38.7267],[-86.1916,38.7289],[-86.218,38.7187],[-86.1816,38.7299],[-86.1061,38.6809],[-86.1634,38.6908],[-86.1588,38.6579],[-86.2148,38.7063],[-86.2204,38.6626],[-86.278,38.7583],[-86.2551,38.7076],[-86.3244,38.7591],[-86.3502,38.7572],[-86.3259,38.713],[-86.4857,38.8076],[-86.4251,38.8092],[-86.4246,38.8364],[-86.339,38.8744],[-86.3297,38.8499],[-86.4032,38.8165],[-86.3505,38.8446],[-86.3752,38.8257],[-86.3387,38.8218],[-86.3863,38.811],[-86.328,38.7999],[-86.3067,38.8556],[-86.3281,38.9005],[-86.2913,38.9097],[-86.2901,38.9452],[-86.2612,38.9436],[-86.2765,38.9088],[-86.2515,38.9413],[-86.231,38.9268],[-86.2935,38.8947],[-86.2746,38.8633],[-86.2402,38.8988],[-86.2254,38.8776],[-86.2181,38.9279],[-86.2777,38.971],[-86.2932,38.9377],[-86.3497,38.9401],[-86.3098,38.9303],[-86.3476,38.9092],[-86.3629,38.9595],[-86.4459,38.9562],[-86.4065,38.9409],[-86.5059,38.9443],[-86.4671,38.9323],[-86.501,38.9112],[-86.4461,38.9126],[-86.5323,38.8875],[-86.5045,38.964],[-86.5631,39.0273],[-86.5343,39.0229],[-86.514,39.062],[-86.5298,39.0077],[-86.5015,39.048],[-86.4916,39.0135],[-86.5101,39.0814],[-86.4762,39.0751],[-86.4832,39.1324],[-86.4309,39.1228],[-86.4647,39.1471],[-86.4403,39.1643],[-86.4707,39.1774],[-86.4374,39.1897],[-86.4606,39.2096],[-86.4282,39.228],[-86.41,39.2014],[-86.3981,39.2314],[-86.4341,39.2367],[-86.4162,39.2549],[-86.4688,39.2491],[-86.4348,39.2313],[-86.4629,39.2145],[-86.5374,39.231],[-86.511,39.203],[-86.4699,39.2124],[-86.4904,39.1752],[-86.5499,39.2407],[-86.5568,39.2127],[-86.5726,39.2721],[-86.6524,39.2959],[-86.6468,39.3221],[-86.7313,39.3147],[-86.6929,39.3592],[-86.6627,39.3455],[-86.6576,39.4212],[-86.6367,39.394],[-86.6391,39.4222],[-86.6104,39.4033],[-86.6029,39.4247],[-86.5922,39.3975],[-86.6079,39.4461],[-86.5693,39.4594],[-86.563,39.4284],[-86.5585,39.4688],[-86.6181,39.4549],[-86.6874,39.4969],[-86.7488,39.4678],[-86.7398,39.5139],[-86.6945,39.5289],[-86.7051,39.6097],[-86.7413,39.6079],[-86.6992,39.6495],[-86.768,39.6466],[-86.7928,39.6062],[-86.7448,39.6916],[-86.8561,39.6683],[-86.8,39.7085],[-86.7915,39.799],[-86.9511,39.7994],[-86.9204,39.8379],[-86.94,39.9013],[-87.026,39.8822],[-87.0521,39.8981],[-87.0148,39.9003],[-87.0179,39.9232],[-87.0181,39.9232]]],[[[-86.557,39.3494],[-86.6352,39.3402],[-86.5859,39.3296],[-86.5872,39.2979],[-86.5207,39.3265],[-86.5568,39.3489],[-86.557,39.3494]]],[[[-86.4625,39.3148],[-86.5721,39.2939],[-86.5245,39.2999],[-86.5534,39.2733],[-86.5292,39.2513],[-86.514,39.3048],[-86.4951,39.2867],[-86.4622,39.3143],[-86.4625,39.3148]]],[[[-86.4013,38.8014],[-86.4368,38.7957],[-86.4102,38.7727],[-86.3254,38.7755],[-86.401,38.8014],[-86.4013,38.8014]]],[[[-86.2049,38.8702],[-86.2498,38.8522],[-86.2131,38.853],[-86.2451,38.8154],[-86.1947,38.8389],[-86.2043,38.87],[-86.2049,38.8702]]],[[[-86.4039,39.0243],[-86.4536,39.0248],[-86.4315,39.0098],[-86.4515,39.0006],[-86.4106,39.0209],[-86.3754,38.9975],[-86.385,39.0345],[-86.4035,39.0234],[-86.4039,39.0243]]],[[[-87.1855,39.9915],[-87.1786,40.0219],[-87.1977,39.9774],[-87.1603,40.0026],[-87.1146,39.9716],[-87.1387,40.0061],[-87.185,39.9915],[-87.1855,39.9915]]],[[[-86.7504,39.7948],[-86.7659,39.7615],[-86.75,39.7948],[-86.7504,39.7948]]],[[[-86.9056,39.8533],[-86.9069,39.8887],[-86.9063,39.8528],[-86.9056,39.8533]]],[[[-86.2697,38.807],[-86.2949,38.7928],[-86.2747,38.7738],[-86.2694,38.8057],[-86.2697,38.807]]],[[[-86.2832,38.8495],[-86.3018,38.8169],[-86.2809,38.8188],[-86.2834,38.8492],[-86.2832,38.8495]]],[[[-86.4434,38.9927],[-86.484,38.9705],[-86.4435,38.9924],[-86.4434,38.9927]]],[[[-86.4587,39.0042],[-86.5005,38.9969],[-86.4814,38.9816],[-86.4584,39.0042],[-86.4587,39.0042]]],[[[-85.884,38.3366],[-85.8845,38.3364],[-85.884,38.3366]]],[[[-86.4775,39.3336],[-86.4768,39.3333],[-86.4775,39.3336]]],[[[-85.9225,38.5963],[-85.9549,38.5966],[-85.9227,38.5962],[-85.9225,38.5963]]],[[[-86.4205,39.3334],[-86.4206,39.333],[-86.4205,39.3334]]],[[[-86.3859,38.9961],[-86.3843,38.9961],[-86.3859,38.9961]]],[[[-86.5127,39.3171],[-86.5461,39.3127],[-86.5126,39.3168],[-86.5127,39.3171]]],[[[-86.1097,38.2366],[-86.1102,38.2366],[-86.1097,38.2366]]],[[[-86.3651,38.9946],[-86.3655,38.9945],[-86.3651,38.9946]]],[[[-86.3009,38.7637],[-86.3012,38.7633],[-86.3009,38.7637]]],[[[-85.9588,38.6313],[-85.9584,38.6312],[-85.9588,38.6313]]],[[[-86.376,38.9873],[-86.376,38.9871],[-86.376,38.9873]]],[[[-85.8316,38.3891],[-85.8325,38.3883],[-85.8316,38.3891]]],[[[-85.8702,38.3629],[-85.8706,38.3628],[-85.8702,38.3629]]],[[[-86.2758,38.826],[-86.2762,38.8259],[-86.2758,38.826]]],[[[-86.6195,39.3888],[-86.6192,39.3885],[-86.6195,39.3888]]],[[[-86.4315,39.357],[-86.4309,39.357],[-86.4315,39.357]]],[[[-86.3143,38.7936],[-86.3144,38.793],[-86.3143,38.7936]]],[[[-86.6954,39.5697],[-86.6957,39.5697],[-86.6954,39.5697]]],[[[-86.3932,39.1001],[-86.3929,39.0998],[-86.3932,39.1001]]],[[[-86.3915,39.0471],[-86.3916,39.0466],[-86.3915,39.0471]]],[[[-86.6123,39.398],[-86.6116,39.3973],[-86.6123,39.398]]],[[[-86.3085,38.7394],[-86.3093,38.7393],[-86.3085,38.7394]]],[[[-85.876,38.354],[-85.8755,38.353],[-85.876,38.354]]],[[[-85.9083,38.3837],[-85.9093,38.3835],[-85.9083,38.3837]]],[[[-86.3959,39.0653],[-86.3958,39.0651],[-86.3959,39.0653]]],[[[-85.8517,38.3505],[-85.8519,38.3504],[-85.8517,38.3505]]],[[[-86.3605,38.9708],[-86.3599,38.9708],[-86.3605,38.9708]]],[[[-86.5018,39.0],[-86.5024,39.0],[-86.5018,39.0]]],[[[-86.0874,38.4918],[-86.0873,38.4915],[-86.0874,38.4918]]],[[[-86.4126,39.1716],[-86.4122,39.1716],[-86.4126,39.1716]]],[[[-87.136,39.9189],[-87.1362,39.9189],[-87.136,39.9189]]],[[[-86.36,38.9817],[-86.3589,38.9783],[-86.36,38.9817]]],[[[-86.428,39.1153],[-86.4281,39.1147],[-86.428,39.1153]]],[[[-86.8112,39.577],[-86.8108,39.577],[-86.8112,39.577]]],[[[-86.4079,39.0547],[-86.4082,39.0547],[-86.4079,39.0547]]],[[[-85.9281,38.5818],[-85.9284,38.5817],[-85.9281,38.5818]]],[[[-86.6493,39.334],[-86.6495,39.334],[-86.6493,39.334]]],[[[-86.4612,39.0733],[-86.4612,39.0729],[-86.4612,39.0733]]],[[[-86.5048,39.0078],[-86.505,39.0078],[-86.5048,39.0078]]],[[[-86.234,38.7521],[-86.2339,38.7519],[-86.234,38.7521]]],[[[-86.427,39.3117],[-86.4268,39.3117],[-86.427,39.3117]]],[[[-86.2952,38.8642],[-86.2955,38.8642],[-86.2952,38.8642]]],[[[-86.4098,39.1929],[-86.409,39.1929],[-86.4098,39.1929]]],[[[-86.6319,39.3125],[-86.6321,39.3125],[-86.6319,39.3125]]],[[[-86.6426,39.3435],[-86.6428,39.3435],[-86.6426,39.3435]]],[[[-86.0712,38.7048],[-86.0715,38.7048],[-86.0712,38.7048]]],[[[-86.4373,39.2601],[-86.4376,39.26],[-86.4373,39.2601]]],[[[-87.1144,39.925],[-87.1147,39.9249],[-87.1144,39.925]]],[[[-86.384,39.0398],[-86.3843,39.0398],[-86.384,39.0398]]],[[[-86.5083,38.9948],[-86.5086,38.9948],[-86.5083,38.9948]]],[[[-86.4163,39.3434],[-86.4165,39.3426],[-86.4163,39.3434]]],[[[-86.4427,38.7862],[-86.444,38.786],[-86.4427,38.7862]]],[[[-86.6392,39.3158],[-86.6394,39.3157],[-86.6392,39.3158]]],[[[-86.4017,39.107],[-86.402,39.107],[-86.4017,39.107]]],[[[-87.1142,39.933],[-87.1144,39.933],[-87.1142,39.933]]],[[[-86.5319,38.9997],[-86.5353,38.9997],[-86.5319,38.9997]]],[[[-87.1127,39.9475],[-87.1144,39.9464],[-87.1127,39.9475]]]]},"properties":{"lithology":"Limestone","name":"Sanders","unit":"M2","ages":"Mississippian","formations":"Salem, Harrodsburg, Muldaugh, Ramp Creek"}},{"type":"Feature","geometry":{"type":"MultiPolygon","coordinates":[[[[-86.9123,39.7827],[-86.9287,39.7987],[-86.9248,39.7712],[-86.9954,39.7246],[-86.9484,39.6876],[-86.9755,39.6504],[-86.9496,39.619],[-86.9788,39.6139],[-86.9447,39.5613],[-87.0037,39.5567],[-86.9601,39.5079],[-87.004,39.492],[-86.9833,39.4725],[-87.0118,39.3953],[-86.8943,39.402],[-86.8448,39.4382],[-86.7608,39.4102],[-86.8001,39.3707],[-86.7703,39.3395],[-86.7989,39.3352],[-86.7862,39.3008],[-86.8223,39.3432],[-86.7919,39.3992],[-86.8318,39.3912],[-86.8103,39.2336],[-86.8692,39.2184],[-86.8657,39.1701],[-86.7818,39.1484],[-86.7727,39.177],[-86.8264,39.185],[-86.7675,39.2055],[-86.7271,39.16],[-86.6882,39.1754],[-86.715,39.126],[-86.7369,39.1452],[-86.8447,39.0824],[-86.7746,39.0904],[-86.7725,39.1296],[-86.7129,39.0963],[-86.7287,39.1169],[-86.6766,39.1131],[-86.6467,39.1458],[-86.6962,39.1364],[-86.6839,39.1661],[-86.5969,39.1804],[-86.7062,39.0358],[-86.6905,39.0006],[-86.7145,38.9815],[-86.6815,38.9533],[-86.7085,38.9212],[-86.6553,38.8942],[-86.6863,38.8872],[-86.6568,38.8413],[-86.6857,38.8463],[-86.7359,38.7778],[-86.6241,38.8452],[-86.6357,38.865],[-86.6145,38.8257],[-86.6544,38.8238],[-86.6856,38.7652],[-86.7168,38.7772],[-86.75,38.722],[-86.6981,38.746],[-86.711,38.7736],[-86.6371,38.7626],[-86.6379,38.7951],[-86.6053,38.7534],[-86.5282,38.7778],[-86.4984,38.7507],[-86.5544,38.7191],[-86.5061,38.7454],[-86.5532,38.7531],[-86.5712,38.7141],[-86.6226,38.7209],[-86.5917,38.7449],[-86.6796,38.7297],[-86.5661,38.6911],[-86.5036,38.7142],[-86.5333,38.6961],[-86.5076,38.6812],[-86.5363,38.6337],[-86.5334,38.6848],[-86.5555,38.6571],[-86.5801,38.6829],[-86.5602,38.6339],[-86.5841,38.6131],[-86.5891,38.6515],[-86.6068,38.585],[-86.638,38.6031],[-86.6132,38.6517],[-86.6401,38.6612],[-86.6899,38.5793],[-86.6413,38.6123],[-86.6135,38.5213],[-86.5955,38.5749],[-86.5476,38.5314],[-86.5706,38.5678],[-86.5291,38.5624],[-86.4953,38.5073],[-86.5194,38.5664],[-86.4775,38.5179],[-86.4914,38.5526],[-86.4341,38.5325],[-86.4185,38.49],[-86.4175,38.5198],[-86.3723,38.5174],[-86.4032,38.5605],[-86.3686,38.508],[-86.3178,38.5186],[-86.3541,38.529],[-86.3573,38.5663],[-86.3057,38.5248],[-86.2921,38.4733],[-86.3149,38.5033],[-86.334,38.4708],[-86.2715,38.4215],[-86.2843,38.3668],[-86.3131,38.3637],[-86.2889,38.3825],[-86.3145,38.3797],[-86.3136,38.4107],[-86.2847,38.4189],[-86.3363,38.4367],[-86.3269,38.4599],[-86.3536,38.4286],[-86.3251,38.3995],[-86.3594,38.4152],[-86.3116,38.37],[-86.3803,38.389],[-86.2915,38.3336],[-86.331,38.3197],[-86.2875,38.3141],[-86.2857,38.265],[-86.2421,38.2397],[-86.3069,38.2429],[-86.2973,38.2095],[-86.3289,38.1996],[-86.3133,38.2636],[-86.3285,38.2078],[-86.3526,38.2188],[-86.323,38.1869],[-86.3627,38.2026],[-86.3805,38.1779],[-86.3567,38.1987],[-86.2868,38.1578],[-86.2491,38.0456],[-86.1641,38.0335],[-86.0613,38.1497],[-85.9412,38.2121],[-86.0415,38.1446],[-85.9537,38.1756],[-85.9286,38.1652],[-85.9856,38.144],[-85.9583,38.1433],[-86.0573,38.1463],[-86.0746,38.1212],[-86.0575,38.1017],[-85.9517,38.1323],[-85.9947,38.1061],[-85.9805,38.088],[-86.087,38.1202],[-86.1757,38.0235],[-86.0617,38.0148],[-86.0508,37.9856],[-86.0184,38.0657],[-86.025,38.0166],[-85.9533,38.0754],[-85.9959,38.0276],[-85.9639,38.0498],[-85.962,38.0152],[-85.9124,38.1746],[-85.9301,38.2433],[-86.002,38.2249],[-85.9815,38.2072],[-86.1198,38.2078],[-86.0707,38.1963],[-85.969,38.2679],[-86.0452,38.3031],[-86.0079,38.2703],[-86.0922,38.2927],[-86.1197,38.2541],[-86.0476,38.3249],[-86.0548,38.3783],[-86.0483,38.3546],[-86.022,38.401],[-85.9758,38.3946],[-85.9867,38.4561],[-86.0134,38.4663],[-86.0041,38.4096],[-86.1108,38.4752],[-86.1351,38.4421],[-86.0937,38.4333],[-86.2027,38.4281],[-86.1432,38.4834],[-86.165,38.5807],[-86.1494,38.5369],[-86.1178,38.5591],[-86.1344,38.6495],[-86.1024,38.6566],[-86.1122,38.609],[-86.0697,38.663],[-86.1568,38.6731],[-86.1495,38.6436],[-86.1954,38.6896],[-86.2213,38.644],[-86.2473,38.7062],[-86.3115,38.7253],[-86.2997,38.6825],[-86.3647,38.7451],[-86.3705,38.7086],[-86.3875,38.7405],[-86.428,38.7351],[-86.4197,38.7592],[-86.456,38.7479],[-86.4434,38.7792],[-86.4758,38.7689],[-86.4493,38.7936],[-86.4973,38.8042],[-86.4948,38.7841],[-86.532,38.8357],[-86.5341,38.8062],[-86.6018,38.7846],[-86.5815,38.8177],[-86.5495,38.8074],[-86.5742,38.8432],[-86.5403,38.8691],[-86.558,38.8976],[-86.5334,38.8947],[-86.5593,38.92],[-86.5249,38.9194],[-86.5684,38.9617],[-86.5173,38.9547],[-86.6018,39.0354],[-86.5818,39.0517],[-86.6044,39.0725],[-86.5745,39.079],[-86.6105,39.0844],[-86.5707,39.0902],[-86.5813,39.1229],[-86.5556,39.1068],[-86.5692,39.1545],[-86.548,39.1339],[-86.5362,39.1752],[-86.572,39.1869],[-86.582,39.2637],[-86.6345,39.2797],[-86.5912,39.2415],[-86.622,39.2391],[-86.6068,39.2049],[-86.6948,39.3276],[-86.7987,39.2592],[-86.7326,39.3248],[-86.763,39.3714],[-86.7325,39.3324],[-86.7032,39.3595],[-86.7241,39.4149],[-86.681,39.4057],[-86.7085,39.4415],[-86.7671,39.4296],[-86.7928,39.4559],[-86.757,39.4677],[-86.7476,39.5812],[-86.7191,39.5685],[-86.7197,39.5921],[-86.8488,39.5802],[-86.8043,39.6063],[-86.8029,39.6506],[-86.8309,39.6622],[-86.91,39.6184],[-86.8507,39.7037],[-86.8352,39.6862],[-86.8318,39.7417],[-86.9121,39.7827],[-86.9123,39.7827]]],[[[-87.0804,39.8818],[-87.1084,39.8899],[-87.0937,39.8599],[-87.0123,39.8572],[-87.1424,39.7848],[-87.0637,39.7898],[-87.0686,39.8136],[-86.9532,39.8482],[-87.0323,39.8265],[-87.009,39.8652],[-87.0793,39.8817],[-87.0804,39.8818]]],[[[-86.1029,38.5381],[-86.1485,38.518],[-86.1284,38.4897],[-86.1589,38.433],[-86.0775,38.5265],[-86.0521,38.534],[-86.054,38.5043],[-86.0427,38.541],[-86.1024,38.5381],[-86.1029,38.5381]]],[[[-86.4396,38.3631],[-86.4373,38.3847],[-86.4686,38.3717],[-86.4975,38.3056],[-86.4464,38.2282],[-86.4545,38.1921],[-86.406,38.1585],[-86.435,38.1268],[-86.4017,38.1044],[-86.3211,38.1471],[-86.4109,38.1225],[-86.3911,38.1451],[-86.4146,38.2288],[-86.3778,38.2706],[-86.4198,38.2295],[-86.4025,38.1657],[-86.4527,38.1918],[-86.4643,38.2818],[-86.3786,38.3155],[-86.486,38.2891],[-86.474,38.3326],[-86.3986,38.346],[-86.4635,38.3364],[-86.4408,38.363],[-86.4396,38.3631]]],[[[-87.0002,39.7786],[-87.0752,39.7614],[-87.095,39.6899],[-87.05,39.7028],[-87.0737,39.7098],[-87.0344,39.7301],[-87.0686,39.7413],[-87.0387,39.7734],[-86.9899,39.7546],[-86.9752,39.7778],[-86.9997,39.7784],[-87.0002,39.7786]]],[[[-86.4415,38.9037],[-86.477,38.879],[-86.4954,38.8982],[-86.5425,38.8486],[-86.5079,38.8567],[-86.5081,38.8317],[-86.4411,38.9037],[-86.4415,38.9037]]],[[[-86.3755,38.49],[-86.4153,38.4303],[-86.4621,38.4438],[-86.4492,38.4689],[-86.4805,38.4434],[-86.4244,38.4161],[-86.3512,38.4465],[-86.3883,38.4644],[-86.3403,38.4944],[-86.3752,38.4899],[-86.3755,38.49]]],[[[-86.4253,38.8603],[-86.4924,38.8166],[-86.4296,38.8245],[-86.4249,38.8603],[-86.4253,38.8603]]],[[[-85.9495,38.2791],[-85.9916,38.2392],[-85.9411,38.27],[-85.9697,38.2453],[-85.9314,38.2467],[-85.949,38.2785],[-85.9495,38.2791]]],[[[-86.95,39.8236],[-87.0309,39.7947],[-86.9569,39.792],[-86.9503,39.8235],[-86.95,39.8236]]],[[[-86.527,39.0812],[-86.5665,39.066],[-86.5429,39.0658],[-86.5553,39.0337],[-86.5263,39.0812],[-86.527,39.0812]]],[[[-86.7302,39.0573],[-86.6937,39.0906],[-86.7358,39.0572],[-86.8359,39.0653],[-86.7303,39.057],[-86.7302,39.0573]]],[[[-86.0705,38.4641],[-86.0247,38.4416],[-86.0702,38.4635],[-86.0705,38.4641]]],[[[-87.1191,39.8627],[-87.1204,39.8627],[-87.1191,39.8627]]],[[[-86.0185,38.3557],[-86.0191,38.3552],[-86.0185,38.3557]]],[[[-86.0401,38.4304],[-86.0396,38.4303],[-86.0401,38.4304]]],[[[-87.0522,39.6661],[-87.053,39.6654],[-87.0522,39.6661]]],[[[-86.3585,38.9181],[-86.358,38.918],[-86.3585,38.9181]]],[[[-86.6226,39.2954],[-86.6437,39.2905],[-86.6226,39.2952],[-86.6226,39.2954]]],[[[-86.0103,38.3829],[-86.0109,38.3822],[-86.0103,38.3829]]],[[[-86.4086,38.7961],[-86.408,38.7961],[-86.4086,38.7961]]],[[[-86.0974,38.5859],[-86.0972,38.5859],[-86.0974,38.5859]]],[[[-86.3877,38.7845],[-86.3882,38.7838],[-86.3877,38.7845]]],[[[-86.0407,37.983],[-86.0401,37.9829],[-86.0407,37.983]]],[[[-86.9398,39.7856],[-86.9405,39.7852],[-86.9398,39.7856]]],[[[-86.4565,38.919],[-86.4569,38.919],[-86.4565,38.919]]],[[[-87.0174,39.7005],[-87.0185,39.7005],[-87.0174,39.7005]]],[[[-85.9567,38.3077],[-85.9571,38.3077],[-85.9567,38.3077]]],[[[-86.1857,38.0275],[-86.1859,38.0275],[-86.1857,38.0275]]],[[[-86.5092,39.1794],[-86.509,39.1794],[-86.5092,39.1794]]],[[[-86.1106,38.6879],[-86.1102,38.6878],[-86.1106,38.6879]]],[[[-86.2675,38.8022],[-86.2669,38.7959],[-86.2675,38.8022]]],[[[-86.1821,38.6906],[-86.1817,38.6906],[-86.1821,38.6906]]],[[[-86.251,38.7081],[-86.2514,38.7081],[-86.251,38.7081]]],[[[-86.0432,38.4654],[-86.0434,38.4651],[-86.0432,38.4654]]],[[[-86.2569,38.7228],[-86.2567,38.7228],[-86.2569,38.7228]]],[[[-86.5468,39.0793],[-86.5473,39.0793],[-86.5468,39.0793]]],[[[-86.259,38.7341],[-86.2581,38.734],[-86.259,38.7341]]],[[[-86.3288,38.8888],[-86.3273,38.8872],[-86.3288,38.8888]]],[[[-86.4492,38.8181],[-86.4496,38.8178],[-86.4492,38.8181]]],[[[-86.1461,38.7128],[-86.1455,38.7128],[-86.1461,38.7128]]],[[[-86.0831,38.5578],[-86.0834,38.5578],[-86.0831,38.5578]]],[[[-86.0122,38.5927],[-86.0139,38.5926],[-86.0122,38.5927]]],[[[-86.0213,38.4703],[-86.0216,38.4703],[-86.0213,38.4703]]],[[[-86.0137,38.6038],[-86.014,38.6038],[-86.0137,38.6038]]],[[[-86.1546,38.4955],[-86.1551,38.4956],[-86.1546,38.4955]]]]},"properties":{"lithology":"Limestone","name":"Blue River","unit":"M3","ages":"Mississippian","formations":"St. Louis, Ste. Genevieve, Aux Vases, Renault, Paoli"}},{"type":"Feature","geometry":{"type":"MultiPolygon","coordinates":[[[[-86.5975,38.7058],[-86.607,38.6799],[-86.6492,38.7152],[-86.605,38.6688],[-86.582,38.7024],[-86.5999,38.6472],[-86.6408,38.6763],[-86.6571,38.6213],[-86.6813,38.6025],[-86.6832,38.6511],[-86.7167,38.5911],[-86.7379,38.6023],[-86.6907,38.6502],[-86.7161,38.6488],[-86.778,38.5817],[-86.8026,38.6004],[-86.8194,38.5484],[-86.8441,38.5949],[-86.7936,38.6328],[-86.8421,38.6066],[-86.8331,38.6421],[-86.872,38.6427],[-86.8445,38.6249],[-86.8375,38.5325],[-86.7419,38.5331],[-86.8129,38.5693],[-86.7673,38.5629],[-86.7423,38.5935],[-86.7176,38.5395],[-86.7237,38.5808],[-86.667,38.5305],[-86.6782,38.5626],[-86.6532,38.5692],[-86.6783,38.5829],[-86.6233,38.5708],[-86.6509,38.5485],[-86.6218,38.5252],[-86.6487,38.5226],[-86.6082,38.473],[-86.5354,38.4711],[-86.5168,38.5001],[-86.5402,38.5104],[-86.5167,38.5076],[-86.5023,38.4749],[-86.5771,38.4163],[-86.5907,38.4425],[-86.5541,38.4573],[-86.5844,38.4708],[-86.6052,38.4443],[-86.6113,38.4709],[-86.6434,38.4399],[-86.7051,38.4424],[-86.7169,38.4703],[-86.6577,38.4521],[-86.6856,38.4705],[-86.6267,38.4764],[-86.6428,38.4988],[-86.7,38.4775],[-86.6538,38.5126],[-86.7801,38.4751],[-86.6951,38.5303],[-86.7898,38.4823],[-86.7968,38.459],[-86.7602,38.469],[-86.7113,38.4255],[-86.6911,38.3541],[-86.649,38.3587],[-86.6862,38.3776],[-86.6576,38.3893],[-86.692,38.43],[-86.6215,38.3917],[-86.6181,38.3389],[-86.6125,38.3948],[-86.5951,38.3476],[-86.5835,38.3692],[-86.5423,38.3407],[-86.5263,38.375],[-86.567,38.364],[-86.5937,38.3973],[-86.4653,38.4014],[-86.5096,38.3849],[-86.5125,38.3032],[-86.5489,38.3315],[-86.5709,38.2982],[-86.5206,38.2912],[-86.5398,38.2793],[-86.5017,38.2729],[-86.5054,38.2362],[-86.4661,38.2326],[-86.4943,38.2081],[-86.5178,38.2557],[-86.5652,38.2667],[-86.5341,38.2361],[-86.5612,38.2322],[-86.51,38.1873],[-86.4469,38.1842],[-86.4891,38.1618],[-86.4481,38.135],[-86.4807,38.1057],[-86.4705,38.1421],[-86.5072,38.1366],[-86.4892,38.0922],[-86.5171,38.0727],[-86.5523,38.1139],[-86.5179,38.1463],[-86.5678,38.136],[-86.577,38.1598],[-86.5326,38.1758],[-86.5616,38.1666],[-86.574,38.2082],[-86.5824,38.1453],[-86.5424,38.0839],[-86.58,38.0852],[-86.5222,38.0504],[-86.5485,37.9809],[-86.5809,38.0386],[-86.5864,37.9851],[-86.5527,37.9418],[-86.6014,37.9267],[-86.6079,37.8763],[-86.642,37.8569],[-86.6189,37.9287],[-86.6787,37.9161],[-86.6442,37.9027],[-86.6541,37.8422],[-86.6044,37.8586],[-86.5886,37.9212],[-86.5126,37.9388],[-86.5402,38.007],[-86.487,38.0921],[-86.4997,38.1233],[-86.472,38.0499],[-86.4448,38.0845],[-86.4661,38.118],[-86.4244,38.1311],[-86.4824,38.1671],[-86.4104,38.1422],[-86.4622,38.2126],[-86.5071,38.2119],[-86.4552,38.2038],[-86.4973,38.2629],[-86.4723,38.2758],[-86.5385,38.3063],[-86.4914,38.2952],[-86.4927,38.3667],[-86.473,38.3467],[-86.4776,38.3763],[-86.4607,38.3579],[-86.427,38.392],[-86.4636,38.3397],[-86.3828,38.3576],[-86.4793,38.3232],[-86.4733,38.2841],[-86.4327,38.3282],[-86.3968,38.3307],[-86.4341,38.2996],[-86.4132,38.2944],[-86.3615,38.3375],[-86.3908,38.3012],[-86.3643,38.2968],[-86.4428,38.2917],[-86.4606,38.2698],[-86.4268,38.2717],[-86.4743,38.2546],[-86.4429,38.2561],[-86.4494,38.1932],[-86.406,38.1676],[-86.4197,38.2468],[-86.3638,38.2779],[-86.3909,38.2459],[-86.369,38.2345],[-86.4115,38.2285],[-86.3774,38.1632],[-86.4015,38.115],[-86.3363,38.145],[-86.3823,38.1796],[-86.3212,38.2436],[-86.34,38.3006],[-86.3021,38.2831],[-86.3117,38.2422],[-86.2539,38.2429],[-86.2995,38.3166],[-86.3477,38.3099],[-86.3472,38.3349],[-86.3021,38.3343],[-86.382,38.3625],[-86.3717,38.4352],[-86.3831,38.408],[-86.4265,38.4222],[-86.3921,38.4061],[-86.4105,38.3927],[-86.4661,38.4404],[-86.4642,38.4081],[-86.4903,38.4372],[-86.6097,38.3956],[-86.5386,38.4255],[-86.5,38.4923],[-86.4425,38.4897],[-86.5256,38.4369],[-86.4263,38.4855],[-86.4537,38.4494],[-86.4332,38.4285],[-86.3816,38.4826],[-86.3991,38.5057],[-86.4204,38.484],[-86.4322,38.5166],[-86.4607,38.4997],[-86.5112,38.5569],[-86.4716,38.5036],[-86.5056,38.4991],[-86.5339,38.5552],[-86.5554,38.5605],[-86.5206,38.5217],[-86.5409,38.5157],[-86.5938,38.5718],[-86.6024,38.5277],[-86.5564,38.5084],[-86.6092,38.5093],[-86.5342,38.4846],[-86.599,38.4811],[-86.6351,38.5171],[-86.615,38.5461],[-86.6465,38.5457],[-86.6202,38.5652],[-86.646,38.6031],[-86.6809,38.588],[-86.6718,38.5453],[-86.742,38.5788],[-86.7559,38.5978],[-86.709,38.6428],[-86.7387,38.5821],[-86.6918,38.5999],[-86.6846,38.6425],[-86.6762,38.5949],[-86.6344,38.674],[-86.6048,38.6529],[-86.6124,38.5913],[-86.5921,38.6632],[-86.5659,38.6456],[-86.5846,38.687],[-86.5534,38.668],[-86.5972,38.7057],[-86.5975,38.7058]]],[[[-86.8234,39.1713],[-86.8431,39.1542],[-86.8176,39.1331],[-86.8817,39.1639],[-86.9078,39.1369],[-86.866,39.151],[-86.9004,39.1223],[-86.876,39.1222],[-86.9428,39.0935],[-86.8965,39.077],[-86.9105,39.1078],[-86.8694,39.1088],[-86.8494,39.1486],[-86.8324,39.1198],[-86.8572,39.087],[-86.8795,39.1017],[-86.8688,39.0745],[-86.9159,39.0253],[-86.8656,39.0256],[-86.9034,39.0282],[-86.8386,39.0625],[-86.8376,39.0414],[-86.7541,39.0423],[-86.9099,39.0039],[-86.9209,38.9742],[-86.8885,38.9759],[-86.8998,38.9982],[-86.8023,38.9257],[-86.8195,38.968],[-86.7594,38.927],[-86.7423,38.9433],[-86.7825,38.9723],[-86.7351,38.9729],[-86.7144,38.9359],[-86.7457,38.9216],[-86.6862,38.8779],[-86.7369,38.9211],[-86.6939,38.9499],[-86.7275,38.9455],[-86.7038,38.9718],[-86.7374,38.9913],[-86.6896,39.0783],[-86.7195,39.0713],[-86.7268,39.0256],[-86.7623,39.0603],[-86.8893,39.0542],[-86.8553,39.0613],[-86.8365,39.1137],[-86.7872,39.1042],[-86.7797,39.1359],[-86.8232,39.1711],[-86.8234,39.1713]]],[[[-86.7414,38.9087],[-86.7596,38.8639],[-86.7303,38.8334],[-86.7426,38.8069],[-86.7577,38.8506],[-86.7496,38.8021],[-86.7908,38.8001],[-86.7701,38.7909],[-86.8162,38.7315],[-86.7809,38.7316],[-86.7996,38.6869],[-86.7729,38.711],[-86.7934,38.77],[-86.7591,38.7536],[-86.7816,38.7986],[-86.726,38.8322],[-86.7399,38.8898],[-86.7005,38.8482],[-86.7267,38.8141],[-86.6961,38.8409],[-86.7397,38.9073],[-86.7414,38.9087]]],[[[-86.7909,38.8766],[-86.8354,38.8172],[-86.8519,38.8432],[-86.8485,38.7412],[-86.8724,38.7264],[-86.8497,38.7189],[-86.8038,38.7772],[-86.8491,38.7854],[-86.8009,38.8018],[-86.8447,38.8021],[-86.7902,38.8172],[-86.818,38.8302],[-86.7705,38.8626],[-86.7981,38.8565],[-86.7915,38.8765],[-86.7909,38.8766]]],[[[-86.7685,39.1164],[-86.7853,39.0969],[-86.7482,39.0886],[-86.8464,39.0678],[-86.7518,39.0824],[-86.7673,39.0671],[-86.7341,39.0598],[-86.7684,39.1161],[-86.7685,39.1164]]],[[[-86.6543,38.7709],[-86.7216,38.7169],[-86.7683,38.7214],[-86.772,38.6646],[-86.7653,38.7214],[-86.7203,38.7146],[-86.6753,38.7506],[-86.7162,38.711],[-86.656,38.7248],[-86.6271,38.7493],[-86.654,38.738],[-86.6541,38.7708],[-86.6543,38.7709]]],[[[-86.6736,38.716],[-86.7151,38.6911],[-86.6578,38.6974],[-86.6574,38.6712],[-86.7358,38.6833],[-86.7516,38.6453],[-86.721,38.6572],[-86.736,38.6811],[-86.6992,38.6568],[-86.704,38.6849],[-86.6728,38.6581],[-86.6371,38.6816],[-86.706,38.6951],[-86.6494,38.7052],[-86.6733,38.7155],[-86.6736,38.716]]],[[[-86.8047,38.7166],[-86.8766,38.6609],[-86.8141,38.6571],[-86.8043,38.7165],[-86.8047,38.7166]]],[[[-86.2518,38.2064],[-86.3072,38.1793],[-86.2545,38.2003],[-86.2838,38.1666],[-86.2368,38.1698],[-86.2519,38.2059],[-86.2518,38.2064]]],[[[-86.9284,39.1258],[-86.9397,39.1009],[-86.9277,39.1258],[-86.9284,39.1258]]],[[[-86.7783,38.903],[-86.8406,38.9006],[-86.8305,38.8762],[-86.7789,38.9027],[-86.7783,38.903]]],[[[-86.7197,38.7798],[-86.7497,38.7255],[-86.7195,38.7797],[-86.7197,38.7798]]],[[[-86.3198,38.5024],[-86.3775,38.4669],[-86.3194,38.5018],[-86.3198,38.5024]]],[[[-86.764,39.1998],[-86.7974,39.1791],[-86.7632,39.1997],[-86.764,39.1998]]],[[[-86.8625,39.241],[-86.8934,39.2117],[-86.8726,39.1996],[-86.8623,39.2404],[-86.8625,39.241]]],[[[-86.6653,38.9976],[-86.6755,38.9652],[-86.6649,38.9976],[-86.6653,38.9976]]],[[[-86.7364,38.6932],[-86.7509,38.6635],[-86.7439,38.6912],[-86.7155,38.6814],[-86.7371,38.6918],[-86.7364,38.6932]]],[[[-86.3814,38.5107],[-86.3347,38.4978],[-86.3815,38.5099],[-86.3814,38.5107]]],[[[-86.8235,39.2599],[-86.8557,39.246],[-86.8234,39.2597],[-86.8235,39.2599]]],[[[-86.6122,38.7494],[-86.6404,38.7269],[-86.6101,38.7485],[-86.6122,38.7494]]],[[[-86.2196,38.3234],[-86.2158,38.2995],[-86.2194,38.3233],[-86.2196,38.3234]]],[[[-86.3037,38.2175],[-86.3247,38.2018],[-86.3029,38.2161],[-86.3037,38.2175]]],[[[-86.2229,38.2191],[-86.223,38.2188],[-86.2229,38.2191]]],[[[-86.8378,39.2021],[-86.8374,39.202],[-86.8378,39.2021]]],[[[-86.9084,39.2142],[-86.9268,39.203],[-86.9083,39.214],[-86.9084,39.2142]]],[[[-86.666,38.9319],[-86.6651,38.9307],[-86.666,38.9319]]],[[[-86.8471,39.1661],[-86.8475,39.1657],[-86.8471,39.1661]]],[[[-86.6981,38.7573],[-86.6976,38.7566],[-86.6981,38.7573]]],[[[-86.4631,38.5381],[-86.4625,38.538],[-86.4631,38.5381]]],[[[-86.7069,38.9948],[-86.7068,38.9944],[-86.7069,38.9948]]],[[[-86.572,38.7206],[-86.5724,38.7203],[-86.572,38.7206]]],[[[-86.5249,38.6025],[-86.5245,38.6019],[-86.5249,38.6025]]],[[[-86.6815,38.7872],[-86.7037,38.783],[-86.6813,38.7868],[-86.6815,38.7872]]],[[[-86.6837,38.8728],[-86.6836,38.8725],[-86.6837,38.8728]]],[[[-86.8738,39.1836],[-86.8736,39.1833],[-86.8738,39.1836]]],[[[-86.218,38.2907],[-86.2185,38.2896],[-86.218,38.2907]]],[[[-86.3603,38.43],[-86.36,38.43],[-86.3603,38.43]]],[[[-86.7936,39.2112],[-86.7935,39.211],[-86.7936,39.2112]]],[[[-86.6187,38.2953],[-86.6185,38.2948],[-86.6187,38.2953]]],[[[-86.8344,39.0335],[-86.8341,39.0334],[-86.8344,39.0335]]],[[[-86.3865,38.5408],[-86.3862,38.5408],[-86.3865,38.5408]]],[[[-86.5556,38.7057],[-86.5553,38.7057],[-86.5556,38.7057]]],[[[-86.7774,39.2145],[-86.777,39.2142],[-86.7774,39.2145]]],[[[-86.4819,38.077],[-86.4817,38.0762],[-86.4819,38.077]]],[[[-86.4979,38.5803],[-86.4979,38.5801],[-86.4979,38.5803]]],[[[-86.1862,38.3642],[-86.1863,38.364],[-86.1862,38.3642]]],[[[-86.2934,38.1683],[-86.2932,38.1683],[-86.2934,38.1683]]],[[[-86.2679,38.1425],[-86.2684,38.1424],[-86.2679,38.1425]]],[[[-86.5405,38.6067],[-86.5401,38.6061],[-86.5405,38.6067]]],[[[-86.4912,38.5971],[-86.4908,38.5971],[-86.4912,38.5971]]],[[[-86.3056,38.3888],[-86.306,38.3888],[-86.3056,38.3888]]],[[[-86.5844,38.5946],[-86.5841,38.5946],[-86.5844,38.5946]]],[[[-86.6262,38.5906],[-86.6257,38.5905],[-86.6262,38.5906]]],[[[-86.9061,39.2256],[-86.9053,39.2248],[-86.9061,39.2256]]],[[[-86.3528,38.482],[-86.3523,38.4816],[-86.3528,38.482]]],[[[-86.2007,38.3168],[-86.2,38.3168],[-86.2007,38.3168]]],[[[-86.5078,38.6096],[-86.5082,38.6095],[-86.5078,38.6096]]],[[[-86.1916,38.1317],[-86.1922,38.1317],[-86.1916,38.1317]]],[[[-86.6912,38.5843],[-86.6915,38.5842],[-86.6912,38.5843]]],[[[-86.8952,39.2198],[-86.8954,39.2198],[-86.8952,39.2198]]],[[[-86.1903,38.2079],[-86.1906,38.2079],[-86.1903,38.2079]]],[[[-86.3322,38.4206],[-86.3325,38.4194],[-86.3322,38.4206]]],[[[-86.2507,38.1493],[-86.2502,38.1493],[-86.2507,38.1493]]],[[[-86.3848,38.4586],[-86.3851,38.4586],[-86.3848,38.4586]]],[[[-86.1992,38.0689],[-86.1997,38.0688],[-86.1992,38.0689]]],[[[-86.5035,38.5948],[-86.5038,38.5948],[-86.5035,38.5948]]],[[[-86.3683,38.3876],[-86.3688,38.3876],[-86.3683,38.3876]]],[[[-86.8829,38.9999],[-86.8842,38.9998],[-86.8829,38.9999]]],[[[-86.8156,39.2356],[-86.8158,39.2356],[-86.8156,39.2356]]],[[[-86.8205,39.1856],[-86.8208,39.1856],[-86.8205,39.1856]]],[[[-86.249,38.3719],[-86.2495,38.3719],[-86.249,38.3719]]],[[[-86.3551,38.4333],[-86.3556,38.4333],[-86.3551,38.4333]]],[[[-86.7414,38.7376],[-86.7419,38.7376],[-86.7414,38.7376]]],[[[-86.4384,38.2999],[-86.4376,38.2994],[-86.4384,38.2999]]],[[[-86.7231,38.7328],[-86.7237,38.7327],[-86.7231,38.7328]]],[[[-86.6316,38.6184],[-86.632,38.6184],[-86.6316,38.6184]]],[[[-86.3383,38.3577],[-86.3385,38.3577],[-86.3383,38.3577]]],[[[-86.7038,38.5816],[-86.7042,38.5816],[-86.7038,38.5816]]],[[[-86.3994,38.1912],[-86.3997,38.1912],[-86.3994,38.1912]]],[[[-86.6596,38.5886],[-86.66,38.5886],[-86.6596,38.5886]]]]},"properties":{"lithology":"Limestone","name":"Stephensport","unit":"M5","ages":"Mississippian","formations":"Hardinsburg, Big Clifty, Haney, Glen Dean, Beech Creek"}},{"type":"Feature","geometry":{"type":"MultiPolygon","coordinates":[[[[-85.9005,40.2169],[-85.8498,40.2076],[-85.8099,40.15],[-85.7451,40.1233],[-85.754,40.1452],[-85.7278,40.1425],[-85.6714,40.0788],[-85.5177,40.0759],[-85.4923,40.0388],[-85.393,40.103],[-85.2131,40.0105],[-85.231,39.968],[-85.2686,39.9766],[-85.235,39.9093],[-85.2908,39.9459],[-85.3333,39.9024],[-85.3642,39.9642],[-85.4067,39.975],[-85.3886,39.9497],[-85.4164,39.9306],[-85.3889,39.9195],[-85.4251,39.8878],[-85.3779,39.8745],[-85.3799,39.7879],[-85.4616,39.7924],[-85.3786,39.7467],[-85.4342,39.6756],[-85.3558,39.6838],[-85.3065,39.6522],[-85.3297,39.7039],[-85.288,39.7117],[-85.2256,39.7018],[-85.2037,39.658],[-85.2157,39.6362],[-85.2577,39.6666],[-85.1994,39.611],[-85.2195,39.578],[-85.252,39.5881],[-85.2199,39.5598],[-85.254,39.5693],[-85.2007,39.5088],[-85.2577,39.532],[-85.1982,39.4638],[-85.2558,39.4874],[-85.2343,39.4467],[-85.28,39.4671],[-85.2284,39.4313],[-85.2501,39.4002],[-85.257,39.429],[-85.2707,39.4046],[-85.2961,39.4229],[-85.266,39.3787],[-85.2905,39.389],[-85.3028,39.3256],[-85.3073,39.3735],[-85.3374,39.3502],[-85.2804,39.3055],[-85.3286,39.3028],[-85.3094,39.2563],[-85.3489,39.2532],[-85.3279,39.2165],[-85.323,39.2447],[-85.2925,39.2416],[-85.2877,39.1343],[-85.2572,39.1176],[-85.2864,39.0992],[-85.2261,39.0325],[-85.2166,38.9925],[-85.2481,38.9966],[-85.2021,38.9616],[-85.1803,38.8848],[-85.2182,38.8937],[-85.2132,38.9571],[-85.2774,38.8926],[-85.2954,38.9154],[-85.2463,38.957],[-85.2709,38.9651],[-85.2941,38.9243],[-85.3059,38.9513],[-85.271,38.834],[-85.3046,38.8176],[-85.2861,38.8425],[-85.332,38.8313],[-85.3172,38.8642],[-85.3512,38.8513],[-85.3294,38.8737],[-85.3608,38.8743],[-85.3585,38.9013],[-85.3669,38.816],[-85.3299,38.8062],[-85.35,38.7902],[-85.3111,38.7446],[-85.3335,38.7683],[-85.3652,38.7378],[-85.3581,38.779],[-85.3827,38.7442],[-85.437,38.7662],[-85.4749,38.7024],[-85.4463,38.6234],[-85.4903,38.6394],[-85.4214,38.5616],[-85.4642,38.5306],[-85.4675,38.5666],[-85.4805,38.5351],[-85.502,38.5635],[-85.4737,38.5203],[-85.5032,38.4704],[-85.536,38.4841],[-85.6193,38.429],[-85.6293,38.4753],[-85.6426,38.3528],[-85.6044,38.4408],[-85.499,38.4682],[-85.4178,38.5379],[-85.4567,38.6863],[-85.4351,38.7293],[-85.2717,38.7407],[-85.1732,38.688],[-85.0375,38.7759],[-84.9373,38.7868],[-84.9381,38.8165],[-84.9183,38.7871],[-84.8658,38.8214],[-84.8741,38.8011],[-84.8227,38.8053],[-84.8096,38.8873],[-84.8793,38.9162],[-84.8303,38.9739],[-84.8974,39.0574],[-84.8206,39.1074],[-84.8146,39.6671],[-84.852,39.6537],[-84.8143,39.7203],[-84.849,39.6918],[-84.9057,39.7196],[-84.8702,39.7343],[-84.8963,39.7509],[-84.8655,39.7753],[-84.8856,39.7869],[-84.8137,39.8398],[-84.8622,39.8539],[-84.8129,39.8895],[-84.8775,39.8923],[-84.8118,39.9563],[-84.8677,39.958],[-84.8745,39.9957],[-84.935,39.9471],[-84.9546,39.9922],[-85.0157,39.9292],[-85.0926,39.9525],[-85.1748,39.8964],[-85.1844,39.9599],[-85.0431,39.9922],[-85.1828,39.9945],[-85.1163,40.0934],[-85.205,40.0461],[-85.248,40.1046],[-85.2276,40.1417],[-85.3166,40.1018],[-85.3894,40.1144],[-85.3295,40.164],[-85.4874,40.0811],[-85.5502,40.1103],[-85.5272,40.0874],[-85.5858,40.0711],[-85.6758,40.0905],[-85.7362,40.1539],[-85.6209,40.1172],[-85.459,40.1607],[-85.6583,40.1267],[-85.7109,40.1677],[-85.8088,40.1542],[-85.8516,40.2159],[-85.8993,40.2167],[-85.9005,40.2169]]],[[[-84.9339,40.7038],[-84.9376,40.6278],[-85.0065,40.567],[-85.342,40.4968],[-85.3541,40.5271],[-85.3927,40.5134],[-85.5428,40.5754],[-85.5272,40.6038],[-85.5705,40.5893],[-85.5721,40.638],[-85.4899,40.6648],[-85.543,40.656],[-85.5509,40.7143],[-85.5536,40.6549],[-85.6069,40.6279],[-85.8507,40.7249],[-85.606,40.6097],[-85.634,40.5577],[-85.5945,40.5916],[-85.5608,40.5331],[-85.5434,40.5598],[-85.4559,40.5293],[-85.4526,40.4855],[-85.4459,40.5273],[-85.3811,40.4956],[-85.3553,40.4441],[-85.3734,40.4245],[-85.2864,40.3767],[-85.2966,40.3027],[-85.2785,40.3784],[-85.3562,40.481],[-85.2623,40.4879],[-85.2659,40.4613],[-85.1605,40.425],[-85.1473,40.3818],[-85.1388,40.4217],[-85.099,40.4089],[-85.0823,40.3716],[-85.1198,40.316],[-85.0956,40.2757],[-85.1281,40.2372],[-85.0787,40.2637],[-85.0509,40.1717],[-85.0431,40.2185],[-84.9374,40.1136],[-85.0529,40.2542],[-85.0239,40.2663],[-85.0682,40.2726],[-85.1027,40.3221],[-85.0567,40.3991],[-84.9552,40.3549],[-84.8958,40.2551],[-84.9193,40.357],[-85.2303,40.4871],[-85.0273,40.5445],[-84.9119,40.5088],[-84.9947,40.55],[-84.8032,40.6982],[-84.9181,40.6598],[-84.932,40.7001],[-84.9339,40.7038]]],[[[-85.6361,39.6037],[-85.5853,39.6725],[-85.8159,39.5533],[-85.4623,39.6159],[-85.6349,39.6037],[-85.6361,39.6037]]],[[[-85.4767,39.287],[-85.5638,39.2844],[-85.5749,39.2615],[-85.5297,39.2339],[-85.5541,39.1484],[-85.5294,39.218],[-85.4692,39.2406],[-85.5234,39.2353],[-85.5312,39.2588],[-85.47,39.2869],[-85.4767,39.287]]],[[[-85.3497,39.1556],[-85.5241,39.0036],[-85.3981,39.0258],[-85.4547,39.0362],[-85.4086,39.049],[-85.4318,39.0724],[-85.3203,39.1127],[-85.3931,39.0924],[-85.3409,39.125],[-85.3733,39.1184],[-85.3499,39.155],[-85.3497,39.1556]]],[[[-85.6135,39.3737],[-85.6126,39.3736],[-85.6135,39.3737]]],[[[-85.3958,39.2258],[-85.3937,39.255],[-85.4625,39.1745],[-85.5139,39.061],[-85.462,39.0971],[-85.4736,39.1408],[-85.3951,39.2258],[-85.3958,39.2258]]],[[[-85.2641,39.0564],[-85.3073,39.0258],[-85.3405,39.0554],[-85.3585,39.0155],[-85.467,38.9766],[-85.2862,39.0256],[-85.2637,39.0562],[-85.2641,39.0564]]],[[[-87.3833,40.7502],[-87.3969,40.7747],[-87.3838,40.7502],[-87.3833,40.7502]]],[[[-85.4256,39.1021],[-85.4955,39.0705],[-85.4258,39.102],[-85.4256,39.1021]]],[[[-85.412,39.1366],[-85.3748,39.1595],[-85.4123,39.1365],[-85.412,39.1366]]]]},"properties":{"lithology":"Limestone","name":"Maquoketa","unit":"O2","ages":"Ordovician","formations":"Whitewater, Kope, Dillsboro, Scales, Ft. Atkinson, Brainard"}},{"type":"Feature","geometry":{"type":"Polygon","coordinates":[[[-85.1056,38.7229],[-84.9921,38.7783],[-84.815,38.7844],[-84.8299,38.8305],[-84.7845,38.8751],[-84.8168,38.8951],[-84.8232,38.8047],[-84.8741,38.8011],[-84.8658,38.8214],[-84.9183,38.7871],[-84.9381,38.8165],[-84.9373,38.7868],[-85.0375,38.7759],[-85.1057,38.725],[-85.1056,38.7229]]]},"properties":{"lithology":"Limestone","name":"Lexington","unit":"O1","ages":"Ordovician","formations":"Lexington, Trenton"}},{"type":"Feature","geometry":{"type":"MultiPolygon","coordinates":[[[[-85.5913,41.0942],[-85.5968,41.1881],[-85.6397,41.0868],[-85.7658,41.0333],[-85.7885,41.0995],[-85.8158,41.0187],[-85.9362,41.0209],[-86.0062,40.9843],[-86.171,40.9925],[-86.1414,40.963],[-86.2474,40.8525],[-86.2865,40.8615],[-86.2256,40.9086],[-86.3534,40.8492],[-86.3541,40.8915],[-86.4587,40.8157],[-86.4306,40.8505],[-86.4605,40.8615],[-86.3995,40.9271],[-86.4989,40.862],[-86.5296,40.9195],[-86.3361,41.0483],[-86.3801,41.0542],[-86.4032,41.1101],[-86.534,41.0635],[-86.5805,41.1395],[-86.6298,41.0659],[-86.7214,41.0853],[-86.7264,41.0528],[-86.8888,41.0058],[-86.9539,40.8981],[-86.942,40.7995],[-86.8373,40.7747],[-86.8182,40.7242],[-86.8486,40.7115],[-86.7817,40.6871],[-86.8469,40.6312],[-86.8527,40.5047],[-86.8347,40.5614],[-86.6736,40.589],[-86.6145,40.6625],[-86.4978,40.6892],[-86.513,40.7154],[-86.4319,40.7512],[-86.4504,40.7679],[-86.3413,40.7788],[-86.3748,40.8003],[-86.1342,40.774],[-86.1672,40.7404],[-86.0679,40.6791],[-86.0328,40.5988],[-86.2569,40.5407],[-86.2779,40.5767],[-86.3384,40.5375],[-86.4753,40.5663],[-86.5402,40.4767],[-86.2924,40.3657],[-86.2841,40.2674],[-86.38,40.2567],[-86.413,40.2794],[-86.3975,40.3017],[-86.5852,40.3792],[-86.374,40.2112],[-86.3912,40.1499],[-86.2033,40.1077],[-86.1774,40.0763],[-86.217,40.0274],[-86.1955,39.9685],[-86.1168,40.0281],[-85.9551,39.9855],[-85.9784,39.9603],[-85.9522,39.9061],[-85.9765,39.9279],[-86.0694,39.8766],[-85.9541,39.8717],[-85.9894,39.8014],[-85.929,39.7772],[-85.92,39.7315],[-85.8737,39.705],[-85.9539,39.6023],[-85.9049,39.6077],[-85.8665,39.6557],[-85.6259,39.6966],[-85.7379,39.6752],[-85.7346,39.6978],[-85.7859,39.685],[-85.7685,39.7148],[-85.8417,39.6789],[-85.8405,39.7278],[-85.7942,39.7497],[-85.6325,39.7697],[-85.5001,39.7345],[-85.5133,39.6261],[-85.6182,39.623],[-85.5483,39.6485],[-85.5751,39.6663],[-85.5418,39.7007],[-85.7553,39.5781],[-85.8978,39.5418],[-85.7924,39.5434],[-85.7549,39.514],[-85.6473,39.5799],[-85.5648,39.5642],[-85.5314,39.5244],[-85.5728,39.4255],[-85.7258,39.431],[-85.8262,39.3855],[-85.8489,39.4247],[-85.7888,39.5036],[-85.8536,39.4469],[-85.8877,39.3412],[-85.7162,39.4171],[-85.7146,39.3956],[-85.5644,39.4135],[-85.4681,39.5011],[-85.4082,39.5039],[-85.4754,39.4249],[-85.5816,39.3775],[-85.6218,39.4008],[-85.7922,39.3115],[-85.6209,39.3589],[-85.7519,39.2369],[-85.6968,39.238],[-85.7008,39.289],[-85.5987,39.3643],[-85.4339,39.3541],[-85.4382,39.3813],[-85.5749,39.3752],[-85.4936,39.4245],[-85.3739,39.4266],[-85.3618,39.344],[-85.3363,39.3419],[-85.3863,39.3208],[-85.399,39.3406],[-85.409,39.3111],[-85.5542,39.3451],[-85.6704,39.2511],[-85.5765,39.2375],[-85.5496,39.1957],[-85.6077,39.0837],[-85.675,39.0818],[-85.6088,39.0702],[-85.5778,39.1261],[-85.5023,39.1661],[-85.4987,39.0913],[-85.5826,39.0369],[-85.452,39.0565],[-85.5385,38.9982],[-85.6162,38.9937],[-85.6411,38.953],[-85.4559,39.0289],[-85.4997,38.949],[-85.5507,38.9361],[-85.4923,38.9534],[-85.4587,38.9222],[-85.5278,38.8612],[-85.5337,38.7939],[-85.5635,38.7781],[-85.6471,38.8125],[-85.6182,38.8797],[-85.6621,38.8036],[-85.6308,38.8137],[-85.5392,38.7436],[-85.529,38.7639],[-85.5715,38.7791],[-85.4553,38.7979],[-85.4435,38.7428],[-85.4818,38.7023],[-85.452,38.6645],[-85.4995,38.645],[-85.4761,38.6211],[-85.5279,38.5813],[-85.5878,38.5817],[-85.5778,38.5538],[-85.6057,38.5446],[-85.5756,38.5343],[-85.536,38.5526],[-85.5801,38.5709],[-85.5135,38.5807],[-85.5061,38.4996],[-85.6123,38.4395],[-85.5782,38.4931],[-85.6232,38.474],[-85.6495,38.5016],[-85.6252,38.4234],[-85.6589,38.3986],[-85.6461,38.3497],[-85.6846,38.3481],[-85.6671,38.3359],[-85.7472,38.2672],[-85.652,38.3293],[-85.6293,38.4753],[-85.6193,38.429],[-85.536,38.4841],[-85.5032,38.4704],[-85.4737,38.5203],[-85.502,38.5635],[-85.4805,38.5351],[-85.4675,38.5666],[-85.4642,38.5306],[-85.4216,38.5612],[-85.4903,38.6394],[-85.4463,38.6234],[-85.4749,38.7024],[-85.437,38.7662],[-85.3827,38.7442],[-85.3581,38.779],[-85.3652,38.7378],[-85.3335,38.7683],[-85.3111,38.7446],[-85.35,38.7902],[-85.3299,38.8062],[-85.3669,38.816],[-85.3585,38.9013],[-85.3608,38.8743],[-85.3294,38.8737],[-85.3512,38.8513],[-85.3172,38.8642],[-85.332,38.8313],[-85.2861,38.8425],[-85.3046,38.8176],[-85.271,38.834],[-85.3059,38.9513],[-85.2941,38.9243],[-85.2709,38.9651],[-85.2463,38.957],[-85.2954,38.9154],[-85.2774,38.8926],[-85.2132,38.9571],[-85.2182,38.8937],[-85.1803,38.8848],[-85.2021,38.9616],[-85.2481,38.9966],[-85.2166,38.9925],[-85.2261,39.0325],[-85.2864,39.0992],[-85.2572,39.1176],[-85.2877,39.1343],[-85.2925,39.2416],[-85.323,39.2447],[-85.3279,39.2165],[-85.3489,39.2532],[-85.3094,39.2563],[-85.3286,39.3028],[-85.2804,39.3055],[-85.3374,39.3502],[-85.3073,39.3735],[-85.3028,39.3256],[-85.2905,39.389],[-85.266,39.3787],[-85.2961,39.4229],[-85.2707,39.4046],[-85.257,39.429],[-85.2501,39.4002],[-85.2284,39.4313],[-85.28,39.4671],[-85.2343,39.4467],[-85.2558,39.4874],[-85.1982,39.4638],[-85.2577,39.532],[-85.2007,39.5088],[-85.254,39.5693],[-85.2199,39.5598],[-85.252,39.5881],[-85.2195,39.578],[-85.1994,39.611],[-85.2577,39.6666],[-85.2157,39.6362],[-85.2037,39.658],[-85.2256,39.7018],[-85.288,39.7117],[-85.3297,39.7039],[-85.3065,39.6522],[-85.3558,39.6838],[-85.4342,39.6756],[-85.3786,39.7467],[-85.4616,39.7924],[-85.3799,39.7879],[-85.3779,39.8745],[-85.4251,39.8878],[-85.3889,39.9195],[-85.4164,39.9306],[-85.3886,39.9497],[-85.4067,39.975],[-85.3642,39.9642],[-85.3333,39.9024],[-85.2908,39.9459],[-85.235,39.9093],[-85.2686,39.9766],[-85.231,39.968],[-85.213,40.0099],[-85.393,40.103],[-85.4923,40.0388],[-85.5177,40.0759],[-85.6714,40.0788],[-85.7288,40.143],[-85.754,40.1452],[-85.7451,40.1233],[-85.8099,40.15],[-85.8503,40.208],[-85.9356,40.2291],[-85.8527,40.2166],[-85.8088,40.1542],[-85.7109,40.1677],[-85.6583,40.1267],[-85.459,40.1607],[-85.6209,40.1172],[-85.7362,40.1539],[-85.6758,40.0905],[-85.5858,40.0711],[-85.5272,40.0874],[-85.5502,40.1103],[-85.4874,40.0811],[-85.3295,40.164],[-85.3894,40.1144],[-85.3166,40.1018],[-85.2276,40.1417],[-85.248,40.1046],[-85.205,40.0461],[-85.1163,40.0934],[-85.1828,39.9945],[-85.0431,39.9922],[-85.1844,39.9599],[-85.1748,39.8964],[-85.0926,39.9525],[-85.0157,39.9292],[-84.9546,39.9922],[-84.935,39.9471],[-84.8745,39.9957],[-84.8677,39.958],[-84.8118,39.9563],[-84.8039,40.6826],[-84.8796,40.6588],[-84.9394,40.5721],[-84.9946,40.5502],[-84.9122,40.5086],[-85.0273,40.5445],[-85.2302,40.4877],[-84.9193,40.357],[-84.8958,40.2551],[-84.9552,40.3549],[-85.0567,40.3991],[-85.1027,40.3221],[-85.0682,40.2726],[-85.0239,40.2663],[-85.0529,40.2542],[-84.9374,40.1136],[-85.0431,40.2185],[-85.0509,40.1717],[-85.0787,40.2637],[-85.1281,40.2372],[-85.0956,40.2757],[-85.1198,40.316],[-85.0823,40.3716],[-85.099,40.4089],[-85.1388,40.4217],[-85.1473,40.3818],[-85.1605,40.425],[-85.2659,40.4613],[-85.2623,40.4879],[-85.3562,40.481],[-85.2785,40.3784],[-85.2966,40.3027],[-85.2864,40.3767],[-85.3734,40.4245],[-85.3553,40.4441],[-85.3811,40.4956],[-85.4459,40.5273],[-85.4526,40.4855],[-85.4559,40.5293],[-85.5434,40.5598],[-85.5608,40.5331],[-85.5945,40.5916],[-85.634,40.5577],[-85.606,40.6097],[-85.851,40.7256],[-85.6069,40.6279],[-85.5536,40.6549],[-85.5509,40.7143],[-85.543,40.656],[-85.4899,40.6648],[-85.5721,40.638],[-85.5705,40.5893],[-85.5272,40.6038],[-85.5376,40.5725],[-85.3927,40.5134],[-85.3541,40.5271],[-85.3324,40.4973],[-84.9893,40.5765],[-84.9369,40.6295],[-84.9416,40.7169],[-84.9187,40.6598],[-84.8032,40.6982],[-84.8037,40.847],[-84.9388,40.842],[-84.9996,40.9327],[-85.1475,40.9156],[-85.2047,40.9773],[-85.232,40.9539],[-85.3329,40.9844],[-85.5943,40.9883],[-85.6165,41.0635],[-85.5131,41.0766],[-85.4434,41.1511],[-85.495,41.1502],[-85.4765,41.1319],[-85.5052,41.0962],[-85.5888,41.0941],[-85.5913,41.0942]]],[[[-87.4782,41.6794],[-87.5246,41.7125],[-87.5248,40.9061],[-87.2225,41.2515],[-87.3919,41.3266],[-87.4857,41.4528],[-87.4521,41.5252],[-87.3391,41.5959],[-87.3298,41.5322],[-87.2378,41.5393],[-87.2201,41.6248],[-87.3637,41.6298],[-87.4346,41.6508],[-87.4232,41.6801],[-87.478,41.6794],[-87.4782,41.6794]]],[[[-85.2338,39.8727],[-85.2833,39.8753],[-85.281,39.8468],[-85.3182,39.853],[-85.3394,39.8178],[-85.2884,39.7847],[-85.3184,39.7342],[-85.2593,39.7296],[-85.2677,39.7712],[-85.1819,39.747],[-85.1926,39.778],[-85.2496,39.7906],[-85.2152,39.8316],[-85.2337,39.8721],[-85.2338,39.8727]]],[[[-84.8137,39.8398],[-84.8856,39.7869],[-84.8655,39.7753],[-84.8963,39.7509],[-84.8702,39.7343],[-84.9057,39.7196],[-84.849,39.6918],[-84.8143,39.7203],[-84.8139,39.8282],[-84.8137,39.8398]]],[[[-84.8199,39.888],[-84.819,39.9463],[-84.8775,39.8923],[-84.8205,39.888],[-84.8199,39.888]]],[[[-84.8135,39.8578],[-84.813,39.8823],[-84.8622,39.8539],[-84.8136,39.8502],[-84.8135,39.8578]]],[[[-85.266,40.067],[-85.2917,40.0912],[-85.267,40.067],[-85.266,40.067]]],[[[-84.8477,39.6515],[-84.8145,39.6853],[-84.8484,39.6515],[-84.8477,39.6515]]],[[[-85.0027,39.7362],[-84.9938,39.7616],[-85.0034,39.7361],[-85.0027,39.7362]]],[[[-84.8871,39.5481],[-84.8921,39.5743],[-84.8883,39.5481],[-84.8871,39.5481]]],[[[-86.9909,40.9783],[-86.9917,40.9783],[-86.9909,40.9783]]],[[[-85.1084,39.233],[-85.1089,39.2329],[-85.1084,39.233]]],[[[-85.6373,39.117],[-85.6379,39.1169],[-85.6373,39.117]]],[[[-84.9097,39.7659],[-84.9103,39.7659],[-84.9097,39.7659]]],[[[-85.7013,38.4112],[-85.7023,38.4109],[-85.7013,38.4112]]],[[[-85.1041,39.2282],[-85.1045,39.2282],[-85.1041,39.2282]]],[[[-85.1944,39.6127],[-85.1947,39.6127],[-85.1944,39.6127]]],[[[-85.2084,39.6211],[-85.2086,39.6211],[-85.2084,39.6211]]]]},"properties":{"lithology":"Limestone","name":"Bainbridge","unit":"S1","ages":"Silurian","formations":"Moccasin Springs, Bailey, Cataract, Waldron, St. Clair, Salamonie"}},{"type":"Feature","geometry":{"type":"MultiPolygon","coordinates":[[[[-86.0561,41.1298],[-86.084,41.1689],[-86.5183,40.9319],[-86.533,40.9067],[-86.5019,40.862],[-86.3995,40.9271],[-86.461,40.8605],[-86.4306,40.8505],[-86.4544,40.8156],[-86.3541,40.8915],[-86.3534,40.8492],[-86.2256,40.9086],[-86.2865,40.8615],[-86.2474,40.8525],[-86.1414,40.963],[-86.1716,40.9923],[-85.9526,41.0014],[-85.9374,41.0216],[-86.1032,41.0615],[-86.099,41.0975],[-85.9877,41.161],[-86.0553,41.1298],[-86.0561,41.1298]]],[[[-86.2684,40.7939],[-86.3722,40.801],[-86.342,40.7784],[-86.4501,40.7681],[-86.4319,40.7512],[-86.513,40.7154],[-86.499,40.6895],[-86.412,40.7203],[-86.3244,40.708],[-86.1962,40.643],[-86.1301,40.6888],[-86.0496,40.6037],[-86.0871,40.5859],[-86.1077,40.6086],[-86.156,40.5586],[-86.2571,40.5762],[-86.2692,40.6055],[-86.3283,40.5613],[-86.429,40.581],[-86.503,40.556],[-86.4353,40.5693],[-86.3336,40.5379],[-86.2779,40.5767],[-86.2559,40.5408],[-86.0311,40.6001],[-86.0679,40.6791],[-86.1672,40.7404],[-86.1342,40.774],[-86.2667,40.7934],[-86.2684,40.7939]]],[[[-86.2631,40.5322],[-86.2989,40.5137],[-86.215,40.4622],[-86.1595,40.4644],[-86.2528,40.391],[-86.2058,40.3209],[-86.0431,40.3494],[-86.0066,40.4115],[-86.0623,40.4949],[-86.262,40.5321],[-86.2631,40.5322]]],[[[-84.8581,40.9852],[-84.9078,40.9821],[-84.9112,40.9529],[-85.2047,40.9773],[-85.1475,40.9156],[-85.0,40.9329],[-84.9219,40.8391],[-84.8037,40.847],[-84.8034,40.9694],[-84.8563,40.9851],[-84.8581,40.9852]]],[[[-87.2158,41.1654],[-87.1686,41.2222],[-87.2233,41.2511],[-87.328,41.1561],[-87.4024,41.0174],[-87.2183,41.164],[-87.2158,41.1654]]],[[[-86.0835,40.8921],[-86.1349,40.9057],[-86.1101,40.8805],[-86.2205,40.8432],[-86.1988,40.8166],[-86.0866,40.8583],[-86.0829,40.892],[-86.0835,40.8921]]],[[[-87.1409,40.9872],[-87.1878,40.9728],[-87.1939,40.9389],[-87.1345,40.9454],[-87.1401,40.9869],[-87.1409,40.9872]]]]},"properties":{"lithology":"Limestone","name":"Salina","unit":"S2","ages":"Silurian","formations":"Wabash, Bailey, Mocc. Springs, Louisville, Pleasant Mills"}},{"type":"Feature","geometry":{"type":"MultiPolygon","coordinates":[[[[-86.5504,38.2216],[-86.5515,38.1784],[-86.5204,38.1768],[-86.5648,38.139],[-86.5064,38.1595],[-86.5485,38.1183],[-86.5201,38.1144],[-86.5191,38.0792],[-86.5107,38.1375],[-86.4652,38.1492],[-86.496,38.175],[-86.4635,38.1861],[-86.5104,38.1813],[-86.55,38.2216],[-86.5504,38.2216]]],[[[-86.6094,38.1551],[-86.6889,38.1024],[-86.6344,38.0735],[-86.6493,38.0935],[-86.6237,38.1082],[-86.6806,38.1069],[-86.6209,38.1217],[-86.642,38.1251],[-86.6091,38.155],[-86.6094,38.1551]]],[[[-86.6312,37.8848],[-86.6307,37.8847],[-86.6312,37.8848]]],[[[-86.5463,38.0546],[-86.5461,38.0545],[-86.5463,38.0546]]],[[[-86.6801,38.0781],[-86.6797,38.078],[-86.6801,38.0781]]],[[[-86.4626,38.1382],[-86.4623,38.1382],[-86.4626,38.1382]]],[[[-86.6134,37.8934],[-86.6124,37.8933],[-86.6134,37.8934]]],[[[-86.5531,38.0439],[-86.552,38.0439],[-86.5531,38.0439]]],[[[-86.5701,38.1892],[-86.5699,38.1892],[-86.5701,38.1892]]],[[[-86.5228,38.2141],[-86.5225,38.214],[-86.5228,38.2141]]],[[[-86.5654,38.1565],[-86.565,38.1565],[-86.5654,38.1565]]],[[[-86.5681,38.2253],[-86.5942,38.1229],[-86.5487,38.085],[-86.6032,38.1006],[-86.5414,38.0711],[-86.6078,38.0538],[-86.5602,37.9392],[-86.5961,37.9322],[-86.5602,37.9392],[-86.6078,38.0538],[-86.5414,38.0711],[-86.6032,38.1006],[-86.5486,38.085],[-86.5941,38.1229],[-86.5676,38.2253],[-86.5681,38.2253]]],[[[-86.5403,38.0245],[-86.54,38.0244],[-86.5403,38.0245]]],[[[-86.5396,37.9608],[-86.5392,37.9608],[-86.5396,37.9608]]],[[[-86.6529,38.0235],[-86.6758,37.9275],[-86.6536,38.0234],[-86.6437,37.9737],[-86.6317,38.0232],[-86.6042,37.9988],[-86.6529,37.9478],[-86.5882,37.957],[-86.6661,37.9169],[-86.5882,37.957],[-86.6529,37.9478],[-86.6041,37.9988],[-86.6317,38.0232],[-86.6437,37.9737],[-86.6527,38.0234],[-86.6529,38.0235]]],[[[-86.6286,38.2451],[-86.7027,38.1441],[-86.6028,38.1836],[-86.6641,38.1742],[-86.5844,38.2347],[-86.6641,38.1742],[-86.603,38.1834],[-86.704,38.1453],[-86.6279,38.2449],[-86.6286,38.2451]]],[[[-86.5424,38.2404],[-86.5422,38.2403],[-86.5424,38.2404]]],[[[-86.5603,38.0457],[-86.5598,38.0456],[-86.5603,38.0457]]],[[[-86.6318,37.8697],[-86.6315,37.8696],[-86.6318,37.8697]]],[[[-86.5444,38.0164],[-86.544,38.0164],[-86.5444,38.0164]]],[[[-86.72,38.2486],[-86.7367,38.2003],[-86.7686,38.1997],[-86.7369,38.1913],[-86.6586,38.2416],[-86.7376,38.1914],[-86.7685,38.1997],[-86.7366,38.2003],[-86.7204,38.2486],[-86.72,38.2486]]],[[[-86.6222,38.2344],[-86.6218,38.2343],[-86.6222,38.2344]]],[[[-86.7014,38.2493],[-86.7022,38.2492],[-86.7014,38.2493]]],[[[-86.5985,37.9196],[-86.5988,37.9196],[-86.5985,37.9196]]]]},"properties":{"lithology":"Limestone","name":"Menard","unit":"MM","ages":"Mississippian","formations":"Menard, Tobinsport, Branchville"}},{"type":"Feature","geometry":{"type":"MultiPolygon","coordinates":[[[[-85.7288,40.8219],[-85.7966,40.7966],[-85.805,40.7492],[-85.8392,40.7522],[-85.793,40.7348],[-85.7429,40.7842],[-85.7267,40.7577],[-85.6839,40.7768],[-85.728,40.8218],[-85.7288,40.8219]]],[[[-85.6944,40.7451],[-85.7248,40.7034],[-85.688,40.7345],[-85.6354,40.6991],[-85.694,40.7451],[-85.6944,40.7451]]],[[[-86.0063,40.7634],[-85.9729,40.7085],[-85.9374,40.7382],[-86.0058,40.7634],[-86.0063,40.7634]]],[[[-85.3951,40.9249],[-85.478,40.9032],[-85.4648,40.8849],[-85.3944,40.9248],[-85.3951,40.9249]]],[[[-85.8643,40.7876],[-85.901,40.777],[-85.8698,40.7611],[-85.8288,40.7844],[-85.864,40.7876],[-85.8643,40.7876]]],[[[-85.9079,40.7268],[-85.9013,40.6998],[-85.9074,40.7268],[-85.9079,40.7268]]],[[[-85.8434,40.696],[-85.8432,40.696],[-85.8434,40.696]]],[[[-85.6892,40.8235],[-85.6885,40.8234],[-85.6892,40.8235]]],[[[-85.8908,40.6933],[-85.8903,40.6933],[-85.8908,40.6933]]],[[[-85.7769,41.007],[-85.8628,40.9753],[-86.0323,40.9823],[-86.0818,40.9505],[-86.1294,40.9773],[-86.2635,40.8391],[-86.3774,40.8516],[-86.4673,40.8031],[-86.4703,40.8676],[-86.6445,40.7045],[-86.6938,40.7],[-86.6856,40.6335],[-86.7307,40.6007],[-86.6682,40.6141],[-86.6589,40.6732],[-86.581,40.7379],[-86.3624,40.8086],[-86.1395,40.7842],[-86.0335,40.6624],[-86.071,40.732],[-86.0168,40.7491],[-85.9859,40.6809],[-85.941,40.7058],[-85.8749,40.6712],[-85.8957,40.6572],[-85.8503,40.6478],[-85.7979,40.5574],[-85.7815,40.5863],[-85.8401,40.668],[-85.7902,40.6676],[-85.6624,40.5771],[-85.7229,40.5553],[-85.7315,40.5105],[-85.7073,40.4888],[-85.7317,40.4513],[-85.6806,40.4694],[-85.6799,40.3752],[-85.8486,40.2762],[-85.8876,40.3027],[-85.7974,40.3692],[-85.9842,40.2818],[-85.7974,40.3692],[-85.8877,40.3027],[-85.8486,40.2762],[-85.6799,40.3752],[-85.6806,40.4694],[-85.7317,40.4513],[-85.7072,40.4888],[-85.7314,40.5105],[-85.7229,40.5553],[-85.6624,40.5772],[-85.7902,40.6676],[-85.8402,40.668],[-85.7815,40.5863],[-85.7979,40.5574],[-85.8503,40.6478],[-85.8957,40.6572],[-85.8749,40.6712],[-85.941,40.7059],[-85.9859,40.6809],[-86.0168,40.7491],[-86.071,40.732],[-86.0335,40.6624],[-86.1395,40.7842],[-86.3624,40.8086],[-86.581,40.7379],[-86.6589,40.6733],[-86.6682,40.6142],[-86.7307,40.6007],[-86.6855,40.6335],[-86.6938,40.7],[-86.6445,40.7045],[-86.4712,40.8671],[-86.4673,40.8031],[-86.3774,40.8516],[-86.2586,40.8403],[-86.129,40.9775],[-86.0818,40.9505],[-86.0323,40.9823],[-85.8628,40.9753],[-85.7769,41.0069],[-85.7834,40.9613],[-85.8279,40.9538],[-85.7931,40.9204],[-85.9497,40.97],[-86.0058,40.9269],[-86.0918,40.9303],[-86.0296,40.8645],[-86.1297,40.9181],[-86.2454,40.8363],[-86.2189,40.8093],[-86.133,40.8306],[-86.1457,40.8068],[-86.0758,40.8168],[-86.1005,40.7947],[-86.0768,40.7879],[-86.0391,40.8307],[-86.0449,40.789],[-85.9395,40.7734],[-85.8864,40.8294],[-85.8996,40.7887],[-85.821,40.7985],[-85.7868,40.8373],[-85.5882,40.8725],[-85.574,40.912],[-85.6126,40.9309],[-85.574,40.912],[-85.588,40.8726],[-85.7869,40.8373],[-85.821,40.7985],[-85.8996,40.7887],[-85.8864,40.8295],[-85.9395,40.7734],[-86.0449,40.789],[-86.0391,40.8307],[-86.0772,40.7879],[-86.1004,40.7947],[-86.0758,40.8168],[-86.1457,40.8068],[-86.1328,40.8306],[-86.2388,40.8149],[-86.242,40.8397],[-86.1287,40.9183],[-86.0296,40.8645],[-86.0918,40.9303],[-86.0058,40.9269],[-85.9497,40.97],[-85.7936,40.9201],[-85.8279,40.9538],[-85.7834,40.9613],[-85.7755,41.0067],[-85.7769,41.007]]],[[[-85.6763,40.7679],[-85.6761,40.7679],[-85.6763,40.7679]]],[[[-85.671,40.8441],[-85.6707,40.8441],[-85.671,40.8441]]],[[[-85.7627,40.8758],[-85.7625,40.8757],[-85.7627,40.8758]]],[[[-85.9139,40.7018],[-85.9134,40.7018],[-85.9139,40.7018]]],[[[-85.6695,40.6027],[-85.6689,40.6026],[-85.6695,40.6027]]],[[[-85.9746,40.1751],[-85.9879,40.2196],[-85.9251,40.136],[-85.8849,40.1582],[-85.8713,40.0846],[-85.8849,40.1582],[-85.9244,40.1357],[-85.9583,40.2012],[-85.9744,40.1751],[-85.9746,40.1751]]]]},"properties":{"lithology":"Limestone","name":"Liston Creek","unit":"SLC","ages":"Silurian","formations":"Wabash, Bailey"}}]}