{"type": "FeatureCollection", "features": [{"type": "Feature", "geometry": {"type": "Point", "coordinates": [-86.56714302441449, 39.07971579735217]}, "properties": {"count": 428, "radius_m": 8.5, "source": "igws"}}, {"type": "Feature", "geometry": {"type": "Point", "coordinates": [-86.65411117744179, 39.287858291008355]}, "properties": {"count": 260, "radius_m": 8.9, "source": "igws"}}, {"type": "Feature", "geometry": {"type": "Point", "coordinates": [-86.64142248155551, 39.254818476406456]}, "properties": {"count": 213, "radius_m": 8.9, "source": "igws"}}, {"type": "Feature", "geometry": {"type": "Point", "coordinates": [-86.62294609147062, 39.17853748956557]}, "properties": {"count": 172, "radius_m": 8.5, "source": "igws"}}, {"type": "Feature", "geometry": {"type": "Point", "coordinates": [-86.5820249760063, 39.12926402420878]}, "properties": {"count": 166, "radius_m": 4.3, "source": "igws"}}, {"type": "Feature", "geometry": {"type": "Point", "coordinates": [-86.54169857498387, 39.15960459274359]}, "properties": {"count": 161, "radius_m": 8.4, "source": "igws"}}, {"type": "Feature", "geometry": {"type": "Point", "coordinates": [-86.57161332916759, 39.227719709257066]}, "properties": {"count": 127, "radius_m": 11.2, "source": "igws"}}, {"type": "Feature", "geometry": {"type": "Point", "coordinates": [-86.6188451116575, 39.1304014155635]}, "properties": {"count": 122, "radius_m": 2.5, "source": "igws"}}, {"type": "Feature", "geometry": {"type": "Point", "coordinates": [-86.65064487742195, 39.125772306427564]}, "properties": {"count": 112, "radius_m": 5.3, "source": "igws"}}, {"type": "Feature", "geometry": {"type": "Point", "coordinates": [-86.64167986056607, 39.066817994137615]}, "properties": {"count": 98, "radius_m": 4.5, "source": "igws"}}, {"type": "Feature", "geometry": {"type": "Point", "coordinates": [-86.6413518355174, 39.10836680906732]}, "properties": {"count": 92, "radius_m": 2.9, "source": "igws"}}]}