{"type":"FeatureCollection","features":[{"type":"Feature","geometry":{"type":"Point","coordinates":[-84.93,40.75]},"properties":{"county":"Adams","risk_score":0.038,"level":"MINIMAL","est_sinkholes":416,"karst_belt":false}},{"type":"Feature","geometry":{"type":"Point","coordinates":[-85.07,41.08]},"properties":{"county":"Allen","risk_score":0.038,"level":"MINIMAL","est_sinkholes":831,"karst_belt":false}},{"type":"Feature","geometry":{"type":"Point","coordinates":[-85.9,39.21]},"properties":{"county":"Bartholomew","risk_score":0.11,"level":"MINIMAL","est_sinkholes":1645,"karst_belt":false}},{"type":"Feature","geometry":{"type":"Point","coordinates":[-87.31,40.61]},"properties":{"county":"Benton","risk_score":0.025,"level":"MINIMAL","est_sinkholes":466,"karst_belt":false}},{"type":"Feature","geometry":{"type":"Point","coordinates":[-85.32,40.47]},"properties":{"county":"Blackford","risk_score":0.016,"level":"MINIMAL","est_sinkholes":361,"karst_belt":false}},{"type":"Feature","geometry":{"type":"Point","coordinates":[-86.47,40.05]},"properties":{"county":"Boone","risk_score":0.042,"level":"MINIMAL","est_sinkholes":765,"karst_belt":false}},{"type":"Feature","geometry":{"type":"Point","coordinates":[-86.19,39.2]},"properties":{"county":"Brown","risk_score":0.153,"level":"MINIMAL","est_sinkholes":2001,"karst_belt":false}},{"type":"Feature","geometry":{"type":"Point","coordinates":[-86.56,40.58]},"properties":{"county":"Carroll","risk_score":0.009,"level":"MINIMAL","est_sinkholes":405,"karst_belt":false}},{"type":"Feature","geometry":{"type":"Point","coordinates":[-86.35,40.76]},"properties":{"county":"Cass","risk_score":0.031,"level":"MINIMAL","est_sinkholes":887,"karst_belt":false}},{"type":"Feature","geometry":{"type":"Point","coordinates":[-85.72,38.48]},"properties":{"county":"Clark","risk_score":0.617,"level":"MODERATE","est_sinkholes":5019,"karst_belt":true}},{"type":"Feature","geometry":{"type":"Point","coordinates":[-87.11,39.39]},"properties":{"county":"Clay","risk_score":0.029,"level":"MINIMAL","est_sinkholes":1135,"karst_belt":false}},{"type":"Feature","geometry":{"type":"Point","coordinates":[-86.48,40.29]},"properties":{"county":"Clinton","risk_score":0.026,"level":"MINIMAL","est_sinkholes":394,"karst_belt":false}},{"type":"Feature","geometry":{"type":"Point","coordinates":[-86.46,38.29]},"properties":{"county":"Crawford","risk_score":0.868,"level":"HIGH","est_sinkholes":6813,"karst_belt":true}},{"type":"Feature","geometry":{"type":"Point","coordinates":[-87.08,38.7]},"properties":{"county":"Daviess","risk_score":0.188,"level":"MINIMAL","est_sinkholes":2645,"karst_belt":false}},{"type":"Feature","geometry":{"type":"Point","coordinates":[-85.09,39.15]},"properties":{"county":"Dearborn","risk_score":0.033,"level":"MINIMAL","est_sinkholes":1152,"karst_belt":false}},{"type":"Feature","geometry":{"type":"Point","coordinates":[-85.49,39.34]},"properties":{"county":"Decatur","risk_score":0.048,"level":"MINIMAL","est_sinkholes":1156,"karst_belt":false}},{"type":"Feature","geometry":{"type":"Point","coordinates":[-85.06,41.36]},"properties":{"county":"DeKalb","risk_score":0.019,"level":"MINIMAL","est_sinkholes":411,"karst_belt":false}},{"type":"Feature","geometry":{"type":"Point","coordinates":[-85.4,40.23]},"properties":{"county":"Delaware","risk_score":0.009,"level":"MINIMAL","est_sinkholes":396,"karst_belt":false}},{"type":"Feature","geometry":{"type":"Point","coordinates":[-86.88,38.38]},"properties":{"county":"Dubois","risk_score":0.522,"level":"MODERATE","est_sinkholes":4224,"karst_belt":true}},{"type":"Feature","geometry":{"type":"Point","coordinates":[-85.86,41.6]},"properties":{"county":"Elkhart","risk_score":0.046,"level":"MINIMAL","est_sinkholes":823,"karst_belt":false}},{"type":"Feature","geometry":{"type":"Point","coordinates":[-85.18,39.64]},"properties":{"county":"Fayette","risk_score":0.047,"level":"MINIMAL","est_sinkholes":716,"karst_belt":false}},{"type":"Feature","geometry":{"type":"Point","coordinates":[-85.9,38.29]},"properties":{"county":"Floyd","risk_score":0.693,"level":"MODERATE","est_sinkholes":5763,"karst_belt":true}},{"type":"Feature","geometry":{"type":"Point","coordinates":[-87.24,40.2]},"properties":{"county":"Fountain","risk_score":0.034,"level":"MINIMAL","est_sinkholes":369,"karst_belt":false}},{"type":"Feature","geometry":{"type":"Point","coordinates":[-85.06,39.42]},"properties":{"county":"Franklin","risk_score":0.034,"level":"MINIMAL","est_sinkholes":1179,"karst_belt":false}},{"type":"Feature","geometry":{"type":"Point","coordinates":[-86.26,41.04]},"properties":{"county":"Fulton","risk_score":0.034,"level":"MINIMAL","est_sinkholes":819,"karst_belt":false}},{"type":"Feature","geometry":{"type":"Point","coordinates":[-87.44,38.31]},"properties":{"county":"Gibson","risk_score":0.146,"level":"MINIMAL","est_sinkholes":1999,"karst_belt":false}},{"type":"Feature","geometry":{"type":"Point","coordinates":[-85.66,40.52]},"properties":{"county":"Grant","risk_score":0.038,"level":"MINIMAL","est_sinkholes":360,"karst_belt":false}},{"type":"Feature","geometry":{"type":"Point","coordinates":[-86.97,39.04]},"properties":{"county":"Greene","risk_score":0.401,"level":"MODERATE","est_sinkholes":3348,"karst_belt":false}},{"type":"Feature","geometry":{"type":"Point","coordinates":[-86.05,40.07]},"properties":{"county":"Hamilton","risk_score":0.028,"level":"MINIMAL","est_sinkholes":364,"karst_belt":false}},{"type":"Feature","geometry":{"type":"Point","coordinates":[-85.77,39.83]},"properties":{"county":"Hancock","risk_score":0.038,"level":"MINIMAL","est_sinkholes":498,"karst_belt":false}},{"type":"Feature","geometry":{"type":"Point","coordinates":[-86.12,38.2]},"properties":{"county":"Harrison","risk_score":0.848,"level":"HIGH","est_sinkholes":6579,"karst_belt":true}},{"type":"Feature","geometry":{"type":"Point","coordinates":[-86.51,39.77]},"properties":{"county":"Hendricks","risk_score":0.039,"level":"MINIMAL","est_sinkholes":878,"karst_belt":false}},{"type":"Feature","geometry":{"type":"Point","coordinates":[-85.4,39.93]},"properties":{"county":"Henry","risk_score":0.03,"level":"MINIMAL","est_sinkholes":340,"karst_belt":false}},{"type":"Feature","geometry":{"type":"Point","coordinates":[-86.12,40.48]},"properties":{"county":"Howard","risk_score":0.015,"level":"MINIMAL","est_sinkholes":374,"karst_belt":false}},{"type":"Feature","geometry":{"type":"Point","coordinates":[-85.49,40.88]},"properties":{"county":"Huntington","risk_score":0.031,"level":"MINIMAL","est_sinkholes":363,"karst_belt":false}},{"type":"Feature","geometry":{"type":"Point","coordinates":[-86.04,38.91]},"properties":{"county":"Jackson","risk_score":0.535,"level":"MODERATE","est_sinkholes":4261,"karst_belt":true}},{"type":"Feature","geometry":{"type":"Point","coordinates":[-87.11,41.03]},"properties":{"county":"Jasper","risk_score":0.028,"level":"MINIMAL","est_sinkholes":1188,"karst_belt":false}},{"type":"Feature","geometry":{"type":"Point","coordinates":[-85.01,40.43]},"properties":{"county":"Jay","risk_score":0.009,"level":"MINIMAL","est_sinkholes":353,"karst_belt":false}},{"type":"Feature","geometry":{"type":"Point","coordinates":[-85.44,38.79]},"properties":{"county":"Jefferson","risk_score":0.181,"level":"MINIMAL","est_sinkholes":2623,"karst_belt":false}},{"type":"Feature","geometry":{"type":"Point","coordinates":[-85.63,38.99]},"properties":{"county":"Jennings","risk_score":0.189,"level":"MINIMAL","est_sinkholes":2733,"karst_belt":false}},{"type":"Feature","geometry":{"type":"Point","coordinates":[-86.1,39.49]},"properties":{"county":"Johnson","risk_score":0.021,"level":"MINIMAL","est_sinkholes":801,"karst_belt":false}},{"type":"Feature","geometry":{"type":"Point","coordinates":[-87.42,38.69]},"properties":{"county":"Knox","risk_score":0.167,"level":"MINIMAL","est_sinkholes":2344,"karst_belt":false}},{"type":"Feature","geometry":{"type":"Point","coordinates":[-85.86,41.24]},"properties":{"county":"Kosciusko","risk_score":0.039,"level":"MINIMAL","est_sinkholes":766,"karst_belt":false}},{"type":"Feature","geometry":{"type":"Point","coordinates":[-85.42,41.64]},"properties":{"county":"LaGrange","risk_score":0.044,"level":"MINIMAL","est_sinkholes":854,"karst_belt":false}},{"type":"Feature","geometry":{"type":"Point","coordinates":[-87.38,41.4]},"properties":{"county":"Lake","risk_score":0.045,"level":"MINIMAL","est_sinkholes":860,"karst_belt":false}},{"type":"Feature","geometry":{"type":"Point","coordinates":[-86.72,41.6]},"properties":{"county":"LaPorte","risk_score":0.044,"level":"MINIMAL","est_sinkholes":735,"karst_belt":false}},{"type":"Feature","geometry":{"type":"Point","coordinates":[-86.49,38.84]},"properties":{"county":"Lawrence","risk_score":0.894,"level":"HIGH","est_sinkholes":7251,"karst_belt":true}},{"type":"Feature","geometry":{"type":"Point","coordinates":[-85.72,40.16]},"properties":{"county":"Madison","risk_score":0.01,"level":"MINIMAL","est_sinkholes":472,"karst_belt":false}},{"type":"Feature","geometry":{"type":"Point","coordinates":[-86.14,39.78]},"properties":{"county":"Marion","risk_score":0.034,"level":"MINIMAL","est_sinkholes":733,"karst_belt":false}},{"type":"Feature","geometry":{"type":"Point","coordinates":[-86.26,41.33]},"properties":{"county":"Marshall","risk_score":0.029,"level":"MINIMAL","est_sinkholes":874,"karst_belt":false}},{"type":"Feature","geometry":{"type":"Point","coordinates":[-86.8,38.71]},"properties":{"county":"Martin","risk_score":0.575,"level":"MODERATE","est_sinkholes":4533,"karst_belt":true}},{"type":"Feature","geometry":{"type":"Point","coordinates":[-86.04,40.77]},"properties":{"county":"Miami","risk_score":0.018,"level":"MINIMAL","est_sinkholes":486,"karst_belt":false}},{"type":"Feature","geometry":{"type":"Point","coordinates":[-86.52,39.16]},"properties":{"county":"Monroe","risk_score":0.873,"level":"HIGH","est_sinkholes":6897,"karst_belt":true}},{"type":"Feature","geometry":{"type":"Point","coordinates":[-86.89,40.04]},"properties":{"county":"Montgomery","risk_score":0.016,"level":"MINIMAL","est_sinkholes":334,"karst_belt":false}},{"type":"Feature","geometry":{"type":"Point","coordinates":[-86.45,39.48]},"properties":{"county":"Morgan","risk_score":0.145,"level":"MINIMAL","est_sinkholes":2021,"karst_belt":false}},{"type":"Feature","geometry":{"type":"Point","coordinates":[-87.39,40.95]},"properties":{"county":"Newton","risk_score":0.021,"level":"MINIMAL","est_sinkholes":518,"karst_belt":false}},{"type":"Feature","geometry":{"type":"Point","coordinates":[-85.42,41.39]},"properties":{"county":"Noble","risk_score":0.038,"level":"MINIMAL","est_sinkholes":382,"karst_belt":false}},{"type":"Feature","geometry":{"type":"Point","coordinates":[-84.97,38.95]},"properties":{"county":"Ohio","risk_score":0.042,"level":"MINIMAL","est_sinkholes":1238,"karst_belt":false}},{"type":"Feature","geometry":{"type":"Point","coordinates":[-86.5,38.54]},"properties":{"county":"Orange","risk_score":0.917,"level":"HIGH","est_sinkholes":7160,"karst_belt":true}},{"type":"Feature","geometry":{"type":"Point","coordinates":[-86.84,39.31]},"properties":{"county":"Owen","risk_score":0.208,"level":"LOW","est_sinkholes":3002,"karst_belt":false}},{"type":"Feature","geometry":{"type":"Point","coordinates":[-87.21,39.78]},"properties":{"county":"Parke","risk_score":0.031,"level":"MINIMAL","est_sinkholes":826,"karst_belt":false}},{"type":"Feature","geometry":{"type":"Point","coordinates":[-86.67,38.08]},"properties":{"county":"Perry","risk_score":0.566,"level":"MODERATE","est_sinkholes":4639,"karst_belt":true}},{"type":"Feature","geometry":{"type":"Point","coordinates":[-87.24,38.4]},"properties":{"county":"Pike","risk_score":0.189,"level":"MINIMAL","est_sinkholes":2733,"karst_belt":false}},{"type":"Feature","geometry":{"type":"Point","coordinates":[-87.07,41.45]},"properties":{"county":"Porter","risk_score":0.027,"level":"MINIMAL","est_sinkholes":875,"karst_belt":false}},{"type":"Feature","geometry":{"type":"Point","coordinates":[-87.86,38.02]},"properties":{"county":"Posey","risk_score":0.122,"level":"MINIMAL","est_sinkholes":1547,"karst_belt":false}},{"type":"Feature","geometry":{"type":"Point","coordinates":[-86.69,41.04]},"properties":{"county":"Pulaski","risk_score":0.022,"level":"MINIMAL","est_sinkholes":789,"karst_belt":false}},{"type":"Feature","geometry":{"type":"Point","coordinates":[-86.84,39.67]},"properties":{"county":"Putnam","risk_score":0.116,"level":"MINIMAL","est_sinkholes":1557,"karst_belt":false}},{"type":"Feature","geometry":{"type":"Point","coordinates":[-85.01,40.15]},"properties":{"county":"Randolph","risk_score":0.011,"level":"MINIMAL","est_sinkholes":409,"karst_belt":false}},{"type":"Feature","geometry":{"type":"Point","coordinates":[-85.26,39.2]},"properties":{"county":"Ripley","risk_score":0.118,"level":"MINIMAL","est_sinkholes":1530,"karst_belt":false}},{"type":"Feature","geometry":{"type":"Point","coordinates":[-85.47,39.62]},"properties":{"county":"Rush","risk_score":0.037,"level":"MINIMAL","est_sinkholes":464,"karst_belt":false}},{"type":"Feature","geometry":{"type":"Point","coordinates":[-86.29,41.62]},"properties":{"county":"St. Joseph","risk_score":0.027,"level":"MINIMAL","est_sinkholes":720,"karst_belt":false}},{"type":"Feature","geometry":{"type":"Point","coordinates":[-85.74,38.68]},"properties":{"county":"Scott","risk_score":0.425,"level":"MODERATE","est_sinkholes":3762,"karst_belt":false}},{"type":"Feature","geometry":{"type":"Point","coordinates":[-85.79,39.52]},"properties":{"county":"Shelby","risk_score":0.045,"level":"MINIMAL","est_sinkholes":702,"karst_belt":false}},{"type":"Feature","geometry":{"type":"Point","coordinates":[-87,38.01]},"properties":{"county":"Spencer","risk_score":0.187,"level":"MINIMAL","est_sinkholes":2725,"karst_belt":false}},{"type":"Feature","geometry":{"type":"Point","coordinates":[-86.65,41.28]},"properties":{"county":"Starke","risk_score":0.034,"level":"MINIMAL","est_sinkholes":794,"karst_belt":false}},{"type":"Feature","geometry":{"type":"Point","coordinates":[-85,41.64]},"properties":{"county":"Steuben","risk_score":0.034,"level":"MINIMAL","est_sinkholes":366,"karst_belt":false}},{"type":"Feature","geometry":{"type":"Point","coordinates":[-87.41,39.09]},"properties":{"county":"Sullivan","risk_score":0.146,"level":"MINIMAL","est_sinkholes":1985,"karst_belt":false}},{"type":"Feature","geometry":{"type":"Point","coordinates":[-85.03,38.82]},"properties":{"county":"Switzerland","risk_score":0.118,"level":"MINIMAL","est_sinkholes":1604,"karst_belt":false}},{"type":"Feature","geometry":{"type":"Point","coordinates":[-86.89,40.39]},"properties":{"county":"Tippecanoe","risk_score":0.021,"level":"MINIMAL","est_sinkholes":396,"karst_belt":false}},{"type":"Feature","geometry":{"type":"Point","coordinates":[-86.05,40.31]},"properties":{"county":"Tipton","risk_score":0.015,"level":"MINIMAL","est_sinkholes":430,"karst_belt":false}},{"type":"Feature","geometry":{"type":"Point","coordinates":[-84.92,39.62]},"properties":{"county":"Union","risk_score":0.026,"level":"MINIMAL","est_sinkholes":818,"karst_belt":false}},{"type":"Feature","geometry":{"type":"Point","coordinates":[-87.58,38.02]},"properties":{"county":"Vanderburgh","risk_score":0.136,"level":"MINIMAL","est_sinkholes":1891,"karst_belt":false}},{"type":"Feature","geometry":{"type":"Point","coordinates":[-87.46,39.85]},"properties":{"county":"Vermillion","risk_score":0.036,"level":"MINIMAL","est_sinkholes":830,"karst_belt":false}},{"type":"Feature","geometry":{"type":"Point","coordinates":[-87.39,39.43]},"properties":{"county":"Vigo","risk_score":0.048,"level":"MINIMAL","est_sinkholes":1158,"karst_belt":false}},{"type":"Feature","geometry":{"type":"Point","coordinates":[-85.79,40.85]},"properties":{"county":"Wabash","risk_score":0.029,"level":"MINIMAL","est_sinkholes":445,"karst_belt":false}},{"type":"Feature","geometry":{"type":"Point","coordinates":[-87.36,40.35]},"properties":{"county":"Warren","risk_score":0.037,"level":"MINIMAL","est_sinkholes":403,"karst_belt":false}},{"type":"Feature","geometry":{"type":"Point","coordinates":[-87.27,38.1]},"properties":{"county":"Warrick","risk_score":0.174,"level":"MINIMAL","est_sinkholes":2323,"karst_belt":false}},{"type":"Feature","geometry":{"type":"Point","coordinates":[-86.11,38.6]},"properties":{"county":"Washington","risk_score":0.88,"level":"HIGH","est_sinkholes":7151,"karst_belt":true}},{"type":"Feature","geometry":{"type":"Point","coordinates":[-85.01,39.86]},"properties":{"county":"Wayne","risk_score":0.025,"level":"MINIMAL","est_sinkholes":511,"karst_belt":false}},{"type":"Feature","geometry":{"type":"Point","coordinates":[-85.22,40.73]},"properties":{"county":"Wells","risk_score":0.014,"level":"MINIMAL","est_sinkholes":361,"karst_belt":false}},{"type":"Feature","geometry":{"type":"Point","coordinates":[-86.86,40.75]},"properties":{"county":"White","risk_score":0.014,"level":"MINIMAL","est_sinkholes":337,"karst_belt":false}},{"type":"Feature","geometry":{"type":"Point","coordinates":[-85.5,41.14]},"properties":{"county":"Whitley","risk_score":0.038,"level":"MINIMAL","est_sinkholes":431,"karst_belt":false}}]}