{"type":"FeatureCollection","features":[{"type":"Feature","geometry":{"type":"Point","coordinates":[-86.6638,39.032]},"properties":{"musym":"AfB","muname":"Alford silt loam, 2 to 6 percent slopes","compname":"Alford","hydgrp":"B","kffact":0.43,"claytotal":17,"septic_risk":"LOW"}},{"type":"Feature","geometry":{"type":"Point","coordinates":[-86.6179,39.0357]},"properties":{"musym":"AgrC","muname":"Apalona-Zanesville silt loams, 6 to 12 percent slopes","compname":"Apalona","hydgrp":"C/D","kffact":0.43,"claytotal":18,"septic_risk":"LOW"}},{"type":"Feature","geometry":{"type":"Point","coordinates":[-86.5899,39.0436]},"properties":{"musym":"Ba","muname":"Bartle silt loam, 0 to 2 percent slopes","compname":"Bartle","hydgrp":"C/D","kffact":0.49,"claytotal":14,"septic_risk":"LOW"}},{"type":"Feature","geometry":{"type":"Point","coordinates":[-86.5466,39.0463]},"properties":{"musym":"BcrAW","muname":"Beanblossom silt loam, 0 to 3 percent slopes, occasionally f","compname":"Beanblossom","hydgrp":"B","kffact":0.49,"claytotal":12,"septic_risk":"LOW"}},{"type":"Feature","geometry":{"type":"Point","coordinates":[-86.4944,39.0316]},"properties":{"musym":"BdB","muname":"Bedford silt loam, 2 to 6 percent slopes","compname":"Bedford","hydgrp":"C/D","kffact":0.43,"claytotal":17,"septic_risk":"LOW"}},{"type":"Feature","geometry":{"type":"Point","coordinates":[-86.4698,39.0437]},"properties":{"musym":"BkF","muname":"Brownstown-Gilwood silt loams, 25 to 75 percent slopes","compname":"Brownstown","hydgrp":"C","kffact":0.43,"claytotal":16,"septic_risk":"LOW"}},{"type":"Feature","geometry":{"type":"Point","coordinates":[-86.4148,39.0323]},"properties":{"musym":"Bo","muname":"Bonnie silt loam, frequently flooded","compname":"Bonnie","hydgrp":"C/D","kffact":0.49,"claytotal":18,"septic_risk":"LOW"}},{"type":"Feature","geometry":{"type":"Point","coordinates":[-86.3792,39.0471]},"properties":{"musym":"CaD","muname":"Caneyville silt loam, 12 to 18 percent slopes","compname":"Caneyville","hydgrp":"C","kffact":0.37,"claytotal":18,"septic_risk":"LOW"}},{"type":"Feature","geometry":{"type":"Point","coordinates":[-86.6564,39.0801]},"properties":{"musym":"Cb","muname":"Caneyville-Hagerstown silt loams, 2 to 18 percent slopes, ka","compname":"Caneyville","hydgrp":"C","kffact":0.37,"claytotal":18,"septic_risk":"LOW"}},{"type":"Feature","geometry":{"type":"Point","coordinates":[-86.6286,39.0833]},"properties":{"musym":"ChF","muname":"Chetwynd silt loam, 25 to 70 percent slopes","compname":"Chetwynd","hydgrp":"B","kffact":0.37,"claytotal":9,"septic_risk":"LOW"}},{"type":"Feature","geometry":{"type":"Point","coordinates":[-86.5896,39.0755]},"properties":{"musym":"CoF","muname":"Corydon Variant-Caneyville Variant complex, 25 to 70 percent","compname":"Corydon variant","hydgrp":"D","kffact":0.32,"claytotal":24,"septic_risk":"MODERATE"}},{"type":"Feature","geometry":{"type":"Point","coordinates":[-86.5383,39.0788]},"properties":{"musym":"CrB","muname":"Crider silt loam, 2 to 6 percent slopes","compname":"Crider","hydgrp":"B","kffact":0.43,"claytotal":19,"septic_risk":"LOW"}},{"type":"Feature","geometry":{"type":"Point","coordinates":[-86.5082,39.0823]},"properties":{"musym":"CrC","muname":"Crider silt loam, 6 to 12 percent slopes","compname":"Crider","hydgrp":"B","kffact":0.43,"claytotal":19,"septic_risk":"LOW"}},{"type":"Feature","geometry":{"type":"Point","coordinates":[-86.4608,39.0848]},"properties":{"musym":"CrD","muname":"Crider silt loam, 12 to 18 percent slopes","compname":"Crider","hydgrp":"B","kffact":0.43,"claytotal":19,"septic_risk":"LOW"}},{"type":"Feature","geometry":{"type":"Point","coordinates":[-86.4235,39.0817]},"properties":{"musym":"CsC","muname":"Crider-Caneyville silt loams, 6 to 12 percent slopes","compname":"Crider","hydgrp":"B","kffact":0.43,"claytotal":19,"septic_risk":"LOW"}},{"type":"Feature","geometry":{"type":"Point","coordinates":[-86.3746,39.0789]},"properties":{"musym":"CtB","muname":"Crider-Urban land complex, 2 to 6 percent slopes","compname":"Crider","hydgrp":"B","kffact":0.43,"claytotal":19,"septic_risk":"LOW"}},{"type":"Feature","geometry":{"type":"Point","coordinates":[-86.6581,39.1166]},"properties":{"musym":"CtC","muname":"Crider-Urban land complex, 6 to 12 percent slopes","compname":"Crider","hydgrp":"B","kffact":0.43,"claytotal":19,"septic_risk":"LOW"}},{"type":"Feature","geometry":{"type":"Point","coordinates":[-86.625,39.1184]},"properties":{"musym":"Cu","muname":"Cuba silt loam, frequently flooded","compname":"Cuba","hydgrp":"B","kffact":0.43,"claytotal":17,"septic_risk":"LOW"}},{"type":"Feature","geometry":{"type":"Point","coordinates":[-86.5724,39.1119]},"properties":{"musym":"EbE","muname":"Ebal-Gilpin-Hagerstown silt loams, 18 to 25 percent slopes","compname":"Ebal","hydgrp":"C","kffact":0.37,"claytotal":16,"septic_risk":"LOW"}},{"type":"Feature","geometry":{"type":"Point","coordinates":[-86.5376,39.1182]},"properties":{"musym":"EdD","muname":"Ebal-Wellston-Gilpin silt loams, 12 to 18 percent slopes","compname":"Ebal","hydgrp":"C","kffact":0.37,"claytotal":16,"septic_risk":"LOW"}},{"type":"Feature","geometry":{"type":"Point","coordinates":[-86.5036,39.127]},"properties":{"musym":"EkB","muname":"Elkinsville silt loam, 2 to 6 percent slopes","compname":"Elkinsville","hydgrp":"C","kffact":0.49,"claytotal":14,"septic_risk":"LOW"}},{"type":"Feature","geometry":{"type":"Point","coordinates":[-86.4511,39.1263]},"properties":{"musym":"EkF","muname":"Elkinsville silt loam, upland, 20 to 40 percent slopes","compname":"Elkinsville","hydgrp":"B","kffact":0.37,"claytotal":14,"septic_risk":"LOW"}},{"type":"Feature","geometry":{"type":"Point","coordinates":[-86.4276,39.1176]},"properties":{"musym":"GpD","muname":"Gilpin silt loam, 12 to 18 percent slopes","compname":"Gilpin","hydgrp":"C","kffact":0.37,"claytotal":15,"septic_risk":"LOW"}},{"type":"Feature","geometry":{"type":"Point","coordinates":[-86.3702,39.1289]},"properties":{"musym":"GrD","muname":"Gilpin-Gullied land complex, 12 to 22 percent slopes","compname":"Gilpin","hydgrp":"C","kffact":0.32,"claytotal":21,"septic_risk":"MODERATE"}},{"type":"Feature","geometry":{"type":"Point","coordinates":[-86.6547,39.1598]},"properties":{"musym":"HaC","muname":"Hagerstown silt loam, 6 to 12 percent slopes","compname":"Hagerstown","hydgrp":"C","kffact":0.37,"claytotal":20,"septic_risk":"MODERATE"}},{"type":"Feature","geometry":{"type":"Point","coordinates":[-86.6218,39.1532]},"properties":{"musym":"HaD","muname":"Hagerstown silt loam, 12 to 20 percent slopes","compname":"Hagerstown","hydgrp":"C","kffact":0.37,"claytotal":20,"septic_risk":"MODERATE"}},{"type":"Feature","geometry":{"type":"Point","coordinates":[-86.5899,39.1518]},"properties":{"musym":"HaE","muname":"Hagerstown silt loam, 20 to 25 percent slopes","compname":"Hagerstown","hydgrp":"B","kffact":0.43,"claytotal":20,"septic_risk":"MODERATE"}},{"type":"Feature","geometry":{"type":"Point","coordinates":[-86.5437,39.1649]},"properties":{"musym":"HbD3","muname":"Hagerstown silty clay loam, 12 to 22 percent slopes, severel","compname":"Hagerstown","hydgrp":"B","kffact":0.43,"claytotal":28,"septic_risk":"MODERATE"}},{"type":"Feature","geometry":{"type":"Point","coordinates":[-86.5069,39.1602]},"properties":{"musym":"Hc","muname":"Hagerstown-Caneyville silt loams, karst","compname":"Hagerstown","hydgrp":"B","kffact":0.43,"claytotal":20,"septic_risk":"MODERATE"}},{"type":"Feature","geometry":{"type":"Point","coordinates":[-86.466,39.1555]},"properties":{"musym":"Hd","muname":"Haymond silt loam, frequently flooded","compname":"Haymond","hydgrp":"B","kffact":0.43,"claytotal":15,"septic_risk":"LOW"}},{"type":"Feature","geometry":{"type":"Point","coordinates":[-86.4189,39.1608]},"properties":{"musym":"HkF","muname":"Hickory silt loam, 25 to 70 percent slopes","compname":"Hickory","hydgrp":"B","kffact":0.37,"claytotal":8,"septic_risk":"LOW"}},{"type":"Feature","geometry":{"type":"Point","coordinates":[-86.3727,39.1599]},"properties":{"musym":"HoA","muname":"Hosmer silt loam, 0 to 2 percent slopes","compname":"Hosmer","hydgrp":"D","kffact":0.43,"claytotal":15,"septic_risk":"LOW"}},{"type":"Feature","geometry":{"type":"Point","coordinates":[-86.6575,39.1932]},"properties":{"musym":"HoB","muname":"Hosmer silt loam, 2 to 6 percent slopes","compname":"Hosmer","hydgrp":"D","kffact":0.43,"claytotal":15,"septic_risk":"LOW"}},{"type":"Feature","geometry":{"type":"Point","coordinates":[-86.6231,39.1909]},"properties":{"musym":"HoC","muname":"Hosmer silt loam, 6 to 12 percent slopes","compname":"Hosmer","hydgrp":"D","kffact":0.43,"claytotal":15,"septic_risk":"LOW"}},{"type":"Feature","geometry":{"type":"Point","coordinates":[-86.5774,39.1987]},"properties":{"musym":"HtB","muname":"Hosmer-Urban land complex, 2 to 12 percent slopes","compname":"Hosmer","hydgrp":"D","kffact":0.43,"claytotal":15,"septic_risk":"LOW"}},{"type":"Feature","geometry":{"type":"Point","coordinates":[-86.5368,39.2097]},"properties":{"musym":"IvA","muname":"Iva silt loam, 0 to 2 percent slopes","compname":"Iva","hydgrp":"B/D","kffact":0.49,"claytotal":13,"septic_risk":"LOW"}},{"type":"Feature","geometry":{"type":"Point","coordinates":[-86.4901,39.1976]},"properties":{"musym":"MbB","muname":"Martinsville loam, 2 to 6 percent slopes","compname":"Martinsville","hydgrp":"B","kffact":0.32,"claytotal":13,"septic_risk":"LOW"}},{"type":"Feature","geometry":{"type":"Point","coordinates":[-86.4508,39.1903]},"properties":{"musym":"PaB","muname":"Parke silt loam, 2 to 6 percent slopes","compname":"Parke","hydgrp":"B","kffact":0.43,"claytotal":22,"septic_risk":"MODERATE"}},{"type":"Feature","geometry":{"type":"Point","coordinates":[-86.4239,39.2021]},"properties":{"musym":"PaC","muname":"Parke silt loam, 6 to 12 percent slopes","compname":"Parke","hydgrp":"B","kffact":0.43,"claytotal":22,"septic_risk":"MODERATE"}},{"type":"Feature","geometry":{"type":"Point","coordinates":[-86.3738,39.1979]},"properties":{"musym":"PcD","muname":"Parke-Chetwynd silt loams, 12 to 18 percent slopes","compname":"Parke","hydgrp":"B","kffact":0.43,"claytotal":22,"septic_risk":"MODERATE"}},{"type":"Feature","geometry":{"type":"Point","coordinates":[-86.6539,39.2415]},"properties":{"musym":"PeA","muname":"Pekin silt loam, 0 to 2 percent slopes","compname":"Pekin","hydgrp":"C","kffact":0.43,"claytotal":18,"septic_risk":"LOW"}},{"type":"Feature","geometry":{"type":"Point","coordinates":[-86.6151,39.2457]},"properties":{"musym":"PeB","muname":"Pekin silt loam, 2 to 6 percent slopes","compname":"Pekin","hydgrp":"C/D","kffact":0.43,"claytotal":18,"septic_risk":"LOW"}},{"type":"Feature","geometry":{"type":"Point","coordinates":[-86.5808,39.2484]},"properties":{"musym":"PeC","muname":"Pekin silt loam, 6 to 12 percent slopes","compname":"Pekin","hydgrp":"C/D","kffact":0.49,"claytotal":12,"septic_risk":"LOW"}},{"type":"Feature","geometry":{"type":"Point","coordinates":[-86.5403,39.2317]},"properties":{"musym":"Po","muname":"Peoga silt loam, 0 to 1 percent slopes","compname":"Peoga","hydgrp":"C/D","kffact":0.49,"claytotal":17,"septic_risk":"LOW"}},{"type":"Feature","geometry":{"type":"Point","coordinates":[-86.501,39.2387]},"properties":{"musym":"PrC","muname":"Princeton loam, 4 to 10 percent slopes","compname":"Princeton","hydgrp":"B","kffact":0.43,"claytotal":9,"septic_risk":"LOW"}},{"type":"Feature","geometry":{"type":"Point","coordinates":[-86.4541,39.247]},"properties":{"musym":"PrE","muname":"Princeton loam, 18 to 25 percent slopes","compname":"Princeton","hydgrp":"B","kffact":0.43,"claytotal":9,"septic_risk":"LOW"}},{"type":"Feature","geometry":{"type":"Point","coordinates":[-86.4144,39.2354]},"properties":{"musym":"RcB","muname":"Ryker silt loam, 2 to 6 percent slopes","compname":"Ryker","hydgrp":"B","kffact":0.43,"claytotal":19,"septic_risk":"LOW"}},{"type":"Feature","geometry":{"type":"Point","coordinates":[-86.389,39.2327]},"properties":{"musym":"RcC","muname":"Ryker silt loam, 6 to 12 percent slopes","compname":"Ryker","hydgrp":"B","kffact":0.43,"claytotal":19,"septic_risk":"LOW"}},{"type":"Feature","geometry":{"type":"Point","coordinates":[-86.6542,39.2861]},"properties":{"musym":"RcD","muname":"Ryker silt loam, 12 to 18 percent slopes","compname":"Ryker","hydgrp":"B","kffact":0.43,"claytotal":19,"septic_risk":"LOW"}},{"type":"Feature","geometry":{"type":"Point","coordinates":[-86.6267,39.2742]},"properties":{"musym":"Sf","muname":"Steff silt loam, 0 to 2 percent slopes, frequently flooded","compname":"Steff","hydgrp":"B/D","kffact":0.43,"claytotal":15,"septic_risk":"LOW"}},{"type":"Feature","geometry":{"type":"Point","coordinates":[-86.5805,39.2798]},"properties":{"musym":"St","muname":"Stendal silt loam, 0 to 2 percent slopes, frequently flooded","compname":"Stendal","hydgrp":"B/D","kffact":0.43,"claytotal":16,"septic_risk":"LOW"}},{"type":"Feature","geometry":{"type":"Point","coordinates":[-86.5349,39.272]},"properties":{"musym":"Sx","muname":"Stonelick silt loam, frequently flooded","compname":"Stonelick","hydgrp":"B","kffact":0.49,"claytotal":11,"septic_risk":"LOW"}},{"type":"Feature","geometry":{"type":"Point","coordinates":[-86.4931,39.2782]},"properties":{"musym":"TlA","muname":"Tilsit silt loam, 0 to 2 percent slopes","compname":"Tilsit","hydgrp":"C/D","kffact":0.43,"claytotal":18,"septic_risk":"LOW"}},{"type":"Feature","geometry":{"type":"Point","coordinates":[-86.4512,39.283]},"properties":{"musym":"TlB","muname":"Zanesville silt loam, 2 to 6 percent slopes","compname":"Zanesville","hydgrp":"C/D","kffact":0.43,"claytotal":18,"septic_risk":"LOW"}},{"type":"Feature","geometry":{"type":"Point","coordinates":[-86.4122,39.284]},"properties":{"musym":"Wa","muname":"Wakeland silt loam, 0 to 2 percent slopes, frequently floode","compname":"Wakeland","hydgrp":"B/D","kffact":0.43,"claytotal":15,"septic_risk":"LOW"}},{"type":"Feature","geometry":{"type":"Point","coordinates":[-86.376,39.2776]},"properties":{"musym":"WeC","muname":"Wellston silt loam, 6 to 12 percent slopes","compname":"Wellston","hydgrp":"B","kffact":0.43,"claytotal":20,"septic_risk":"MODERATE"}},{"type":"Feature","geometry":{"type":"Point","coordinates":[-86.6679,39.3221]},"properties":{"musym":"Wo","muname":"Whitaker loam","compname":"Whitaker","hydgrp":"B/D","kffact":0.37,"claytotal":14,"septic_risk":"LOW"}},{"type":"Feature","geometry":{"type":"Point","coordinates":[-86.626,39.3214]},"properties":{"musym":"Wr","muname":"Wilbur silt loam, frequently flooded","compname":"Wilbur","hydgrp":"B/D","kffact":0.43,"claytotal":16,"septic_risk":"LOW"}},{"type":"Feature","geometry":{"type":"Point","coordinates":[-86.5723,39.3147]},"properties":{"musym":"WyqD","muname":"Wrays-Gilwood silt loams, 6 to 20 percent slopes","compname":"Wrays","hydgrp":"C","kffact":0.43,"claytotal":14,"septic_risk":"LOW"}},{"type":"Feature","geometry":{"type":"Point","coordinates":[-86.5389,39.325]},"properties":{"musym":"Zo","muname":"Zipp silty clay loam","compname":"Zipp","hydgrp":"C/D","kffact":0.32,"claytotal":35,"septic_risk":"MODERATE"}},{"type":"Feature","geometry":{"type":"Point","coordinates":[-86.4917,39.3292]},"properties":{"musym":"Zp","muname":"Zipp silty clay loam, frequently flooded","compname":"Zipp","hydgrp":"D","kffact":0.32,"claytotal":35,"septic_risk":"HIGH"}},{"type":"Feature","geometry":{"type":"Point","coordinates":[-86.4527,39.329]},"properties":{"musym":"Zs","muname":"Zipp Variant silt loam, frequently flooded","compname":"Zipp variant","hydgrp":"C/D","kffact":0.43,"claytotal":24,"septic_risk":"MODERATE"}}],"_meta":{"county":"Monroe IN105","count":62,"source":"USDA SDA Tabular post.rest (no key)","generated":"2026-08-27T19:21:42.852Z"}}